{
  "type": "FeatureCollection",
  "features": [
    {
      "type": "Feature",
      "properties": {
        "NAME": "The Republic of Benin",
        "shapeISO": "BEN",
        "shapeID": "84139743B99999625492710",
        "shapeGroup": "BEN",
        "shapeType": "ADM0"
      },
      "geometry": {
        "type": "Polygon",
        "coordinates": [
          [
            [-5504901.979902177, 3499654.7882069796],
            [-5505985.944108249, 3505680.1364687397],
            [-5505483.918827073, 3508693.14362745],
            [-5505912.335424063, 3512604.71676672],
            [-5507320.138804332, 3513428.434047524],
            [-5507987.0633666795, 3515787.492109412],
            [-5507803.205946621, 3519263.184776364],
            [-5506152.509789836, 3520737.727665985],
            [-5504948.800775014, 3522591.932881204],
            [-5506239.332427308, 3525632.0100562754],
            [-5506955.335711425, 3528375.300974111],
            [-5508616.573763929, 3527892.2083357293],
            [-5510771.27545269, 3528919.6343155853],
            [-5512079.043675263, 3530317.2470136485],
            [-5511740.951060333, 3533783.08271249],
            [-5511759.761451991, 3538049.70281449],
            [-5512788.330602415, 3542003.7970551825],
            [-5515236.174423777, 3543044.981828599],
            [-5516861.551390071, 3546503.378617188],
            [-5515757.592498182, 3550185.282815788],
            [-5512710.995402381, 3552915.6044620327],
            [-5513976.722034516, 3554527.0756613915],
            [-5517033.047066708, 3556038.4885355225],
            [-5518252.300054228, 3558875.222485842],
            [-5516331.240218768, 3560342.5842308244],
            [-5517158.747421282, 3564008.00709825],
            [-5519909.310466083, 3569965.1076673516],
            [-5521660.630393406, 3572059.021077665],
            [-5522599.181063446, 3575696.7216578806],
            [-5524452.39151247, 3580068.8861115314],
            [-5525103.759727784, 3583538.519805099],
            [-5521530.4565398265, 3584700.8276093095],
            [-5520848.735002147, 3588633.909696981],
            [-5521755.013225398, 3592158.301970821],
            [-5525535.985698766, 3592277.6393866153],
            [-5527167.575668908, 3593919.518977591],
            [-5529622.830519613, 3595471.595952158],
            [-5530206.543002398, 3597746.7817075015],
            [-5531385.381180229, 3604234.3044608245],
            [-5532812.358755117, 3609809.85166422],
            [-5532386.897034305, 3614767.9364157626],
            [-5533913.566305111, 3618378.5621721568],
            [-5536344.964009105, 3621273.9412395316],
            [-5537609.142481279, 3623861.378137223],
            [-5539222.429023196, 3633037.8873073007],
            [-5539785.415119716, 3638952.804070477],
            [-5541228.335754111, 3648635.0878221774],
            [-5540598.528011834, 3650787.6474569873],
            [-5542365.951481674, 3655180.0438122177],
            [-5545229.513607498, 3658874.668860217],
            [-5547382.45389537, 3662501.652805109],
            [-5547858.19036682, 3669770.3315652367],
            [-5548623.453393819, 3673554.957565532],
            [-5547080.752514064, 3677163.1542259846],
            [-5547400.501445315, 3680680.830639743],
            [-5548255.134945646, 3685578.94596596],
            [-5548702.690541749, 3687360.1759426612],
            [-5549950.325041398, 3690076.796805573],
            [-5552270.97989298, 3697827.2220148114],
            [-5553163.5668518245, 3701391.149423178],
            [-5553697.711926794, 3702772.4457567087],
            [-5555030.130195467, 3704332.8708955245],
            [-5554412.064856639, 3706381.2214991604],
            [-5552552.043627951, 3707982.467462472],
            [-5553840.2392908055, 3710122.0953648905],
            [-5553976.262182405, 3712928.4454192086],
            [-5553447.393160005, 3716090.019150608],
            [-5554645.034188927, 3717116.57371971],
            [-5555311.392429805, 3719033.2035347633],
            [-5555359.093978828, 3724512.2771370523],
            [-5556335.868785944, 3729191.8434398784],
            [-5555329.383437733, 3732338.45979741],
            [-5548688.425945334, 3732905.1787667773],
            [-5547256.132543847, 3735509.544217175],
            [-5541833.95351078, 3737556.2340170564],
            [-5539439.729036192, 3735982.6288679577],
            [-5530469.84689284, 3742011.9115744825],
            [-5529603.385230865, 3756042.0315532465],
            [-5528826.585381477, 3757870.1507561654],
            [-5527562.902062932, 3760116.2518144767],
            [-5528489.62719991, 3762462.8064055517],
            [-5529913.339428914, 3767213.379565607],
            [-5532645.457166868, 3771888.417324362],
            [-5533223.0073659755, 3774223.1945387935],
            [-5532372.014525286, 3777758.921652983],
            [-5530248.448673127, 3779856.23852023],
            [-5528831.727759833, 3782383.36474021],
            [-5527527.088425898, 3785849.9571293076],
            [-5525458.624864854, 3789625.4966881326],
            [-5526527.701515654, 3793472.926512815],
            [-5525083.32315481, 3795400.8786461744],
            [-5522680.968858289, 3795388.7017306066],
            [-5520163.183597057, 3797339.2940248023],
            [-5519479.898973088, 3800892.152739014],
            [-5521792.572934056, 3803465.1726996787],
            [-5524158.25311811, 3807718.3007953246],
            [-5522343.663584099, 3811065.6073671784],
            [-5517847.514910271, 3813742.147242909],
            [-5513295.76039305, 3816673.6968498286],
            [-5510414.495645192, 3817623.7789220945],
            [-5508466.219543469, 3817982.1342815966],
            [-5506400.736587146, 3820784.9028605274],
            [-5505454.349572111, 3824378.5269427765],
            [-5504364.196919435, 3825817.6974538197],
            [-5502539.735059775, 3830915.9045163793],
            [-5504059.789818166, 3837111.2910045604],
            [-5503997.666434198, 3840294.753934874],
            [-5502207.264076455, 3841737.946051069],
            [-5500653.188930571, 3842582.3072273415],
            [-5500769.218698023, 3846494.0755372965],
            [-5501679.02057073, 3850211.5728827394],
            [-5504905.752988669, 3851199.525500736],
            [-5507627.075250784, 3852311.7063363288],
            [-5511385.157145658, 3856926.237601442],
            [-5511345.513721708, 3859848.3496776028],
            [-5510351.434217048, 3865028.871220483],
            [-5509460.202667475, 3866258.8993099425],
            [-5510249.455078883, 3870529.696188851],
            [-5509152.055755119, 3871556.416785659],
            [-5506115.878294725, 3873497.986644057],
            [-5504911.667221986, 3873569.578648312],
            [-5503487.907586571, 3873125.1215664977],
            [-5501733.550301123, 3872223.454754497],
            [-5498480.095059411, 3871339.4090773393],
            [-5497458.200864891, 3872157.9000664535],
            [-5496865.515444835, 3876794.139734781],
            [-5497604.123460234, 3880599.950382097],
            [-5497036.192863393, 3882382.9557067724],
            [-5495898.283968635, 3888475.455447455],
            [-5496935.667769709, 3891336.840131659],
            [-5498441.175969212, 3897742.0764370286],
            [-5503413.127552369, 3898243.1249467526],
            [-5505505.407968941, 3902262.1815631026],
            [-5507216.521766404, 3903168.1910681464],
            [-5509233.105139071, 3904566.414055567],
            [-5508446.222363699, 3912112.014987782],
            [-5510265.027651236, 3917330.9851296134],
            [-5515454.517176779, 3924945.8089222605],
            [-5515989.091231561, 3931042.2315386883],
            [-5519559.9412434315, 3929618.0604916117],
            [-5520683.599236558, 3932744.1915249615],
            [-5523125.661422271, 3935931.689579493],
            [-5542001.735447992, 3946500.081471761],
            [-5542355.399276495, 3958984.437786546],
            [-5543148.966429846, 3961816.7648219075],
            [-5542666.119714514, 3965798.8316734326],
            [-5542830.766821324, 3968691.7058496717],
            [-5542619.485683698, 3982600.89529351],
            [-5543643.74991628, 3984040.959667105],
            [-5547073.685426403, 3985752.968935195],
            [-5550287.5393117815, 3988408.3308221847],
            [-5551738.405744197, 3990392.270169803],
            [-5552988.266476069, 3993423.617990026],
            [-5556250.565918904, 3994974.4523561522],
            [-5558705.287627322, 3994395.1184168616],
            [-5561212.237426755, 3994035.799185097],
            [-5564489.403564567, 3995972.047752374],
            [-5567111.674486272, 3996747.5305496766],
            [-5568069.38582269, 3994663.905185922],
            [-5571372.179738178, 3994118.0987834213],
            [-5573728.083847273, 3996351.0261338553],
            [-5576910.875574856, 4000481.2801036825],
            [-5579214.942741011, 4004122.3006886155],
            [-5582219.970659935, 4006205.5268635494],
            [-5585885.613182106, 4007205.1799586606],
            [-5589096.970807785, 4010171.8443807643],
            [-5595960.133662431, 4013758.4359319955],
            [-5601153.781361839, 4016731.1500043324],
            [-5607165.938000639, 4020601.309872798],
            [-5613710.649523937, 4023501.1971196593],
            [-5618330.267434837, 4026994.710597984],
            [-5620865.647531324, 4028243.0948442626],
            [-5622531.859590315, 4029743.3861203864],
            [-5624950.061401004, 4031119.3098377567],
            [-5627029.563380127, 4031034.5373030193],
            [-5628115.585597609, 4030006.684424649],
            [-5631476.158248303, 4029693.5760081336],
            [-5632804.935357604, 4028842.3218138316],
            [-5633234.205619299, 4026413.9269000464],
            [-5634550.230079426, 4025177.281892845],
            [-5636199.637040136, 4026037.2868650225],
            [-5637017.655157213, 4025614.8371400316],
            [-5636398.775242056, 4023273.6284113904],
            [-5635391.396581849, 4020246.235650388],
            [-5636029.557203242, 4018390.0264712577],
            [-5639324.901136484, 4019100.974350459],
            [-5642192.831615293, 4016649.72351144],
            [-5644751.383278084, 4017143.964100332],
            [-5644661.261029055, 4015766.6945564677],
            [-5646290.185708301, 4015544.4441740103],
            [-5645624.223887065, 4013989.8648688677],
            [-5646758.19575442, 4012950.0905806045],
            [-5647922.900965642, 4013689.970442892],
            [-5649450.1152486345, 4014345.986398353],
            [-5650801.951312697, 4013255.7769737723],
            [-5649512.796717984, 4010990.6224380475],
            [-5650715.495175913, 4010245.568722282],
            [-5652576.134699079, 4011679.1260629823],
            [-5653373.904029641, 4011494.2675003423],
            [-5651888.237374167, 4009041.2243476375],
            [-5653308.745352414, 4008245.6123509402],
            [-5657521.002109503, 4009600.904756595],
            [-5660350.508806634, 4008945.5872650584],
            [-5660824.028500677, 4007358.964622288],
            [-5660174.8623709185, 4005876.9174609035],
            [-5659103.139835197, 4004881.5741211786],
            [-5657034.785314877, 3999920.3512525605],
            [-5656362.908484397, 3997355.965620412],
            [-5651862.362743702, 3991485.329686299],
            [-5650169.537492863, 3989470.4031919404],
            [-5648243.354984147, 3988753.479132159],
            [-5647010.074555569, 3989040.805260778],
            [-5645040.175924716, 3987479.922323529],
            [-5645246.315966038, 3985411.9118553554],
            [-5647695.778374169, 3984763.005392793],
            [-5648171.186341425, 3982865.0120332814],
            [-5650130.390505741, 3982408.0992689114],
            [-5650596.293489131, 3979812.679101417],
            [-5648854.1225302825, 3977266.293841115],
            [-5648161.995488624, 3974630.489811518],
            [-5649804.294060164, 3973469.7146736123],
            [-5649778.578338807, 3971066.609734303],
            [-5649124.886711651, 3966634.3570854915],
            [-5650079.523664821, 3965478.4035942513],
            [-5651425.378507563, 3963375.88005558],
            [-5653006.440696405, 3961295.826796521],
            [-5653094.222078074, 3958399.2129171817],
            [-5652116.695063251, 3955208.0695561725],
            [-5652881.43659136, 3953240.9448314263],
            [-5655887.448226558, 3951681.059717839],
            [-5662563.623568098, 3945061.681682753],
            [-5674663.567668168, 3927976.378058939],
            [-5684072.32976366, 3926528.06889178],
            [-5688236.460362184, 3926692.217845784],
            [-5692334.589828175, 3924971.0483355396],
            [-5699624.571227362, 3921104.3049114314],
            [-5702147.20870852, 3921161.7930037947],
            [-5709810.521722851, 3915426.216337147],
            [-5716675.978654747, 3919309.4998038146],
            [-5718571.687010779, 3919415.550856103],
            [-5721215.923842681, 3918298.608938802],
            [-5722849.045853565, 3918965.592536793],
            [-5724287.089042809, 3917531.3786936677],
            [-5726090.152182326, 3917659.6419888125],
            [-5727945.072937372, 3917376.476564665],
            [-5730698.363814284, 3914186.7456573737],
            [-5731888.997148243, 3912110.626441747],
            [-5730617.585506857, 3911308.684006558],
            [-5730563.540820997, 3910022.6677821083],
            [-5732046.69747358, 3908777.0156194745],
            [-5733639.502649809, 3907155.964823442],
            [-5734846.151965519, 3905621.893137946],
            [-5735105.584325637, 3903765.7785915346],
            [-5733608.039144172, 3902632.7859858186],
            [-5732761.751426114, 3900332.8879666305],
            [-5734376.2772277305, 3899330.5140536004],
            [-5736658.30081593, 3898874.5688583003],
            [-5738702.383295427, 3900036.0733553604],
            [-5740065.725339055, 3900263.894626822],
            [-5740307.896386911, 3898333.173111456],
            [-5738655.947045729, 3897860.6382504953],
            [-5738278.609988624, 3895918.785604141],
            [-5739362.626078817, 3893634.788256582],
            [-5741380.370190588, 3894021.47078444],
            [-5747107.188485733, 3892134.758583098],
            [-5748898.655165642, 3893200.118042059],
            [-5750395.757394704, 3893006.388791602],
            [-5751365.718798895, 3891216.9803805295],
            [-5750268.485433621, 3888504.514290279],
            [-5748643.83680551, 3887165.879296265],
            [-5747754.110168718, 3885342.918393826],
            [-5747543.4228123, 3883126.601912973],
            [-5748615.657824211, 3883422.2537843715],
            [-5750545.875152928, 3882110.5252598114],
            [-5752574.35008056, 3880228.660961565],
            [-5753638.308111276, 3878181.8507791483],
            [-5752085.596251142, 3876826.521959195],
            [-5750790.666738907, 3875254.7203078507],
            [-5749572.3518881975, 3873352.612999071],
            [-5747904.145362932, 3872494.102825609],
            [-5747413.474290329, 3870734.0829225127],
            [-5749301.295681782, 3871540.8262908873],
            [-5752459.336745575, 3871056.587051662],
            [-5755624.003306963, 3870886.2460283902],
            [-5758013.954064327, 3872234.082380979],
            [-5760549.296395397, 3872594.0182470996],
            [-5761027.780520846, 3869809.4337870437],
            [-5761778.663342389, 3866578.9256025306],
            [-5760290.264004116, 3864255.7087404295],
            [-5764002.138418288, 3863193.3118400383],
            [-5764311.2184218, 3855673.9819062254],
            [-5762514.719560138, 3852850.4697691323],
            [-5763792.137421866, 3850258.4203443765],
            [-5763765.677098989, 3844535.729201283],
            [-5768321.02719244, 3835821.357321807],
            [-5764432.696604159, 3823368.4532320183],
            [-5766038.901722546, 3818976.243134201],
            [-5762798.129676583, 3807709.17434545],
            [-5748563.936978699, 3801124.9438334666],
            [-5705149.851388271, 3782781.940078241],
            [-5703936.211298533, 3778391.1626400743],
            [-5702142.027589719, 3773204.304286777],
            [-5700444.421129933, 3770024.185373718],
            [-5699236.76198587, 3767272.3530078605],
            [-5699159.608518771, 3764715.3148940085],
            [-5698518.298349093, 3761748.5393432593],
            [-5697462.033459127, 3757711.6916744728],
            [-5695712.374804459, 3753375.1791269104],
            [-5695687.160193253, 3751039.7142745573],
            [-5695281.004430371, 3748094.3031331394],
            [-5696486.52131468, 3744132.221433555],
            [-5692442.040771078, 3739106.643179776],
            [-5691057.383389198, 3740343.2870121747],
            [-5690101.611262442, 3739677.174890698],
            [-5687251.994935409, 3730522.056461959],
            [-5684235.533186739, 3725924.9185133073],
            [-5676676.099082477, 3719014.476283073],
            [-5668395.181651613, 3714573.4896559375],
            [-5663722.98879926, 3710963.368349962],
            [-5660086.541603654, 3703744.7008388056],
            [-5656214.838373849, 3690900.8874342707],
            [-5652040.0080834925, 3672163.3451322424],
            [-5649483.353146777, 3661617.5629799822],
            [-5648148.270401226, 3659065.379605294],
            [-5645351.945453957, 3657502.1092694835],
            [-5644035.364122354, 3655959.7259037755],
            [-5644161.472761194, 3653979.08027717],
            [-5645767.438514882, 3652018.2862532344],
            [-5646039.4791838275, 3650000.8413292663],
            [-5645488.4414294725, 3647487.360913761],
            [-5645412.268793812, 3645011.014304358],
            [-5644917.437240682, 3643965.1672319877],
            [-5643343.893337103, 3642643.7323728115],
            [-5632792.307605475, 3604125.504238193],
            [-5631441.492742245, 3599710.190522992],
            [-5629019.256985, 3592915.370167153],
            [-5628569.098072431, 3590222.039939149],
            [-5628260.599245764, 3586556.822917634],
            [-5625894.100878204, 3579549.121973146],
            [-5621093.622429634, 3566682.5562557764],
            [-5620295.306929305, 3559841.091823582],
            [-5610781.498936812, 3521697.6284360266],
            [-5615493.341797879, 3520603.080903009],
            [-5617261.955684947, 3519902.6798365116],
            [-5616756.306886586, 3517472.3204802754],
            [-5615277.385125098, 3515049.611255552],
            [-5613734.9506403105, 3511912.01647606],
            [-5612216.495740458, 3511695.1467696973],
            [-5610528.882704962, 3511766.0369743],
            [-5609945.572525138, 3510453.9223056845],
            [-5609438.420076884, 3508024.8171496117],
            [-5609116.928669967, 3503962.4906119048],
            [-5608105.827683354, 3502883.4185970705],
            [-5607174.8560951585, 3501174.048765443],
            [-5605874.503776526, 3499394.89707935],
            [-5606016.826907314, 3496938.870422256],
            [-5607556.302081836, 3495056.1569966027],
            [-5607370.785297823, 3492841.0013341117],
            [-5607933.632288359, 3492304.437914803],
            [-5608030.073634488, 3490874.4098210284],
            [-5606193.791505736, 3490415.3731924775],
            [-5604598.894358731, 3490283.966908584],
            [-5604151.41189754, 3489463.908775092],
            [-5604708.0669871755, 3488304.4757029186],
            [-5603707.788766674, 3487160.0870412686],
            [-5603660.589168882, 3486079.7675335295],
            [-5601840.303551604, 3485383.30985347],
            [-5600594.92880688, 3485395.65317683],
            [-5599232.275074461, 3484658.343667572],
            [-5597589.891220186, 3485242.5008246074],
            [-5596935.765947679, 3483930.6419232837],
            [-5594086.802501825, 3482879.3887667805],
            [-5593622.929467887, 3480504.06735649],
            [-5592555.290738297, 3478208.4507846734],
            [-5589662.079580426, 3478184.2749618697],
            [-5588184.987108737, 3477010.355845441],
            [-5587130.239386262, 3475960.2103906088],
            [-5586560.75649467, 3474081.311810853],
            [-5585131.8062789645, 3473987.2522294517],
            [-5584175.833856205, 3473613.5326737827],
            [-5584050.974952132, 3472242.451995472],
            [-5583173.329716702, 3470678.571632811],
            [-5581784.482436662, 3469248.772670706],
            [-5580009.346189643, 3466048.9721295857],
            [-5579403.973420153, 3464336.224046919],
            [-5579639.745609633, 3462558.7027926496],
            [-5592625.567321363, 3457902.5228395932],
            [-5595191.545420623, 3456370.6801160835],
            [-5592596.974189963, 3452893.7654605843],
            [-5584822.064927541, 3457317.2895087497],
            [-5579543.613623952, 3459893.8628259753],
            [-5573564.106499238, 3462059.4241948235],
            [-5564672.335370685, 3465584.8246542746],
            [-5557308.191656252, 3468114.414036877],
            [-5550020.617112323, 3470921.1185156927],
            [-5539557.811698301, 3474647.381384576],
            [-5535580.04222614, 3476393.605513189],
            [-5532871.381629424, 3477339.3118901057],
            [-5528721.871356208, 3478549.5691258027],
            [-5519707.149508335, 3483137.3688339195],
            [-5516787.485156833, 3483955.1876242873],
            [-5508675.166073554, 3488475.7851495757],
            [-5506286.165136089, 3489601.2704651975],
            [-5502859.87849925, 3491695.209925638],
            [-5504901.979902177, 3499654.7882069796]
          ]
        ]
      }
    }
  ]
}
