{
  "type": "FeatureCollection",
  "features": [
    {
      "type": "Feature",
      "properties": {
        "NAME": "Mauritania"
      },
      "geometry": {
        "type": "Polygon",
        "coordinates": [
          [
            [-6743213.921025187, 5183458.564377276],
            [-6843626.731329029, 5236406.170699247],
            [-6889403.316966012, 5265168.338202071],
            [-6873904.930713976, 5129190.993600999],
            [-6997173.516801304, 5115738.252385893],
            [-7154834.945028487, 5099357.068769847],
            [-7178789.453029658, 5097372.691333625],
            [-7169065.012665053, 4998927.077226781],
            [-7156943.6126536615, 4888957.616182539],
            [-7150962.46753627, 4843763.9155195],
            [-7200198.815405257, 4837161.36538248],
            [-7212635.863554511, 4832303.12257658],
            [-7226601.371243983, 4822463.703314874],
            [-7232775.695497169, 4812121.690589077],
            [-7236853.074850128, 4806743.062369981],
            [-7239075.668353308, 4801660.107039072],
            [-7240123.05842317, 4781781.973812495],
            [-7237189.830394255, 4760348.188219429],
            [-7232901.186410769, 4727842.230643799],
            [-7230243.804075231, 4714060.616640102],
            [-7222417.37970458, 4631997.299666286],
            [-7219224.180679251, 4618677.211082244],
            [-7234952.038778559, 4616846.824362247],
            [-7258455.4792631045, 4614527.328777758],
            [-7280545.043430566, 4611439.204108119],
            [-7282328.512487777, 4611431.915777277],
            [-7374609.613904945, 4602319.424484603],
            [-7464119.1884427415, 4592751.250446731],
            [-7585702.977284037, 4579662.612586789],
            [-7596682.5778784985, 4578866.411464788],
            [-7599470.398558484, 4561767.659763351],
            [-7599579.412908308, 4557967.92553439],
            [-7601007.816999093, 4551265.075422208],
            [-7601931.118200685, 4548002.778524151],
            [-7602449.982396454, 4543181.155972115],
            [-7604340.392322589, 4541109.75777876],
            [-7605685.449931441, 4538359.261394496],
            [-7605709.894380613, 4536059.042873259],
            [-7606410.418247796, 4534362.246802803],
            [-7604641.442344042, 4531179.723765339],
            [-7604308.470020977, 4529154.267779528],
            [-7605228.0040812045, 4527697.114732325],
            [-7606523.370994431, 4526266.188718415],
            [-7606538.066708201, 4525199.235879141],
            [-7605440.713923893, 4524313.054603851],
            [-7604183.294998732, 4524309.53657668],
            [-7603566.796494769, 4522510.152604595],
            [-7602612.72652139, 4521788.159446962],
            [-7602292.3650594335, 4520513.793202289],
            [-7600975.4264643695, 4519900.504274845],
            [-7600828.682927963, 4519100.227175456],
            [-7600319.204943973, 4518408.447933455],
            [-7599718.338702105, 4518592.39037579],
            [-7600148.039158271, 4523406.308555349],
            [-7599767.3466272885, 4523934.121002426],
            [-7599823.6258900035, 4525119.054007928],
            [-7599361.560977767, 4527335.8354381565],
            [-7599578.303121069, 4528254.553545804],
            [-7600472.322935841, 4528971.917556164],
            [-7601943.87529804, 4529268.023056051],
            [-7602991.143677329, 4530963.03532912],
            [-7602240.235977198, 4532842.23694443],
            [-7599985.558231061, 4533373.268743383],
            [-7598980.016584937, 4534034.282158237],
            [-7598446.332413059, 4535516.214483812],
            [-7598658.764199379, 4537615.08846095],
            [-7598452.299507306, 4538626.817179958],
            [-7597268.295939433, 4540484.368028823],
            [-7598762.638831488, 4541645.420621438],
            [-7598830.999328422, 4540521.752201567],
            [-7599161.263426808, 4541304.306532364],
            [-7599247.101929763, 4543217.06071114],
            [-7600541.0494612735, 4545462.891063922],
            [-7601301.13838786, 4546131.389535589],
            [-7601015.345910981, 4547651.827170808],
            [-7600531.860052582, 4547823.381685696],
            [-7599835.138223249, 4547712.589997885],
            [-7599212.358712108, 4547145.845863348],
            [-7599014.435439677, 4545797.202598403],
            [-7598576.064956691, 4545212.886660151],
            [-7598184.447837362, 4545626.301017814],
            [-7597690.7234079065, 4546915.938985817],
            [-7597088.355746248, 4547787.947479055],
            [-7595895.926429666, 4550271.714170558],
            [-7595612.996662625, 4553659.600470362],
            [-7594726.72839138, 4554735.870009197],
            [-7593616.649831282, 4554904.712179375],
            [-7593353.637283734, 4555430.792380442],
            [-7593831.984039235, 4556439.021722887],
            [-7592843.009384911, 4560947.546867518],
            [-7591555.063393782, 4560580.077171978],
            [-7590702.482631109, 4559545.160672405],
            [-7588785.377146499, 4557923.8371175835],
            [-7586873.860434615, 4553819.96553369],
            [-7586634.434852879, 4551537.69173522],
            [-7585221.784869226, 4550495.291449047],
            [-7584656.105450556, 4547379.105385995],
            [-7583077.871763607, 4546655.877950885],
            [-7582437.9912009835, 4545914.885086918],
            [-7582406.945814855, 4544989.701770903],
            [-7581962.312196655, 4544344.571295741],
            [-7581056.619768186, 4543994.60964712],
            [-7580146.139611921, 4543092.53457976],
            [-7579357.086189963, 4541427.9974930715],
            [-7579191.1510279775, 4539827.920415331],
            [-7578351.821311814, 4538356.2585751],
            [-7576380.618284998, 4537433.563026547],
            [-7576262.021039519, 4538122.863042564],
            [-7575911.540754578, 4538344.853770893],
            [-7575322.103054566, 4538027.293428035],
            [-7574807.556176255, 4537275.014057149],
            [-7574249.498333847, 4534285.7483447585],
            [-7572542.769821778, 4532275.058316657],
            [-7571922.134352725, 4528667.108855422],
            [-7568782.384085596, 4526747.4105659835],
            [-7568146.79409735, 4524194.607233439],
            [-7567529.532150568, 4523703.613547192],
            [-7566921.319956831, 4522023.774796866],
            [-7564095.452076405, 4519440.048421697],
            [-7562675.035005749, 4519644.5556201935],
            [-7562053.781048517, 4519019.090421401],
            [-7562051.084297355, 4518404.67874307],
            [-7562514.771249726, 4516868.380299176],
            [-7562301.752317049, 4516014.554064491],
            [-7561406.891962066, 4515791.750470986],
            [-7561803.940976008, 4515449.7836794825],
            [-7562172.778867076, 4515412.783494145],
            [-7562587.112298306, 4514558.546914973],
            [-7562845.233114573, 4513417.790918985],
            [-7562555.539933989, 4513071.785237722],
            [-7561285.357350402, 4512824.331659757],
            [-7560236.221985262, 4511752.626531921],
            [-7559517.184803411, 4512012.533849022],
            [-7557793.695978686, 4511061.216918104],
            [-7555742.431297271, 4508227.050713317],
            [-7550014.85981366, 4503580.889205636],
            [-7550739.883758616, 4503382.108255351],
            [-7549161.490903035, 4502616.27470137],
            [-7547815.392730801, 4501629.241081648],
            [-7547694.55525447, 4502942.905877665],
            [-7546953.141248841, 4504132.453835968],
            [-7547363.302086287, 4506328.786881005],
            [-7548290.111979394, 4508597.593160133],
            [-7547915.573218294, 4510988.345106931],
            [-7548036.489565269, 4513339.1223221235],
            [-7548922.8208244, 4514737.968578281],
            [-7548788.155984651, 4516989.76971984],
            [-7548979.7274844535, 4518885.848048194],
            [-7548547.692475991, 4519554.054647562],
            [-7548619.511121923, 4520848.00438404],
            [-7547859.803034387, 4520112.746379953],
            [-7546891.718294457, 4519835.814808061],
            [-7545712.7929333765, 4518539.524052721],
            [-7545417.007177242, 4516779.326326426],
            [-7544240.15024187, 4514640.271360115],
            [-7542145.444188127, 4512823.951562768],
            [-7539616.601388382, 4512613.3903385075],
            [-7539186.989414827, 4509556.710092977],
            [-7538349.101340323, 4507207.816578636],
            [-7533992.931046812, 4503140.218568711],
            [-7533159.327982261, 4501801.084464283],
            [-7531726.706316084, 4498839.068567601],
            [-7530419.95189271, 4494075.763947042],
            [-7529226.68708955, 4492213.2847807575],
            [-7528325.460316818, 4491371.065220018],
            [-7528000.885078426, 4490042.566520664],
            [-7529035.498604306, 4489810.030204898],
            [-7527073.335929216, 4487165.192313416],
            [-7526774.773124286, 4487310.75142877],
            [-7525828.816453976, 4486608.904119294],
            [-7525033.7178804865, 4485569.0886080805],
            [-7524430.331710178, 4484020.650979819],
            [-7524003.5616234215, 4484065.372327729],
            [-7523590.691806842, 4482559.502819479],
            [-7522775.666899823, 4481335.073091154],
            [-7521614.819704553, 4481020.438644966],
            [-7518474.478890964, 4476070.730092149],
            [-7517747.617035688, 4476895.9100894965],
            [-7516013.67612036, 4477006.466807601],
            [-7514835.773342805, 4475884.056114913],
            [-7513686.758323156, 4473833.989567071],
            [-7511171.261850749, 4470745.138474495],
            [-7510886.618267265, 4466879.108977936],
            [-7512952.54255046, 4465183.071658888],
            [-7513287.43600841, 4463723.605490456],
            [-7513250.03431929, 4462179.14215725],
            [-7514225.7305581765, 4460838.109446974],
            [-7515367.299361814, 4459853.418261467],
            [-7516588.030830724, 4460159.565173191],
            [-7516583.590391071, 4458923.058157958],
            [-7515540.59612352, 4459086.5183001375],
            [-7514631.186080459, 4457011.494805944],
            [-7513633.130798341, 4456494.835003583],
            [-7513020.273340306, 4455999.335636686],
            [-7513397.429643739, 4454846.807815702],
            [-7513188.025244266, 4453445.418278971],
            [-7512242.69772422, 4453422.288193608],
            [-7511710.863966617, 4453042.986852626],
            [-7511651.187415922, 4452488.218735548],
            [-7512038.266193738, 4451521.6301181745],
            [-7512268.998439564, 4450197.682699776],
            [-7511901.563270712, 4449613.688846441],
            [-7512217.023188018, 4448529.998713863],
            [-7511657.848609148, 4447353.538839824],
            [-7511800.8576345695, 4446402.733239652],
            [-7513447.374993778, 4443813.580152602],
            [-7518911.268958594, 4437234.875609397],
            [-7518830.707186552, 4435943.753733989],
            [-7517978.302604311, 4434975.347972722],
            [-7516723.4763640985, 4434924.098021974],
            [-7514129.362237397, 4436307.324292165],
            [-7513399.630871783, 4435835.524760716],
            [-7512873.313994743, 4434520.511221063],
            [-7513572.114705151, 4432895.672194362],
            [-7513018.1228809245, 4431781.217656051],
            [-7512523.245810005, 4432386.003877504],
            [-7512472.624936112, 4433638.904307481],
            [-7512021.816273391, 4433563.184479669],
            [-7511696.303534978, 4432288.885045742],
            [-7511927.963980948, 4431525.645604603],
            [-7511572.2034143675, 4428892.954728302],
            [-7510864.4358123485, 4427546.128748758],
            [-7510983.705980138, 4426296.140408159],
            [-7512146.719122846, 4423882.0617321],
            [-7513110.643765449, 4422976.163658574],
            [-7513907.7841677265, 4421714.1575786825],
            [-7514090.956090753, 4420508.834941776],
            [-7513463.314424574, 4419901.725932094],
            [-7513129.337398476, 4419189.7303774515],
            [-7513964.519903006, 4417736.161112243],
            [-7514483.242706961, 4415641.2951646745],
            [-7515564.824358643, 4414098.014162085],
            [-7516164.5125009, 4413907.424146421],
            [-7516081.010159964, 4414852.523747074],
            [-7515694.632405424, 4415820.403787905],
            [-7516181.264946457, 4415767.066265927],
            [-7517208.507680403, 4414354.524598849],
            [-7518490.151663674, 4412924.370553389],
            [-7518850.946207046, 4412260.7467300305],
            [-7519107.116290286, 4411182.1055043675],
            [-7518928.019890308, 4410088.783055239],
            [-7519121.5751972115, 4409068.9638634315],
            [-7519627.890502461, 4408025.153306316],
            [-7520746.605818664, 4407350.934071319],
            [-7521213.784207695, 4406488.16420293],
            [-7521517.575039032, 4404228.374724692],
            [-7523836.769734875, 4399759.1743953],
            [-7524006.864644788, 4399064.0496915],
            [-7525364.801077313, 4397239.001846459],
            [-7525319.7584497435, 4395755.715842678],
            [-7526828.476850626, 4390822.263924632],
            [-7528099.339624802, 4388204.355787134],
            [-7528421.665970374, 4385493.231676108],
            [-7526592.098735737, 4385383.570882114],
            [-7525823.1010535555, 4384594.451532799],
            [-7525290.55423818, 4385402.956998106],
            [-7525113.895979423, 4388888.520597149],
            [-7525602.797006657, 4392685.4402821595],
            [-7522346.462834357, 4394835.119136699],
            [-7521720.311027279, 4395955.2419798225],
            [-7520527.864865988, 4397574.8198845],
            [-7518765.435885123, 4399121.946576604],
            [-7519129.441830245, 4396793.040084855],
            [-7520281.81862401, 4394189.4327982],
            [-7521740.449049671, 4391676.420041865],
            [-7521532.753679676, 4390336.295230582],
            [-7519459.054721093, 4393531.437370778],
            [-7518478.433842163, 4395991.201168304],
            [-7517040.009778147, 4397076.249950163],
            [-7515923.3995301, 4398749.672772452],
            [-7515123.477897431, 4399451.852358932],
            [-7514417.284262642, 4399842.031208232],
            [-7513349.715901795, 4400885.779277505],
            [-7512780.934539979, 4400823.974469635],
            [-7512270.475513256, 4400131.826781483],
            [-7511996.604693066, 4399351.107562676],
            [-7512183.450129037, 4398280.1275074445],
            [-7513416.392396266, 4396417.042489158],
            [-7514046.999770793, 4393746.998956785],
            [-7514485.960807736, 4392637.351345056],
            [-7515506.934015165, 4391171.688739682],
            [-7516650.397784493, 4389120.127182648],
            [-7517632.592203207, 4387835.32015451],
            [-7518944.637296544, 4386763.41425465],
            [-7519697.053522919, 4385628.834974976],
            [-7521194.782851381, 4384536.127061819],
            [-7521457.139594575, 4384142.726331675],
            [-7523164.043104855, 4383151.563548179],
            [-7523998.847143052, 4382309.377648374],
            [-7525803.958873973, 4381130.281728524],
            [-7526590.499837623, 4380917.961215456],
            [-7527850.568361304, 4380965.403501563],
            [-7529061.273222121, 4381903.426376261],
            [-7529779.660112596, 4381698.842271167],
            [-7530151.440286136, 4382022.063191231],
            [-7531413.63557012, 4382444.557264507],
            [-7535079.080037532, 4381362.209690502],
            [-7535088.1958671585, 4380371.7279335335],
            [-7534219.131095904, 4379842.951349377],
            [-7533814.098642642, 4377346.528221805],
            [-7531394.018573784, 4377542.090352381],
            [-7530278.93347325, 4374802.332329381],
            [-7527304.887125141, 4369854.800043436],
            [-7527100.874999849, 4368826.008342028],
            [-7524285.6530447425, 4367704.486476113],
            [-7520848.40181667, 4366591.356553947],
            [-7519713.569425167, 4365907.152366489],
            [-7517630.41164838, 4365142.645514294],
            [-7515306.151272261, 4363906.422585865],
            [-7512925.982485149, 4362177.880470325],
            [-7511449.423638719, 4360139.674985237],
            [-7510054.174385273, 4358560.809226377],
            [-7505375.490867335, 4353768.3878601305],
            [-7504571.028726743, 4352612.353316742],
            [-7498869.373306896, 4342577.642499455],
            [-7497272.55699243, 4340485.11025164],
            [-7496305.575465477, 4338881.575599493],
            [-7493835.482555168, 4330134.417683585],
            [-7492447.16136192, 4324090.286416579],
            [-7490746.080085176, 4321316.410704236],
            [-7489833.908452195, 4321475.316019409],
            [-7489956.649424616, 4320411.098182527],
            [-7489389.659745589, 4319292.694834464],
            [-7488578.277164023, 4316602.436535873],
            [-7487029.567106147, 4309769.082090701],
            [-7485995.549321702, 4307812.6159167485],
            [-7483970.697690948, 4302939.228591354],
            [-7482047.377013627, 4298855.138017289],
            [-7481305.627848014, 4296709.276280183],
            [-7480486.807067083, 4295913.353652706],
            [-7479423.189044126, 4294149.262482932],
            [-7478303.54038588, 4291176.411459289],
            [-7477350.792961971, 4287124.00150777],
            [-7477211.00097603, 4285384.71676353],
            [-7476927.964627434, 4284764.146393812],
            [-7477029.556431901, 4281655.270207026],
            [-7475846.903819675, 4276384.090786352],
            [-7475043.907605766, 4275244.727183955],
            [-7474788.906170165, 4274205.321896853],
            [-7474265.162143552, 4273406.362645019],
            [-7473520.377697218, 4268664.919556974],
            [-7472747.121069514, 4265984.598348344],
            [-7473531.541093844, 4263457.29268421],
            [-7470895.895303099, 4242953.383969702],
            [-7469565.672212641, 4240238.805074345],
            [-7469277.292103284, 4237748.92614702],
            [-7468988.112494174, 4232130.573734276],
            [-7467535.15871994, 4216740.260436262],
            [-7467593.601242101, 4209112.33400414],
            [-7467849.839050382, 4201811.969336436],
            [-7469660.848839864, 4188457.4662022498],
            [-7473461.611279236, 4171637.61134505],
            [-7481295.544216564, 4142255.654608097],
            [-7483833.495369653, 4133747.5994733567],
            [-7487893.123860424, 4118042.028305255],
            [-7492454.307656607, 4097303.160677434],
            [-7492225.389449982, 4096175.0887487964],
            [-7491857.037389512, 4090098.4790409063],
            [-7491527.968257602, 4087303.5393429515],
            [-7491555.5597332055, 4084544.821527557],
            [-7492982.963396719, 4075942.817867144],
            [-7494179.117098884, 4070615.9603585578],
            [-7495327.659185334, 4064030.597654717],
            [-7495284.291425001, 4062271.502967951],
            [-7493386.524381448, 4055183.9758170373],
            [-7493094.400816258, 4051808.090224715],
            [-7491999.548911904, 4045480.045006553],
            [-7491275.361945975, 4039227.2641052487],
            [-7491071.421283085, 4039213.1025915304],
            [-7491142.264925789, 4039736.229244205],
            [-7490912.930703077, 4041250.493763822],
            [-7490426.330841145, 4042057.9099575114],
            [-7490022.104530808, 4042279.7110076314],
            [-7489711.127028206, 4042071.1351275346],
            [-7489445.563268927, 4041825.093936347],
            [-7489070.071876846, 4040841.9984102272],
            [-7488069.432167975, 4042251.6201024107],
            [-7487758.533677722, 4043087.363354216],
            [-7487099.043440794, 4043510.8092490816],
            [-7486821.088752339, 4044738.7954703267],
            [-7485771.147788758, 4045632.6565854806],
            [-7485512.052603106, 4046179.3056500447],
            [-7485785.190730839, 4046706.12930325],
            [-7486695.622290502, 4047094.59880425],
            [-7487065.259580971, 4047514.4799124263],
            [-7486837.379154386, 4048965.220738223],
            [-7487152.559002168, 4049580.421378756],
            [-7487244.185830029, 4051081.935220924],
            [-7487671.409114412, 4052903.5988124316],
            [-7487485.888419194, 4054672.0753113115],
            [-7487213.155541218, 4055418.6873626914],
            [-7486122.572822747, 4057058.237089125],
            [-7485498.887001021, 4057444.8780996045],
            [-7484121.11085104, 4057922.5917067435],
            [-7482846.786010977, 4057520.2271863134],
            [-7482466.307931011, 4057540.1911739716],
            [-7481715.7411498185, 4057881.371585813],
            [-7480545.192990053, 4059593.9042541427],
            [-7480146.831398729, 4062099.4911869345],
            [-7479614.634029807, 4063162.2640249063],
            [-7480127.92164433, 4065555.354554331],
            [-7480703.879325791, 4066917.6972053857],
            [-7480744.0805537095, 4067517.394949294],
            [-7479366.763049821, 4070842.138388619],
            [-7479259.852618755, 4070720.871668812],
            [-7478791.535522018, 4070908.846693038],
            [-7477865.14758219, 4072336.844035049],
            [-7479004.949930651, 4074530.855152944],
            [-7478313.2570754215, 4077939.937820631],
            [-7477863.375972108, 4078490.2236880134],
            [-7476735.76040119, 4078713.98816421],
            [-7476504.400996347, 4079016.043451462],
            [-7476441.308806998, 4079597.982679676],
            [-7476792.095787073, 4082449.8462748723],
            [-7476678.541065511, 4084539.896916557],
            [-7476356.260091832, 4085291.8512781826],
            [-7475890.401848541, 4085645.886478541],
            [-7475543.306742985, 4086588.7448066743],
            [-7475230.8587288335, 4089830.7686673687],
            [-7473488.562884638, 4091396.893667163],
            [-7472072.900219035, 4092241.955437515],
            [-7470249.985715282, 4092140.8641151],
            [-7468651.155760123, 4091457.9026595675],
            [-7465898.525335124, 4091919.073560201],
            [-7465596.5266054915, 4092667.7981357663],
            [-7464693.403856451, 4092902.9843710237],
            [-7464235.940110719, 4093766.1513972543],
            [-7462085.104912156, 4095865.627174479],
            [-7459392.331222653, 4096985.4907054873],
            [-7457444.538730477, 4094736.6905000955],
            [-7456239.759197678, 4092940.747158296],
            [-7454317.878289173, 4091866.0339191025],
            [-7452265.5206953995, 4089747.6195037025],
            [-7450133.022680808, 4090169.93785504],
            [-7447703.379406919, 4093005.0595211303],
            [-7445262.9670554595, 4092251.678405289],
            [-7442485.755137701, 4091679.644198933],
            [-7438986.917623937, 4094825.1563269533],
            [-7437661.970980582, 4095191.2869441644],
            [-7434819.262656609, 4095606.706644865],
            [-7433999.554035471, 4095478.4649836104],
            [-7432824.401481652, 4093392.017420202],
            [-7430878.7303609, 4094871.924673192],
            [-7430107.263420897, 4095246.7372024953],
            [-7427417.315098876, 4095299.798810463],
            [-7425090.365419327, 4094701.376405865],
            [-7422485.491056984, 4094785.4456405323],
            [-7418887.273085762, 4094122.4282248775],
            [-7416597.969843433, 4094310.026207],
            [-7413451.378113549, 4095113.437236371],
            [-7411232.217187071, 4096247.2103412943],
            [-7411092.215509734, 4100356.4170100773],
            [-7403397.646921799, 4099654.0698207477],
            [-7401450.663567413, 4100346.1021080776],
            [-7399604.686955543, 4101553.3973468966],
            [-7400363.547016083, 4103368.4589686412],
            [-7400541.360289964, 4105180.1296113054],
            [-7398780.908182701, 4106789.9661100414],
            [-7396826.67919109, 4107638.016078654],
            [-7395442.627134905, 4107827.421854996],
            [-7393408.742062293, 4109184.1581566716],
            [-7392941.697394806, 4107672.2972242343],
            [-7391677.299656414, 4105160.6305067874],
            [-7390673.940668888, 4104189.1962347194],
            [-7389402.454840512, 4104177.377276516],
            [-7388170.269262775, 4104377.9315968966],
            [-7386289.18847201, 4105310.417367858],
            [-7384440.569728128, 4107274.657320517],
            [-7382459.468822263, 4108055.032933511],
            [-7380754.669929817, 4109242.873073139],
            [-7378663.698883613, 4109365.194421836],
            [-7377773.023872737, 4109063.321409942],
            [-7375517.290232151, 4109436.6518305982],
            [-7374135.190870522, 4108757.630206475],
            [-7371974.881248189, 4108445.315028051],
            [-7370211.503048923, 4109124.071161218],
            [-7366772.018430619, 4111970.417870228],
            [-7365632.495929316, 4113111.2959988005],
            [-7363707.501771355, 4112901.7985249697],
            [-7362259.12704773, 4112098.845934258],
            [-7360149.316060415, 4112857.0516578467],
            [-7358025.11669831, 4115592.9998064535],
            [-7358040.592837281, 4117287.159566122],
            [-7359061.680180235, 4118035.2419418558],
            [-7360649.900132638, 4118125.7205683766],
            [-7361645.993416274, 4119270.722962762],
            [-7361517.9668987105, 4120509.119073402],
            [-7361753.306663308, 4121707.6389626525],
            [-7360323.411500406, 4121894.779903364],
            [-7359426.647047571, 4123125.396626325],
            [-7358073.682970419, 4122784.8770627673],
            [-7356997.31366158, 4122209.789817383],
            [-7356104.718980721, 4120730.4112320286],
            [-7354555.939863585, 4118690.733422332],
            [-7353021.783641922, 4118913.939485674],
            [-7350159.45670197, 4120624.3020800147],
            [-7349672.879227639, 4122790.2853608234],
            [-7349452.208633989, 4125725.430764276],
            [-7348082.90200844, 4126338.9735905575],
            [-7346886.904734863, 4125543.697901419],
            [-7345792.290731099, 4124331.5227936707],
            [-7345518.490046514, 4123077.8036828563],
            [-7345474.927222927, 4120758.6410317323],
            [-7345087.698191081, 4120481.825879547],
            [-7344784.610991463, 4120451.672797005],
            [-7344428.534055788, 4120470.2404425615],
            [-7343672.533213826, 4121050.841051082],
            [-7342571.653896694, 4122516.3716060985],
            [-7342166.585167169, 4121467.220037],
            [-7341372.801534345, 4120988.8943728507],
            [-7340642.5902429195, 4120966.705302627],
            [-7340144.577715112, 4122038.251223749],
            [-7339935.130243621, 4123751.3329076036],
            [-7339634.171796268, 4124092.8312647752],
            [-7338834.506816747, 4124142.250756525],
            [-7337560.157226268, 4122429.6412832355],
            [-7337000.959445889, 4121918.922628844],
            [-7335423.53227006, 4122459.336501948],
            [-7333703.963226163, 4122265.825516912],
            [-7333527.935806747, 4123570.917982695],
            [-7333206.844964317, 4124194.0387832522],
            [-7332604.34474841, 4124298.852582259],
            [-7330102.611368081, 4122139.7203390314],
            [-7328529.823917054, 4124982.065711061],
            [-7327757.392220008, 4125079.830047843],
            [-7326617.537045935, 4124258.81653202],
            [-7326437.858382624, 4123757.5721581285],
            [-7326475.562184135, 4122606.546104396],
            [-7325952.806728299, 4122143.1026489404],
            [-7325423.6547475895, 4121917.9983920753],
            [-7324750.344271713, 4123147.786627586],
            [-7324084.865169324, 4123581.7129694046],
            [-7324223.788148174, 4124501.3855153495],
            [-7323994.227671388, 4124709.0153713506],
            [-7323499.815865529, 4124375.866612583],
            [-7322332.204701606, 4124137.221127604],
            [-7320477.939950774, 4125171.3916806527],
            [-7318184.463410458, 4125483.200550181],
            [-7316937.20692227, 4126019.5398881715],
            [-7316154.272415474, 4126108.9721602956],
            [-7314674.685182195, 4123862.2781538554],
            [-7314146.400200824, 4124277.0484407987],
            [-7312447.38839104, 4124145.144333847],
            [-7311915.542003981, 4123405.413631272],
            [-7310807.254139729, 4124077.347484258],
            [-7308940.5091056395, 4124516.0354817105],
            [-7307859.561262596, 4124111.8920715135],
            [-7307138.869734178, 4124358.026124645],
            [-7306982.941929826, 4126421.29220377],
            [-7306837.986371019, 4126802.5658222334],
            [-7306533.313338617, 4126897.1091460334],
            [-7305760.428914518, 4126490.7946143867],
            [-7304765.955175213, 4125641.7071848256],
            [-7303118.26996794, 4125163.468055708],
            [-7301409.950975811, 4124467.3658616645],
            [-7299658.735998204, 4125993.209668792],
            [-7296834.881963672, 4126115.1488182987],
            [-7296398.1343869, 4126887.943261808],
            [-7296089.1066098455, 4127931.0529175033],
            [-7294702.913400448, 4129291.5512112416],
            [-7294397.139509714, 4129376.087698675],
            [-7293965.408961619, 4129272.472965652],
            [-7293393.899748426, 4127973.278012849],
            [-7293124.168380224, 4127681.9440685576],
            [-7292108.390542827, 4127661.327411752],
            [-7290440.476960487, 4128361.625349233],
            [-7289542.191424973, 4128118.509652321],
            [-7288077.261857164, 4128707.7157521825],
            [-7286880.166263996, 4129433.905633749],
            [-7286104.105303751, 4129420.716657981],
            [-7285503.011368634, 4129032.644872509],
            [-7285156.403177287, 4128340.7297525317],
            [-7285050.519471095, 4126482.090145754],
            [-7284820.505558069, 4125773.6085379757],
            [-7285051.755276362, 4123218.211584423],
            [-7284283.540195509, 4122010.0161772612],
            [-7283876.290746681, 4122078.4749154756],
            [-7283050.291381128, 4122690.6193461237],
            [-7282003.851915312, 4122871.0051001813],
            [-7280482.716980526, 4124591.191324698],
            [-7279588.922437422, 4124379.272362886],
            [-7278810.010809175, 4123790.7874379205],
            [-7278555.585382235, 4123261.133363577],
            [-7279152.9449231615, 4121817.086607073],
            [-7278759.097088635, 4120453.1250467673],
            [-7277466.69873462, 4118847.532443647],
            [-7277050.756724536, 4118577.86012841],
            [-7277093.786679986, 4119569.976676606],
            [-7276645.828943131, 4120807.41245561],
            [-7275591.635312843, 4121277.56252098],
            [-7274358.279129975, 4121258.9475426394],
            [-7273338.125557703, 4121065.79483135],
            [-7272559.453543205, 4120549.9816569234],
            [-7271290.257922546, 4120073.8845873363],
            [-7271553.500965725, 4118729.460340925],
            [-7270994.148629902, 4117945.7120060213],
            [-7270635.558014102, 4117729.8250880996],
            [-7269463.701223148, 4117517.8832437643],
            [-7268076.240236593, 4117049.11484339],
            [-7267228.865055206, 4116471.8107825723],
            [-7265947.29483717, 4114949.3025321546],
            [-7265656.638459823, 4114929.5568048023],
            [-7264341.672862955, 4115787.9554328453],
            [-7263937.852157593, 4115671.4510629913],
            [-7264663.36813187, 4114167.9529693923],
            [-7264439.436089873, 4113511.2397600436],
            [-7262700.445000302, 4113083.9805682288],
            [-7261485.428231135, 4112437.17920551],
            [-7260997.384990391, 4111397.306617579],
            [-7260222.561989944, 4110707.55653521],
            [-7258398.952413416, 4110108.404222278],
            [-7257142.926032096, 4109386.0304618943],
            [-7256563.2712634625, 4108606.6679326775],
            [-7253443.260204448, 4106192.5778333],
            [-7252751.478864211, 4105327.1637360468],
            [-7252118.615148934, 4104186.0004806696],
            [-7251618.403500521, 4104022.5819570455],
            [-7249164.50121112, 4104750.8191678897],
            [-7248000.939481391, 4103985.65251626],
            [-7246715.444139712, 4103608.432893328],
            [-7245938.6342204185, 4103588.4903768473],
            [-7245239.486735338, 4102540.033355146],
            [-7244917.148431923, 4102371.46611092],
            [-7244492.188026885, 4101231.5976501773],
            [-7244739.382485877, 4100887.1323728664],
            [-7245923.73141292, 4101114.3426040253],
            [-7246697.113523111, 4101042.1871224507],
            [-7247612.122225884, 4100445.782420623],
            [-7247074.034422811, 4097924.6104825255],
            [-7246870.751095423, 4097553.6229141327],
            [-7245400.346455682, 4097882.3242805246],
            [-7243902.548771922, 4097752.771016657],
            [-7243376.309053121, 4097480.6980876965],
            [-7243462.323754782, 4096985.1588717056],
            [-7244439.905189596, 4095937.363504561],
            [-7244759.972609818, 4095345.7386638727],
            [-7244863.754535864, 4094498.1419601254],
            [-7244772.904650958, 4092394.60399572],
            [-7244263.127955866, 4092438.7653344134],
            [-7242228.4289462045, 4093858.1415906],
            [-7241583.599043096, 4093860.5722841555],
            [-7240879.099265692, 4093255.394394783],
            [-7239659.979960934, 4093671.249670577],
            [-7239351.41883704, 4091847.040649078],
            [-7238881.049777173, 4090878.843611985],
            [-7237784.934070419, 4090177.720756868],
            [-7237253.067385155, 4090071.3617120036],
            [-7236100.172866339, 4091001.7418906423],
            [-7235267.977359768, 4091011.6984405345],
            [-7234338.457965601, 4090430.1473618117],
            [-7233981.413254386, 4089425.1191699905],
            [-7234757.205063835, 4087892.9995397176],
            [-7234502.370447859, 4086841.997490672],
            [-7234023.098958038, 4086152.929388277],
            [-7233740.762363707, 4085989.3419366535],
            [-7233155.584809318, 4084720.355605582],
            [-7232785.1267258255, 4084364.475550218],
            [-7232149.269010006, 4084427.9877264644],
            [-7231451.875899404, 4082806.1554705547],
            [-7231004.369589002, 4082533.719303759],
            [-7229347.524140562, 4085346.9808333865],
            [-7226570.271050576, 4087227.560896882],
            [-7226102.037423817, 4087348.4343188056],
            [-7225185.084990814, 4087186.9677314893],
            [-7224389.863133127, 4087243.5668166764],
            [-7222883.9235795075, 4087990.917677223],
            [-7221362.5624320535, 4089233.1681036614],
            [-7220910.987525301, 4090131.5442319983],
            [-7219622.080312061, 4091667.3946573567],
            [-7219138.516313303, 4092016.316443555],
            [-7218672.141010897, 4092147.2137789596],
            [-7218160.260161222, 4092038.64934032],
            [-7217771.4902439015, 4091757.902007754],
            [-7217566.224163125, 4091111.305192397],
            [-7217980.2014906015, 4089962.1429530424],
            [-7219067.316545034, 4088538.2503410843],
            [-7219173.993938291, 4088255.5780658727],
            [-7219063.458620913, 4087912.8965899525],
            [-7218338.378893871, 4086707.504846411],
            [-7217628.235439938, 4085869.3863739027],
            [-7215188.028076814, 4084007.200289146],
            [-7214478.02506789, 4083702.9266872825],
            [-7214183.375036608, 4083921.370258554],
            [-7213128.639637411, 4085689.5636700653],
            [-7212775.049025128, 4085844.9772038306],
            [-7210958.765732763, 4085634.414863965],
            [-7210374.687945246, 4085773.0556870773],
            [-7209303.939345694, 4086435.764612056],
            [-7208456.438667536, 4087198.3679885957],
            [-7205257.296467182, 4089266.3749624486],
            [-7203779.183192896, 4089784.9451284674],
            [-7203277.426287625, 4089808.82107728],
            [-7199773.630604583, 4089237.2020641263],
            [-7198687.708915696, 4089922.7769050295],
            [-7197322.370147832, 4091121.6298282985],
            [-7196786.164604154, 4091970.5834870017],
            [-7196585.776445734, 4092021.136553254],
            [-7195936.339634819, 4091718.9738194183],
            [-7195611.859703128, 4091470.5390503793],
            [-7195158.35573602, 4090626.74451508],
            [-7195529.94445991, 4089935.678458502],
            [-7196923.722228275, 4089521.4279007846],
            [-7198202.857551273, 4088540.3058234258],
            [-7198542.89191805, 4087044.2218348747],
            [-7197417.826689608, 4085491.5782971405],
            [-7196615.3485093145, 4084833.4380419524],
            [-7195649.335958575, 4085327.2169433217],
            [-7194765.779871912, 4087816.86522728],
            [-7193982.748415376, 4088405.936095851],
            [-7193095.384951367, 4088498.433169638],
            [-7192786.654913438, 4087499.9056611364],
            [-7192240.239614833, 4086567.9368971726],
            [-7191094.676290098, 4086064.3999209497],
            [-7189386.5658471305, 4085574.16626566],
            [-7186213.2109780405, 4084824.1696662274],
            [-7185137.960955886, 4084720.3975841855],
            [-7184314.689533593, 4084056.356592148],
            [-7183962.988887485, 4080228.4022676186],
            [-7182425.222244738, 4078904.9697226943],
            [-7182276.77289228, 4078579.3245548373],
            [-7181980.037524403, 4075972.137114897],
            [-7180237.267482616, 4073892.0856255395],
            [-7179277.162623899, 4073116.644025703],
            [-7178034.609653304, 4072568.6726051862],
            [-7177236.6707145, 4072598.110802841],
            [-7176725.687899226, 4072430.2806376414],
            [-7176298.317038083, 4072096.1647958676],
            [-7176161.987318145, 4071267.2278579576],
            [-7177835.998273209, 4068861.7450116714],
            [-7177220.964955546, 4068208.1663372912],
            [-7175187.603352005, 4067546.1238383413],
            [-7174585.756256327, 4067238.8548318567],
            [-7174132.17096477, 4066734.9213299155],
            [-7173689.699028454, 4065850.5479976903],
            [-7173791.623661637, 4063797.6896025897],
            [-7173686.316811977, 4062851.473603861],
            [-7173280.834099214, 4062145.785457243],
            [-7171536.337486898, 4060529.716300467],
            [-7170841.0443315115, 4060390.777503871],
            [-7170404.591339817, 4060130.237600039],
            [-7169407.031997269, 4059249.665634984],
            [-7169603.285077422, 4058656.5201217164],
            [-7169899.302948415, 4058518.889037031],
            [-7170884.694415092, 4058674.545216019],
            [-7171199.325120275, 4058851.4191051517],
            [-7171588.217935819, 4058801.9173775758],
            [-7171812.543970795, 4058132.7373966444],
            [-7171762.622351091, 4056840.226729237],
            [-7171430.853801851, 4056358.8722150684],
            [-7170819.453685325, 4056186.724725642],
            [-7169035.557803271, 4054966.6914278846],
            [-7167434.007595434, 4054159.130990216],
            [-7164315.572420399, 4051938.318680589],
            [-7162644.231961689, 4050937.8782438794],
            [-7162475.095565394, 4050677.503224938],
            [-7162584.193391157, 4049780.560317613],
            [-7163065.507440753, 4048662.2481882623],
            [-7164179.654831532, 4047916.719280035],
            [-7165728.194008102, 4048311.789051412],
            [-7165965.683846383, 4048244.3637629687],
            [-7166238.9320452865, 4047895.038759525],
            [-7166342.578629339, 4047346.731550397],
            [-7166322.742501916, 4046449.0018735067],
            [-7166080.334684242, 4046036.105452356],
            [-7164019.166436097, 4043806.5685024415],
            [-7163469.777148505, 4042694.2043032036],
            [-7163069.131463331, 4042285.53142948],
            [-7162599.1500844285, 4042133.2869614307],
            [-7161758.825867776, 4042151.13552116],
            [-7161624.4097815985, 4042243.643047116],
            [-7161481.946033223, 4042859.342546016],
            [-7160442.809223883, 4044023.5229382887],
            [-7159130.594628309, 4044257.9156407076],
            [-7157540.26757367, 4043850.0812101006],
            [-7156406.561573192, 4043381.726229862],
            [-7156463.818181419, 4043239.822000282],
            [-7156033.447807513, 4042958.8974805917],
            [-7155184.056139315, 4042661.3475997853],
            [-7152103.112196853, 4042230.6357065975],
            [-7150321.213892649, 4041546.9651387036],
            [-7149085.185965915, 4041248.8806951344],
            [-7148902.720427281, 4040714.8837139076],
            [-7149525.591216296, 4040259.716691138],
            [-7149513.778740506, 4040057.0148396874],
            [-7148767.227818379, 4039212.2319020503],
            [-7148406.46353176, 4038235.6694938107],
            [-7148452.702659924, 4037706.863876121],
            [-7149218.930282148, 4036012.038089917],
            [-7149405.020818717, 4035236.2886438095],
            [-7149470.119291334, 4033180.4227102734],
            [-7149270.202290191, 4032853.7187706097],
            [-7148670.53528602, 4032507.8009521593],
            [-7146789.983456168, 4032342.2046580967],
            [-7144673.905457624, 4031559.3752565985],
            [-7143003.348412768, 4031719.334394622],
            [-7140744.830981892, 4032237.6353729833],
            [-7139537.112759964, 4033889.2300746874],
            [-7139184.6438609855, 4034169.4830128783],
            [-7137057.448315119, 4034697.9185270085],
            [-7135484.194437653, 4035343.809658347],
            [-7135310.651464873, 4034870.33792021],
            [-7135451.752965234, 4033877.2714319024],
            [-7134869.48946859, 4032507.4718765365],
            [-7134667.061937667, 4029963.929762241],
            [-7134222.731438236, 4029471.869296495],
            [-7133847.570275884, 4029418.6053756345],
            [-7132048.897012197, 4030080.4041174063],
            [-7131673.794171387, 4030027.1805273425],
            [-7131212.586909553, 4029742.3239200036],
            [-7131046.873908142, 4029257.5777134513],
            [-7131405.819444757, 4028454.9752418213],
            [-7132429.185698418, 4027465.663170877],
            [-7132670.986094066, 4026548.607572164],
            [-7132114.058677908, 4024592.689760585],
            [-7131975.814961123, 4022151.575940513],
            [-7131538.611913909, 4021331.6457874756],
            [-7131183.659689193, 4020968.841491612],
            [-7129850.056749997, 4020250.1717554885],
            [-7128595.664468839, 4019968.7751417616],
            [-7127923.0529922675, 4019666.739674342],
            [-7126024.427417595, 4019886.3189056255],
            [-7125291.742614173, 4019767.6705791284],
            [-7122318.169019954, 4018524.0348920794],
            [-7121610.287686709, 4018187.205349395],
            [-7121062.16528961, 4017733.0785595677],
            [-7120420.866697439, 4016507.3587805424],
            [-7120016.102562015, 4016020.291002733],
            [-7119591.797653225, 4014913.325831204],
            [-7119695.468579937, 4013946.8908248665],
            [-7120568.35278928, 4012643.1965388707],
            [-7120633.814126117, 4012183.292753864],
            [-7120903.279236383, 4012007.501717958],
            [-7122185.860522331, 4012027.6582544697],
            [-7123638.731887605, 4012991.386900635],
            [-7124254.162416138, 4013056.8146826085],
            [-7125348.1565436395, 4012514.7402719525],
            [-7125546.321988667, 4011890.5329449815],
            [-7125278.811974612, 4011207.664315457],
            [-7124305.745299543, 4010330.7643184415],
            [-7122543.739261341, 4009794.4741146187],
            [-7121792.01259497, 4009372.9961697566],
            [-7120904.260230072, 4008472.7396739144],
            [-7120361.097076037, 4007680.978760114],
            [-7120138.318677764, 4007032.138500855],
            [-7119245.716208055, 4006909.2978506656],
            [-7117385.939777376, 4008800.261280134],
            [-7116173.830393322, 4009096.314756047],
            [-7115109.410813737, 4008827.532530452],
            [-7114292.009786461, 4008243.574706212],
            [-7113678.363014008, 4007136.8955266145],
            [-7113527.694372083, 4006630.03353896],
            [-7113861.643634129, 4004074.4854556723],
            [-7113563.0285330815, 4003264.5598724373],
            [-7113215.386298743, 4002952.726744336],
            [-7112271.6408015005, 4002573.2739372537],
            [-7110156.609379704, 4002188.2155178534],
            [-7108874.736246532, 4001679.687542854],
            [-7106000.956458388, 3999539.161367632],
            [-7104193.877721134, 3999095.6154102394],
            [-7103127.843324287, 3998573.563936843],
            [-7102670.70498948, 3997892.060989605],
            [-7102498.318257063, 3997991.3514094125],
            [-7102584.723644039, 3999263.4447971913],
            [-7102099.558537203, 4000066.410204782],
            [-7101170.109645009, 4000573.6402980657],
            [-7100292.464126629, 4000664.308923955],
            [-7096856.827969319, 3999525.6722295824],
            [-7094735.018203959, 3999032.4239491974],
            [-7093685.427643316, 3998549.4976305296],
            [-7092328.2610526895, 3997331.1077958],
            [-7091521.706013729, 3996941.6897087866],
            [-7088338.535135088, 3994674.0955220154],
            [-7081401.548198214, 3993458.059044638],
            [-7078632.991950866, 3991065.642488213],
            [-7076463.806257413, 3983744.7228162223],
            [-7070352.643260773, 3978826.7075832505],
            [-7066589.567260189, 3977765.239986849],
            [-7063898.992964457, 3978096.9497403414],
            [-7060493.050097642, 3975715.6403991166],
            [-7058074.934153487, 3974516.680825271],
            [-7055296.682518446, 3973357.7740660845],
            [-7051364.970358555, 3972890.147405427],
            [-7048710.439776865, 3973667.0191955613],
            [-7044060.708850338, 3976078.425038509],
            [-7041507.822742866, 3973827.221505546],
            [-7034973.968983539, 3971692.4036550573],
            [-7033895.732579363, 3973296.3989447895],
            [-7034322.4340725485, 3976326.978613476],
            [-7029514.243249856, 3976804.271623034],
            [-7026477.719047179, 3978226.590167807],
            [-7024961.199378819, 3980218.063664064],
            [-7025332.917087554, 3983509.776790735],
            [-7021223.0818776535, 3985181.543636772],
            [-7018014.748461831, 3988277.335155387],
            [-7016034.284917143, 3991502.578644467],
            [-7013890.872785173, 3993038.3170526563],
            [-7016156.376133456, 3996854.2493866184],
            [-7015105.143765697, 4005131.5564644276],
            [-7016911.940193291, 4007694.6995164077],
            [-7020174.427442055, 4006839.0675639855],
            [-7020119.798059822, 4010859.1897004014],
            [-7020981.469201009, 4011833.641418388],
            [-7021269.717456406, 4012801.4426784613],
            [-7019116.207769917, 4015766.7822156157],
            [-7018532.115229164, 4016827.7524709664],
            [-7019310.44253295, 4017958.106171809],
            [-7021827.159511905, 4019106.505876413],
            [-7022054.191947941, 4021262.2551539796],
            [-7021111.888772972, 4022006.338020765],
            [-7020012.655868828, 4023832.0214624545],
            [-7019725.769368026, 4026640.3955484093],
            [-7019822.85838668, 4028309.4671016214],
            [-7020538.282401002, 4029724.6682677846],
            [-7019309.035876649, 4032799.0288368766],
            [-7019143.080570189, 4034368.9643857894],
            [-7017450.05475087, 4038939.2634732253],
            [-7017772.34368526, 4040185.3155092867],
            [-7016939.293486887, 4043335.2638921817],
            [-7016968.287331364, 4045197.3879511515],
            [-7017382.421271556, 4049177.8260577414],
            [-7015097.763410869, 4053263.463545999],
            [-7013996.541574075, 4053808.258575782],
            [-7012747.38720085, 4054651.0237009083],
            [-7011399.553743503, 4056635.462701173],
            [-7011206.228685122, 4057620.183104843],
            [-7008124.180166503, 4057889.84670572],
            [-7003465.591539475, 4061437.988436727],
            [-6993199.915804568, 4068747.9394154437],
            [-6989486.060269691, 4071542.2332943724],
            [-6986494.140837361, 4068488.4223780083],
            [-6982374.857714138, 4064791.2832073392],
            [-6980662.64003146, 4062613.291464466],
            [-6979275.922734837, 4061282.9564842363],
            [-6976587.465251474, 4059438.9920885353],
            [-6974926.5284670945, 4057699.4844016046],
            [-6973028.551231549, 4056131.177432141],
            [-6971561.270108752, 4055210.4234589366],
            [-6967269.564099663, 4053766.7745733606],
            [-6965128.83650664, 4052159.8711080854],
            [-6963195.708624328, 4051095.5450940537],
            [-6962518.408909512, 4050267.6898857774],
            [-6960152.538622178, 4049316.546447097],
            [-6951074.821061456, 4043775.9157249182],
            [-6949831.290245059, 4043438.359861239],
            [-6948677.738119614, 4042115.7234628187],
            [-6947050.225310045, 4040893.0537664825],
            [-6945576.190935849, 4040877.720981394],
            [-6942836.635419067, 4039226.322517939],
            [-6941438.184019638, 4038026.9796718694],
            [-6939529.133928087, 4035661.3601564146],
            [-6937734.661778764, 4034327.564258595],
            [-6932612.026069152, 4029325.438378014],
            [-6930893.921222481, 4029838.5602481826],
            [-6930808.212158512, 4031185.936419852],
            [-6930087.674033376, 4032317.6155068194],
            [-6929992.534254621, 4036856.8178245486],
            [-6928989.834552667, 4038813.120477901],
            [-6928351.357261591, 4039617.509645451],
            [-6926941.499689931, 4040380.580170485],
            [-6926490.450140124, 4043686.495296094],
            [-6926970.38981416, 4046996.5814155904],
            [-6926468.613345684, 4048029.7978375237],
            [-6925502.01592637, 4048455.0825600494],
            [-6924225.996794552, 4049891.1120123793],
            [-6923317.198418244, 4051820.0311279763],
            [-6921347.367262952, 4053493.673164026],
            [-6920364.172629129, 4053003.6732615656],
            [-6919077.204753744, 4056518.8504717154],
            [-6919052.643734562, 4059104.9304146986],
            [-6919961.738949821, 4060263.148447891],
            [-6920335.956302477, 4062489.7185027837],
            [-6919556.83741794, 4064082.9517860995],
            [-6915401.190995323, 4063450.3568143756],
            [-6913288.189261944, 4062807.8356814985],
            [-6911050.6386381155, 4063225.014259865],
            [-6909760.834981967, 4063694.3340803445],
            [-6908880.022875565, 4063631.1312842816],
            [-6908505.904921555, 4064137.655610223],
            [-6907688.3674699385, 4064507.2710651043],
            [-6907358.091398514, 4065157.5378502873],
            [-6903931.320286406, 4065413.031290877],
            [-6901319.624565456, 4066266.93464364],
            [-6899039.482817411, 4067749.937483171],
            [-6898297.3210061025, 4069950.0678340998],
            [-6873692.329788407, 4073704.8836692655],
            [-6855375.200126546, 4078161.8051180234],
            [-6837082.937050014, 4077509.2839064696],
            [-6834677.088423623, 4075574.8009361727],
            [-6831477.957272179, 4078362.5280202767],
            [-6828558.273684081, 4078584.2208041754],
            [-6826406.188888967, 4076878.936742811],
            [-6824805.338431284, 4076904.317828006],
            [-6821547.158136585, 4079161.045643379],
            [-6819931.914341391, 4079550.107482127],
            [-6818548.669875782, 4079648.599360117],
            [-6816709.430397929, 4080427.371559389],
            [-6794692.134298194, 4085072.84506178],
            [-6801821.08584968, 4100637.0033809626],
            [-6795886.782127823, 4109706.754082961],
            [-6794077.725206978, 4111979.419643321],
            [-6793561.064651895, 4112018.3465818437],
            [-6790507.029247133, 4110773.799914391],
            [-6789224.15974153, 4092317.1787138265],
            [-6732128.573186075, 4102242.0739343152],
            [-6697401.586322351, 4108466.4470171425],
            [-6632845.535973929, 4120606.4338010796],
            [-6632750.823634446, 4120028.6196521698],
            [-6585341.408575796, 4129291.2453477634],
            [-6502817.916651362, 4143847.6088325],
            [-6433081.9665111555, 4156885.143811302],
            [-6433094.468859147, 4189600.3097802238],
            [-6432558.824229731, 4238664.354649099],
            [-6460573.024096222, 4248812.222682242],
            [-6460229.107791023, 4249934.74470872],
            [-6560252.337950434, 4586878.719751522],
            [-6626608.282842053, 4849944.8166975],
            [-6659088.546874853, 4984645.938032208],
            [-6675780.652496458, 5054242.44304699],
            [-6656222.128671528, 5057189.789901787],
            [-6521475.435255195, 5075077.035776134],
            [-6635264.023242844, 5127314.7406708235],
            [-6743213.921025187, 5183458.564377276]
          ]
        ]
      }
    }
  ]
}
