{
  "type": "FeatureCollection",
  "features": [
    {
      "type": "Feature",
      "properties": {
        "NAME": "Niger"
      },
      "geometry": {
        "type": "Polygon",
        "coordinates": [
          [
            [-4860308.829260642, 5160738.9778603185],
            [-4889964.941685131, 5176991.626727762],
            [-4919698.9572102595, 5193243.396338189],
            [-4920431.225035449, 5193807.847639968],
            [-4925534.722203315, 5195858.750317354],
            [-4927345.380775902, 5196387.327038828],
            [-4929902.447007235, 5196694.333571933],
            [-4934740.172509368, 5197581.015054449],
            [-4939281.0683636125, 5198118.373288396],
            [-4944971.638857456, 5198082.835811773],
            [-4975878.08102455, 5198396.703659012],
            [-5005532.027407811, 5198725.4861041885],
            [-5027434.196390259, 5198835.009344672],
            [-5057147.05624862, 5199099.085680039],
            [-5061012.917598039, 5199108.383317148],
            [-5062348.064903889, 5198966.210301313],
            [-5081576.225226951, 5180298.174781713],
            [-5112924.212005764, 5150023.391248951],
            [-5126406.867815046, 5136068.178071927],
            [-5133539.139557169, 5128301.035776779],
            [-5157359.992214424, 5105427.202222106],
            [-5188649.850009439, 5075141.415528743],
            [-5200404.975105757, 5063717.27098938],
            [-5205763.303142347, 5058181.490539911],
            [-5223478.407535389, 5040718.403405469],
            [-5252876.924737118, 5012252.505195275],
            [-5274693.645586206, 4990997.799223852],
            [-5278619.679233119, 4987738.943983847],
            [-5278824.974803146, 4988099.648192593],
            [-5313206.309168911, 4953879.543754784],
            [-5347052.738543471, 4920068.46582115],
            [-5350315.129937356, 4916773.4779317845],
            [-5351310.196847898, 4915547.353855515],
            [-5351642.71294749, 4914936.852462973],
            [-5371245.983399299, 4895580.320225728],
            [-5371710.69749119, 4895022.9013732],
            [-5371610.13843098, 4895017.276623041],
            [-5390682.401723777, 4876098.093506092],
            [-5416524.876611878, 4841087.3505076105],
            [-5420615.667499232, 4835498.241270087],
            [-5422392.158219628, 4832860.3406896265],
            [-5440560.999891966, 4808200.70164378],
            [-5459018.898084347, 4783054.088180664],
            [-5459370.892158013, 4782185.96389507],
            [-5461128.701080611, 4779487.364682195],
            [-5482586.352785658, 4750196.0546483705],
            [-5491455.807830052, 4738396.709096688],
            [-5492394.899141073, 4737404.767882934],
            [-5504652.117751746, 4720487.331816139],
            [-5537191.964878532, 4706156.544447756],
            [-5572747.337246099, 4690429.422309903],
            [-5597942.6987272585, 4679403.964405395],
            [-5633400.671167631, 4663747.588787318],
            [-5633087.438938348, 4663170.960268474],
            [-5632417.499424854, 4660048.54802531],
            [-5628002.907588831, 4638248.289777868],
            [-5622260.9760701535, 4610906.396534679],
            [-5611888.09843374, 4561921.020495023],
            [-5604850.412017821, 4529546.898080728],
            [-5600025.999548549, 4507835.667839605],
            [-5591900.59652809, 4470623.700178305],
            [-5595210.488115006, 4469833.18069745],
            [-5594897.780049513, 4468144.498190346],
            [-5593082.450252718, 4462874.661503492],
            [-5592860.884052894, 4461612.1440295605],
            [-5592903.05055094, 4461105.154247326],
            [-5593252.855531566, 4460269.906181386],
            [-5593142.071214804, 4459638.61471228],
            [-5591867.449535967, 4456769.020082382],
            [-5591820.958065487, 4456202.60461928],
            [-5591946.1620081505, 4455730.171150417],
            [-5592379.081707229, 4454929.331827485],
            [-5593181.598499146, 4453970.07187848],
            [-5584682.587333179, 4415548.846972743],
            [-5585279.1823777445, 4414921.495556875],
            [-5587403.861172486, 4413647.56432239],
            [-5588534.224250235, 4412799.37070754],
            [-5589540.84075086, 4411847.108748322],
            [-5590648.257436119, 4410427.655911594],
            [-5591317.686666702, 4409784.498512683],
            [-5592958.904291272, 4407096.269072737],
            [-5593895.711819136, 4405006.488674142],
            [-5594121.372370667, 4404066.80560681],
            [-5593964.029291067, 4400669.498823776],
            [-5594053.487802934, 4399104.537949203],
            [-5594315.12704694, 4397633.066023285],
            [-5595466.168911641, 4393505.527215455],
            [-5595770.07713865, 4390950.766217785],
            [-5597177.035753155, 4385326.343371881],
            [-5597491.712613564, 4382821.540341337],
            [-5597468.367783163, 4382250.335888806],
            [-5597126.091216382, 4381146.268893332],
            [-5596278.283498328, 4379235.857310273],
            [-5594341.411573436, 4376515.877170373],
            [-5594143.907070055, 4375380.452285975],
            [-5594890.80417652, 4373698.062564549],
            [-5597604.953869902, 4370118.540911532],
            [-5598790.49890549, 4367658.958825224],
            [-5599110.9529746445, 4366226.769935838],
            [-5599104.450603113, 4362953.789252252],
            [-5598153.950742312, 4356299.3789314525],
            [-5598177.246720904, 4354670.264723507],
            [-5597980.250657621, 4351806.179128858],
            [-5598192.775207887, 4349768.979802132],
            [-5598702.150291525, 4347928.543806603],
            [-5601209.60588191, 4344208.720625187],
            [-5603161.477155255, 4342810.971631872],
            [-5604129.144157258, 4342362.788802196],
            [-5609682.085809197, 4340829.9401570475],
            [-5610655.638296651, 4340406.820253538],
            [-5611391.524548815, 4339826.216517273],
            [-5611700.1059802, 4339496.478435346],
            [-5614495.500564069, 4334873.84515191],
            [-5617262.246008447, 4329654.101795256],
            [-5618532.950796569, 4327802.583610997],
            [-5622528.262827374, 4324121.018660961],
            [-5624085.442046805, 4322992.875280432],
            [-5624608.548277747, 4322248.8589307],
            [-5624780.794091592, 4320716.730051921],
            [-5624122.249947637, 4318528.077018038],
            [-5623651.122771913, 4316036.228053587],
            [-5623453.487687423, 4313169.742561289],
            [-5623565.7700730115, 4311598.375007241],
            [-5623276.749097818, 4309333.978665534],
            [-5624353.145784467, 4309511.579138419],
            [-5667710.481995762, 4306754.991244077],
            [-5668279.451854433, 4305160.070401223],
            [-5666935.975528178, 4298310.366865323],
            [-5701527.833666874, 4291582.883743696],
            [-5758361.220112838, 4276274.567383278],
            [-5786420.986555631, 4268785.698975862],
            [-5816066.2521681, 4260822.967237076],
            [-5838510.258346789, 4228283.050773395],
            [-5839930.818214101, 4226391.323584658],
            [-5860283.88409097, 4220978.444183058],
            [-5864002.277745693, 4217774.2183500575],
            [-5881354.01381619, 4219666.254299546],
            [-5890829.252882499, 4213807.190856351],
            [-5906624.02988231, 4214355.008195252],
            [-5906078.982702398, 4212878.25699826],
            [-5903576.06550048, 4204122.006652317],
            [-5903847.894239022, 4203215.144264001],
            [-5904360.39626157, 4202469.378289552],
            [-5905108.232751452, 4201859.3892171],
            [-5905620.903987528, 4201113.640176587],
            [-5906173.775677097, 4199828.435415669],
            [-5906474.269359037, 4198570.360415727],
            [-5900575.094012151, 4191839.086927425],
            [-5902749.132650749, 4169484.21445946],
            [-5899580.729956398, 4164590.7813061606],
            [-5888153.940412508, 4157735.3566309195],
            [-5885867.798889559, 4157803.3987714266],
            [-5883784.666651815, 4155574.130919096],
            [-5879344.750755513, 4152369.652060961],
            [-5878653.666863461, 4151803.1432696297],
            [-5877378.642161919, 4150329.0942873782],
            [-5876245.814262317, 4149513.6918184343],
            [-5875587.626660582, 4148860.768110177],
            [-5875601.624045561, 4148327.681808962],
            [-5876287.852261089, 4147675.6266840775],
            [-5876642.318187444, 4146803.7850400256],
            [-5875831.209179051, 4143294.8808185956],
            [-5875850.568928946, 4142787.043516096],
            [-5878182.061134532, 4138862.4812181233],
            [-5878476.054089885, 4137950.5543071073],
            [-5878528.35188463, 4136878.7192168557],
            [-5878028.816880592, 4136006.172291037],
            [-5877331.486516185, 4135415.0498136515],
            [-5875719.841423654, 4134545.158551634],
            [-5873987.353889286, 4133834.2966138646],
            [-5873721.044669196, 4133441.5300856438],
            [-5873611.1417598035, 4132935.2433255776],
            [-5874008.993327428, 4131550.11077019],
            [-5874000.52681334, 4130438.7704406013],
            [-5873830.11495829, 4129892.668949831],
            [-5873437.390446141, 4129633.3283263226],
            [-5871861.271372636, 4129286.722615636],
            [-5870617.347100808, 4128682.603054722],
            [-5870111.690327508, 4127785.4537459393],
            [-5869690.726257084, 4125968.937063816],
            [-5869217.966608021, 4125223.7783198785],
            [-5866499.290509225, 4124384.748678545],
            [-5866059.358815348, 4123553.1976762456],
            [-5864917.514157979, 4123775.4643907254],
            [-5864486.315674167, 4123578.032185448],
            [-5864219.617241497, 4123185.6685744165],
            [-5864172.498833803, 4122613.0637770197],
            [-5864569.321755736, 4121228.3006434254],
            [-5864582.567907599, 4120695.5547854747],
            [-5864197.1036520945, 4119640.265800509],
            [-5863809.743752065, 4119406.8555455985],
            [-5862005.26205696, 4118846.8272587736],
            [-5861186.689637482, 4118416.177641324],
            [-5860009.935599231, 4117057.135223647],
            [-5859509.199101081, 4116186.461504855],
            [-5858519.453696653, 4115210.7301004543],
            [-5857395.560583645, 4114449.83979554],
            [-5853464.798066358, 4112926.1418644856],
            [-5852799.320438037, 4112250.884834812],
            [-5852259.872205305, 4111442.1711352053],
            [-5851237.103637447, 4110553.984437933],
            [-5850418.274631996, 4110124.3662462863],
            [-5849891.23557393, 4110081.06836174],
            [-5849372.692380082, 4110194.731494655],
            [-5848966.980477259, 4110468.9709434425],
            [-5848382.446997813, 4110517.7123396914],
            [-5848014.089523269, 4110254.284136361],
            [-5847693.729333625, 4109265.3885027687],
            [-5848751.218844174, 4105591.347882429],
            [-5848564.791028746, 4104387.8428685158],
            [-5848148.425856643, 4103552.545076018],
            [-5847818.235195075, 4103227.8546335367],
            [-5845874.530159472, 4102039.721126076],
            [-5845399.261623433, 4101879.488032655],
            [-5832350.52720254, 4105146.7080430924],
            [-5831527.010567164, 4104931.2330883034],
            [-5831134.030007553, 4104673.8455626755],
            [-5830752.519455173, 4103646.6680871868],
            [-5830915.894222333, 4103213.7931766803],
            [-5831726.341506969, 4102664.827906177],
            [-5831318.754447394, 4101167.241871763],
            [-5825753.605707439, 4100569.1403858606],
            [-5822845.273449974, 4101925.099092324],
            [-5819543.005036883, 4101728.65302082],
            [-5812211.132135327, 4098511.304654724],
            [-5811851.626726977, 4098405.8762995205],
            [-5810673.887660602, 4098693.037300414],
            [-5810185.561609873, 4098589.709873138],
            [-5807390.814413212, 4095429.180073727],
            [-5807180.551175476, 4094947.2619775217],
            [-5807330.511367942, 4093407.479442169],
            [-5806854.292675973, 4091610.205614882],
            [-5806562.000980004, 4091225.789987571],
            [-5805609.845203861, 4091014.288880077],
            [-5805164.364765703, 4090056.0893137706],
            [-5804833.974599935, 4089733.0074890307],
            [-5803881.814975987, 4089521.672746181],
            [-5801216.855393477, 4089400.2442742116],
            [-5800911.1161701325, 4089071.818760309],
            [-5799470.6985040195, 4088757.8421406313],
            [-5795661.46716751, 4087095.3753712894],
            [-5792801.272667422, 4087256.604435259],
            [-5792318.62880081, 4087179.2303648586],
            [-5791156.166616076, 4086487.315014001],
            [-5790049.83502009, 4086628.165492537],
            [-5788089.247656837, 4086299.1996975536],
            [-5785706.137600729, 4087437.7828959934],
            [-5784562.254074912, 4087640.0710583036],
            [-5783743.759993884, 4087215.3300876427],
            [-5780072.905552443, 4084549.777472351],
            [-5780623.201764731, 4084004.563886337],
            [-5781834.894515888, 4083179.5381673537],
            [-5783030.362552086, 4082859.8603131585],
            [-5783619.13625144, 4082834.0099418205],
            [-5784627.978880916, 4082952.040915743],
            [-5786356.35564109, 4084441.079465126],
            [-5786781.929298237, 4084610.234174858],
            [-5787302.523601019, 4084626.172279048],
            [-5787734.648094052, 4084476.951578544],
            [-5788078.295024944, 4084162.654541076],
            [-5787838.888747233, 4082394.008752869],
            [-5788162.894245707, 4080948.467924155],
            [-5788058.010460436, 4079783.518506972],
            [-5788310.969612651, 4079410.1901260335],
            [-5788715.090184346, 4079135.0736102615],
            [-5791086.4147728775, 4079794.386926622],
            [-5792095.691472545, 4079912.609907342],
            [-5793300.867584185, 4079749.58060032],
            [-5794169.958976473, 4079238.7449561693],
            [-5795515.529484658, 4079704.8757781168],
            [-5799401.107691368, 4080424.2473517363],
            [-5801756.4482938945, 4081009.6412747256],
            [-5802861.371489576, 4080975.10903909],
            [-5803422.735339838, 4080823.83681302],
            [-5804274.464542269, 4081162.816007959],
            [-5804801.135600334, 4081204.2517021094],
            [-5806554.022450279, 4080708.66515713],
            [-5800212.412397954, 4051255.655644115],
            [-5799448.411723451, 4051083.315067284],
            [-5799212.278651197, 4050607.7591690607],
            [-5798022.46289776, 4049923.180672799],
            [-5797765.10520879, 4049584.488519123],
            [-5788109.255307888, 4050536.0939480164],
            [-5739431.857350905, 4025345.3775559426],
            [-5713031.117120635, 4029366.9977698997],
            [-5709930.011030208, 4038761.7087541767],
            [-5707793.934008189, 4038459.7755691246],
            [-5705180.270242384, 4042740.666217023],
            [-5700489.09789802, 4042443.8410022054],
            [-5699751.609927872, 4043059.532965406],
            [-5699288.68304247, 4042954.8669145284],
            [-5696956.555094709, 4043145.8625485837],
            [-5696488.556834546, 4043358.0357390023],
            [-5695591.67746404, 4044404.711155663],
            [-5695104.271889672, 4044305.6426239973],
            [-5694460.904145628, 4043637.4078143165],
            [-5693610.534875401, 4043305.9087987645],
            [-5691685.624617471, 4042904.643916358],
            [-5690854.010819849, 4042542.6258242982],
            [-5690154.186345394, 4041966.571812349],
            [-5689311.299245052, 4040765.81338168],
            [-5689136.327778893, 4040227.3969578785],
            [-5689207.631517855, 4039185.611012103],
            [-5688887.882169437, 4038917.0332177505],
            [-5684392.130977213, 4038001.745508272],
            [-5681858.440729914, 4035060.417081746],
            [-5679846.844358062, 4028215.059616322],
            [-5675571.974739042, 4025124.7114564152],
            [-5675588.1688329615, 4023176.2601767248],
            [-5675193.780465835, 4022136.984651902],
            [-5674473.621231671, 4020804.9883520748],
            [-5674414.881697395, 4020214.0788299073],
            [-5674579.639695276, 4019808.16964553],
            [-5675071.685000279, 4019589.6363445516],
            [-5676078.58706404, 4019699.207838721],
            [-5677798.4287986085, 4019539.444878889],
            [-5678237.709712091, 4018754.8561513363],
            [-5678705.319487987, 4018541.9799991716],
            [-5679556.310703099, 4018871.580339583],
            [-5680137.883556395, 4018816.5328902816],
            [-5680789.223498021, 4018167.0150759765],
            [-5682059.852713865, 4017401.133958798],
            [-5682585.177232234, 4017437.9060027623],
            [-5683404.459444615, 4017853.9226865335],
            [-5683805.929530944, 4017577.386331658],
            [-5684366.619789936, 4016869.864814262],
            [-5684313.7200722555, 4016303.6278661797],
            [-5684654.6957298685, 4015988.4664466516],
            [-5685670.932299859, 4015912.2294636266],
            [-5686072.472541898, 4015635.654524244],
            [-5686407.651460685, 4015295.5045233546],
            [-5686695.782183003, 4014414.012017026],
            [-5687006.498783118, 4014079.475409658],
            [-5687588.3667753935, 4014024.425131407],
            [-5688383.428010269, 4014446.1943694456],
            [-5689404.5080017885, 4014053.2957789823],
            [-5690207.842318902, 4013500.158372561],
            [-5690647.624527805, 4012715.1213778355],
            [-5690527.285091519, 4011743.382459253],
            [-5691328.51186705, 4010506.8363149134],
            [-5651788.0196232125, 3976007.225131605],
            [-5651331.984097102, 3976155.6703159963],
            [-5651163.895757191, 3976368.8479679017],
            [-5651183.098004076, 3976710.353143759],
            [-5650748.4180740155, 3977257.043606427],
            [-5651929.838219114, 3977640.2283937037],
            [-5651837.950612419, 3978263.8522974565],
            [-5652996.459489701, 3979043.893966966],
            [-5652231.740778197, 3980115.61737584],
            [-5652039.634257037, 3981495.230199453],
            [-5651418.5691759065, 3981749.6972679053],
            [-5650767.543084738, 3981703.94096981],
            [-5649445.671698362, 3981978.192545883],
            [-5649393.629071924, 3982509.2513176217],
            [-5650041.783382382, 3983536.8078051107],
            [-5649014.815788649, 3984887.7811856125],
            [-5648160.732942324, 3984924.3243074506],
            [-5647969.834737875, 3984488.702735448],
            [-5647530.86498728, 3984960.6005347758],
            [-5648300.9037420275, 3986547.536272284],
            [-5649066.988768905, 3987111.9029678004],
            [-5648925.814999716, 3987568.2298389515],
            [-5649438.682681875, 3988112.2567550447],
            [-5649881.741312579, 3988236.8338516057],
            [-5650355.075252924, 3987804.2758898344],
            [-5650918.869532769, 3988075.6313931574],
            [-5651026.35658672, 3988629.088975122],
            [-5651693.204459818, 3989610.971297274],
            [-5651407.49169383, 3990130.2507252446],
            [-5651575.596246362, 3990548.6344205597],
            [-5652867.568732917, 3990874.717559563],
            [-5653113.014803904, 3991109.8895900985],
            [-5653591.531446265, 3992089.382183864],
            [-5653299.654711472, 3992375.8239109023],
            [-5653262.591758715, 3992793.7107202574],
            [-5653935.895815813, 3992881.5267746276],
            [-5654884.307872143, 3992773.907775247],
            [-5654790.303209642, 3993455.4147398644],
            [-5655200.212229878, 3994464.6087523177],
            [-5655689.172288321, 3994917.9430947807],
            [-5656571.515132807, 3995071.4258351927],
            [-5656921.212100986, 3995323.0993132736],
            [-5656563.678110232, 3997271.6393035874],
            [-5657191.579640545, 3997554.381686788],
            [-5657257.639809517, 3998298.699561387],
            [-5657932.916614083, 3999391.634572284],
            [-5658712.308763758, 4000002.8020051825],
            [-5658848.617875503, 4000590.276983087],
            [-5658790.660515999, 4001115.452184573],
            [-5658231.38363725, 4001604.862757912],
            [-5658105.091069085, 4001948.1626193584],
            [-5658454.98208644, 4002856.043924188],
            [-5659284.334909573, 4002949.314696936],
            [-5659571.671394166, 4003250.990605192],
            [-5659715.780497495, 4003872.5781267215],
            [-5659288.394659315, 4005227.797494453],
            [-5659373.363170191, 4005594.4108263105],
            [-5659645.0846589785, 4005879.787075245],
            [-5660201.045961059, 4005857.907323282],
            [-5660883.505132154, 4006142.278547235],
            [-5660573.431732504, 4006984.582014034],
            [-5660269.474235389, 4007298.753569127],
            [-5660581.871984443, 4007584.148914726],
            [-5660211.777759286, 4008042.3352949233],
            [-5659705.577987817, 4008159.5798428776],
            [-5658863.519453499, 4008642.2428599806],
            [-5658402.101167769, 4008675.7302798955],
            [-5657982.304656845, 4008380.0750462757],
            [-5656432.829706268, 4008845.9902079115],
            [-5655791.23702122, 4008744.8762789746],
            [-5655752.844602859, 4009174.6372114373],
            [-5655333.802097942, 4010003.6810957333],
            [-5653494.062740772, 4009388.3902006974],
            [-5653055.0813612295, 4010014.1115468647],
            [-5653302.6778215105, 4010775.7778811483],
            [-5653262.544590989, 4011225.2765939357],
            [-5652997.27403751, 4011511.517390369],
            [-5652608.196816095, 4011382.554099472],
            [-5650082.0896296, 4011539.443884198],
            [-5649903.737044904, 4011969.5757134347],
            [-5649593.554334099, 4012290.3067704467],
            [-5649648.929530672, 4013744.639695841],
            [-5649496.158726035, 4014188.576790542],
            [-5648758.6873140065, 4014138.062423517],
            [-5648552.092559358, 4013860.465423417],
            [-5647786.468584727, 4013575.536877591],
            [-5647239.752894222, 4013521.239308946],
            [-5646713.09338228, 4012758.5249902317],
            [-5646055.359717251, 4013656.3032152737],
            [-5644553.349013444, 4014039.8406511913],
            [-5644041.841502105, 4014376.4897230193],
            [-5643629.846230477, 4014114.8094372666],
            [-5643381.931735862, 4014342.168105072],
            [-5643175.891519784, 4015427.1858203146],
            [-5642759.166138521, 4016391.742594982],
            [-5642065.2976993015, 4016662.5719264844],
            [-5641766.643132193, 4016443.7241112515],
            [-5639868.494598797, 4016775.5722248782],
            [-5639298.2938456945, 4016413.4270777158],
            [-5638964.909715905, 4016912.3731137696],
            [-5637626.591222215, 4017689.8322137506],
            [-5637008.498478759, 4018229.147926423],
            [-5636153.922171149, 4018245.746511586],
            [-5634911.416046304, 4017777.2964419303],
            [-5634322.90567196, 4016933.746729702],
            [-5634431.863248196, 4016531.0051495587],
            [-5633555.763857737, 4016699.9672287465],
            [-5633179.148838206, 4017780.5246257447],
            [-5633128.352534516, 4018475.521257312],
            [-5632858.019525786, 4018963.97651682],
            [-5633200.087265025, 4019528.460883038],
            [-5632360.76448407, 4021840.104461963],
            [-5632625.417288036, 4022527.4832368284],
            [-5632675.54953818, 4023204.4659298817],
            [-5632398.1916017495, 4023705.497665176],
            [-5631981.146890436, 4024015.3645489016],
            [-5631985.639435185, 4024952.4833789757],
            [-5631176.703767565, 4024919.5016353307],
            [-5630615.079142103, 4024077.8277864424],
            [-5629374.637531395, 4024230.6669923584],
            [-5628813.964752811, 4024501.6993176197],
            [-5628187.051395074, 4027259.1020456976],
            [-5627656.2458700165, 4028173.994384167],
            [-5626951.596045652, 4028806.5377206705],
            [-5625549.186037456, 4029454.862614016],
            [-5624714.824388269, 4029648.3854264263],
            [-5623312.074828944, 4030891.8378343554],
            [-5622368.602087636, 4030293.358283424],
            [-5620053.264750114, 4029786.318138426],
            [-5618696.930033083, 4028882.8327026856],
            [-5617842.652697499, 4027878.700758017],
            [-5616313.062208794, 4027189.7658513845],
            [-5613812.970689695, 4025008.183639339],
            [-5612755.194412166, 4023341.190070867],
            [-5612055.398144253, 4022770.2399825444],
            [-5610314.054496813, 4022153.5375157027],
            [-5608749.141031699, 4022072.5140407933],
            [-5606511.504320745, 4022200.779854377],
            [-5605563.520718254, 4022002.4146939376],
            [-5604802.050980825, 4021498.736095968],
            [-5603601.712083499, 4019997.1446200428],
            [-5602295.2607641155, 4018703.9362231446],
            [-5601143.49923475, 4017191.4564225324],
            [-5600198.44677667, 4016233.3578167744],
            [-5598550.419474915, 4015465.685205713],
            [-5597116.29193586, 4015172.1980914273],
            [-5594576.397673996, 4014115.940068243],
            [-5593451.904132453, 4013383.750977649],
            [-5592906.6650755955, 4012594.8099794947],
            [-5591893.873670108, 4011679.657640792],
            [-5589787.565461763, 4011596.5776533666],
            [-5588932.837693942, 4011246.809667474],
            [-5587557.139146007, 4010102.9393543997],
            [-5584267.09191689, 4006947.3364232844],
            [-5583511.177212594, 4006470.266460247],
            [-5581885.493214183, 4006458.9516320825],
            [-5580453.789200467, 4005407.778822954],
            [-5578861.666351239, 4004551.469578573],
            [-5578077.425638045, 4003296.3058008673],
            [-5577350.812174272, 4001190.4120368534],
            [-5576076.266430146, 3999056.3540494777],
            [-5571064.436916777, 3994401.208418654],
            [-5570634.008566808, 3994214.774824352],
            [-5569593.3880166095, 3994172.2054262515],
            [-5567322.388629069, 3994811.929135194],
            [-5566839.089423441, 3995056.6155915437],
            [-5565879.953537634, 3996015.0306450543],
            [-5565390.772750213, 3996234.916703043],
            [-5563705.817212101, 3995533.55984259],
            [-5561386.348698968, 3994982.0754152173],
            [-5560317.276728757, 3994162.2080834797],
            [-5559855.761148067, 3994061.8325178265],
            [-5559332.721676988, 3994028.42129819],
            [-5557100.066036006, 3994607.565474267],
            [-5556121.50163586, 3994498.6761739366],
            [-5553619.351050588, 3993390.274672813],
            [-5551879.205518951, 3992128.3804302597],
            [-5550780.830148029, 3990532.1465525334],
            [-5550351.582462437, 3989588.0230629323],
            [-5550019.878301342, 3989274.46335603],
            [-5549134.071999897, 3989013.517871629],
            [-5548088.335593906, 3988947.2216400993],
            [-5546870.866616046, 3988372.923771009],
            [-5546594.777551171, 3987967.85221705],
            [-5546725.047888582, 3986342.7635011827],
            [-5546117.149095113, 3985624.344648312],
            [-5541104.101658945, 3982845.7071490996],
            [-5539935.6901600305, 3984423.7388529815],
            [-5535085.527022813, 3989701.1066152207],
            [-5538139.80954158, 3994881.3052908867],
            [-5541650.578837791, 3995252.397878308],
            [-5544930.744048471, 4003361.118866175],
            [-5541303.828089124, 4009468.8397622784],
            [-5542100.74074249, 4012520.4889055025],
            [-5547125.407501447, 4020534.6052751937],
            [-5547671.853449582, 4030518.931582552],
            [-5547442.775257878, 4034361.6523800995],
            [-5554096.0285108285, 4058520.2209298117],
            [-5532830.1510331705, 4084166.949853219],
            [-5524646.151970782, 4109330.102806342],
            [-5525348.6715151835, 4126158.8512024134],
            [-5531276.587190671, 4152957.457006961],
            [-5522173.40258737, 4155470.589993649],
            [-5507002.574044409, 4178267.8724004873],
            [-5495158.133524977, 4183965.1834669122],
            [-5472741.689354834, 4195017.58805445],
            [-5468506.265165734, 4191775.56357246],
            [-5461991.256083144, 4192993.5403358922],
            [-5452751.849253456, 4197055.034326661],
            [-5444914.113984183, 4198139.421865622],
            [-5437316.861687373, 4200470.69641394],
            [-5437062.84519048, 4200581.592739627],
            [-5433342.258348952, 4205370.302452427],
            [-5432425.885590036, 4210523.395460594],
            [-5417810.291418169, 4217937.005368391],
            [-5406847.268241879, 4215438.357776484],
            [-5405519.599035085, 4214421.725206725],
            [-5405095.389458715, 4214234.458292432],
            [-5404008.151087539, 4214253.214601365],
            [-5402724.811958526, 4214629.339927466],
            [-5374567.528247457, 4210310.552874645],
            [-5363265.99589532, 4209813.2316295],
            [-5361968.123009857, 4209468.496970412],
            [-5360344.508982462, 4208707.501211735],
            [-5359219.760076151, 4208452.249937439],
            [-5353372.1258302275, 4213580.644097868],
            [-5349322.806138368, 4214580.813303728],
            [-5335754.173408966, 4210429.954298913],
            [-5308455.1004166845, 4192758.6754826196],
            [-5292262.373733447, 4174377.5421624947],
            [-5278977.268397991, 4167225.4323374387],
            [-5265367.930669163, 4170291.588296866],
            [-5261453.440655813, 4175642.906385374],
            [-5257034.819310533, 4184393.4257413177],
            [-5242630.729468845, 4185430.8259623875],
            [-5210390.143795282, 4216634.290461121],
            [-5190157.450477425, 4218508.796340912],
            [-5183043.087495955, 4218615.856455909],
            [-5182058.738047654, 4217666.902624906],
            [-5180912.319586804, 4216988.84486883],
            [-5177777.201692684, 4216118.274446195],
            [-5176216.976464045, 4216029.103803484],
            [-5175306.708431221, 4215809.7180439895],
            [-5173585.781683691, 4214420.39736414],
            [-5172439.35554926, 4213742.995434244],
            [-5171511.116805379, 4213554.035761291],
            [-5169384.762266989, 4213888.858309477],
            [-5168139.26099281, 4213797.770208945],
            [-5163877.118123193, 4210652.407422084],
            [-5161892.445657465, 4209637.028742908],
            [-5161018.294369652, 4209358.485007184],
            [-5158599.552421365, 4208216.551322382],
            [-5157090.864904612, 4207293.249206245],
            [-5153923.869581554, 4205663.366861119],
            [-5151714.5057201935, 4204240.730643244],
            [-5151200.903475639, 4204211.77868504],
            [-5150227.177457905, 4205602.791795891],
            [-5149839.220529615, 4205876.385426024],
            [-5147400.781423793, 4206953.256381887],
            [-5146244.912155762, 4207283.445099869],
            [-5144577.768018688, 4207479.890555756],
            [-5142204.109911431, 4207255.377415177],
            [-5141402.123970826, 4206857.429251657],
            [-5140094.295306517, 4206453.065009554],
            [-5139352.109612501, 4205989.420487405],
            [-5134818.261928945, 4204127.656947064],
            [-5133363.831928352, 4203116.616326659],
            [-5132367.370432688, 4202123.570723839],
            [-5130612.880730137, 4199977.23770822],
            [-5128987.834368264, 4198262.6714631],
            [-5099400.395763749, 4196498.682447582],
            [-5095332.812516684, 4197487.349750034],
            [-5090143.226124815, 4198312.81546128],
            [-5088330.084701254, 4198728.26693626],
            [-5082156.048481686, 4199435.136210495],
            [-5077497.761068996, 4200261.392931483],
            [-5074230.986714659, 4200492.710714537],
            [-5073251.223530183, 4200397.935809276],
            [-5070572.990239318, 4200460.60818986],
            [-5068968.947909659, 4201005.525222945],
            [-5068202.161345601, 4201577.117744812],
            [-5066003.6966731595, 4202779.979096684],
            [-5063336.932205219, 4203712.232658711],
            [-5062262.421752629, 4203743.4567770455],
            [-5061212.723412303, 4203050.648557778],
            [-5042843.884436899, 4206227.854204238],
            [-5028330.472968813, 4234907.406417577],
            [-5028182.107636036, 4235122.887689716],
            [-5024810.360047833, 4235714.601413985],
            [-5024697.567398995, 4241122.053932226],
            [-5020587.5430998625, 4245787.131802682],
            [-5019905.871663633, 4246388.736535691],
            [-5017896.8838274665, 4247723.723958354],
            [-5016657.907697785, 4249024.636870411],
            [-5014820.991878729, 4250445.699886848],
            [-5013197.061495491, 4252019.619300265],
            [-5009771.662438667, 4255774.154753002],
            [-5008764.540630473, 4256685.437498022],
            [-5006869.206451955, 4258069.286966719],
            [-5003121.771833316, 4259878.955867916],
            [-5000694.900285009, 4260931.5056576105],
            [-4999097.121695579, 4261474.74494128],
            [-4993516.658698736, 4264192.5363578],
            [-4987364.548580699, 4266512.592635476],
            [-4983129.809545878, 4268365.091360878],
            [-4968904.875569446, 4277006.6682318],
            [-4962417.193129695, 4279665.891289248],
            [-4960290.604014296, 4280390.126943352],
            [-4958040.2499737805, 4280812.261660792],
            [-4956451.433908978, 4281379.703075023],
            [-4953026.272427803, 4282012.522986462],
            [-4949158.7747772075, 4282370.498008129],
            [-4946602.331003736, 4282254.573485873],
            [-4942139.436558371, 4282733.433444584],
            [-4933321.993322115, 4284330.806031852],
            [-4927651.959362449, 4285899.335012234],
            [-4924000.528634522, 4287228.846426293],
            [-4922113.214499332, 4288100.337760593],
            [-4918456.772370387, 4289405.8686279375],
            [-4910054.677835198, 4291850.532305431],
            [-4904896.837867541, 4293244.477702118],
            [-4902568.550704617, 4293637.562757261],
            [-4899338.613757755, 4293920.3498799475],
            [-4893203.035918591, 4293769.144338992],
            [-4889454.401771379, 4293159.638516771],
            [-4882784.250813811, 4293065.730170283],
            [-4881864.9495280925, 4292883.844662885],
            [-4879861.648847397, 4292764.740390992],
            [-4871691.08137068, 4292558.29792777],
            [-4866973.674143778, 4292675.708875231],
            [-4863868.764098247, 4291834.974128182],
            [-4862449.2206739895, 4291649.669652212],
            [-4860210.52380435, 4291080.278813915],
            [-4858607.615718381, 4290354.175385413],
            [-4855237.351354452, 4289147.004851737],
            [-4847975.035581921, 4287551.668102119],
            [-4845435.888993609, 4286675.988149244],
            [-4844663.871543969, 4286280.834308928],
            [-4842682.803251094, 4284834.409228827],
            [-4835549.992838265, 4284721.836277949],
            [-4835355.043397641, 4284890.507290061],
            [-4834848.8015375715, 4284863.0018105265],
            [-4834437.205116995, 4285015.833261777],
            [-4833820.861172448, 4285652.492779219],
            [-4833674.842592333, 4286070.785616853],
            [-4833624.285840302, 4287076.741965638],
            [-4833242.462753472, 4287349.6572174765],
            [-4831118.3805726385, 4287442.586638704],
            [-4828904.549980291, 4286870.290337871],
            [-4828310.530445702, 4286991.973386727],
            [-4827464.636133967, 4287507.241151761],
            [-4826958.51931432, 4287479.812067475],
            [-4826134.0657603135, 4287174.799207514],
            [-4825485.338680056, 4286571.490217358],
            [-4825035.785219267, 4285664.26079746],
            [-4824617.568068841, 4285487.85648207],
            [-4824153.431012087, 4285730.165012692],
            [-4823920.429583768, 4286602.8400457855],
            [-4823597.629922932, 4286912.049860442],
            [-4822622.139905179, 4287306.691014632],
            [-4822098.504542257, 4287309.160653685],
            [-4821686.34596941, 4287156.687820501],
            [-4820914.623954602, 4286762.352085389],
            [-4820230.761555621, 4286219.036311701],
            [-4819701.195673667, 4286197.562108121],
            [-4819026.41121106, 4286797.7503128415],
            [-4818108.197887747, 4286618.140760343],
            [-4817022.415991197, 4287473.068414965],
            [-4816250.756706124, 4287078.883917047],
            [-4815221.328558129, 4287054.171987461],
            [-4814316.898340609, 4287533.1720058955],
            [-4813253.28562266, 4287873.4152891785],
            [-4810372.876183398, 4288333.705244413],
            [-4808808.66662176, 4288365.565633976],
            [-4808390.577020227, 4288189.30927246],
            [-4807706.8058478935, 4287646.3305857405],
            [-4806589.871857172, 4287770.9804007625],
            [-4806296.87956692, 4288098.18387251],
            [-4806186.560342712, 4288558.349626082],
            [-4806246.944255584, 4289103.308361045],
            [-4806483.500973864, 4289553.591453152],
            [-4806431.823304268, 4289948.250224221],
            [-4805904.661223767, 4290639.07395482],
            [-4806622.296486429, 4292726.332171404],
            [-4806807.960852019, 4293876.678528829],
            [-4806727.057889519, 4294354.936276883],
            [-4805936.3269431535, 4295391.183969412],
            [-4803969.170333723, 4296210.1735418],
            [-4803587.834208019, 4296482.931849188],
            [-4803119.700470549, 4297210.007260529],
            [-4803009.356827514, 4297670.076341835],
            [-4803283.29053104, 4298874.820313468],
            [-4802880.032117339, 4299662.123903119],
            [-4802875.560192984, 4300146.877069086],
            [-4803293.453683183, 4300323.17815339],
            [-4804351.362383916, 4300264.40754486],
            [-4804769.284097759, 4300440.814110734],
            [-4804799.8332521105, 4300865.971682593],
            [-4804712.968252917, 4301320.248899041],
            [-4804478.901728776, 4301683.828644619],
            [-4804097.571790634, 4301956.541950797],
            [-4803863.502982563, 4302320.109997283],
            [-4803918.194333305, 4302942.921378299],
            [-4803684.099989493, 4303306.411034875],
            [-4802856.664591632, 4303791.636084524],
            [-4802775.759817162, 4304269.902699513],
            [-4803341.906818022, 4304944.13843473],
            [-4803255.041959274, 4305398.425946619],
            [-4802580.778908303, 4305998.323022792],
            [-4802411.59378078, 4306422.142640885],
            [-4802530.764506217, 4307003.591358677],
            [-4801622.471697982, 4307966.923272342],
            [-4801747.675361019, 4308572.356088945],
            [-4801689.9015952805, 4308942.999563923],
            [-4801461.815391391, 4309330.552116119],
            [-4801015.727600748, 4309542.932455289],
            [-4800221.237098517, 4309154.358640022],
            [-4799628.065094696, 4309275.9244665],
            [-4799246.859719319, 4309548.571283142],
            [-4799012.849512104, 4309912.105876507],
            [-4799030.478711649, 4311995.119292047],
            [-4798855.34793859, 4312394.826718101],
            [-4798391.763620898, 4312637.00987558],
            [-4797944.944426913, 4312544.127721942],
            [-4797259.43129987, 4311186.72752981],
            [-4796342.280045392, 4311006.885083652],
            [-4795983.175710826, 4310765.03800214],
            [-4795460.167706393, 4310767.4460073095],
            [-4794668.179198214, 4311192.907181555],
            [-4794031.162876049, 4312343.467928193],
            [-4794298.976046875, 4313524.2472866895],
            [-4794212.19842227, 4313978.534473169],
            [-4793597.1391719505, 4314614.550076557],
            [-4792986.507348608, 4314765.935050072],
            [-4791981.825504839, 4314735.107711279],
            [-4791600.753572255, 4315007.714710553],
            [-4790963.78885509, 4316158.307224914],
            [-4789792.817720614, 4317466.682702504],
            [-4789948.5620111665, 4318496.969229185],
            [-4789802.920451198, 4318914.8793802215],
            [-4789077.769473116, 4320010.8961008005],
            [-4788648.337224152, 4321797.12653698],
            [-4788355.592660387, 4322124.2224935675],
            [-4787856.667514715, 4322222.409890656],
            [-4786908.3686110135, 4321312.178628662],
            [-4786490.820930904, 4321135.7914688885],
            [-4785933.048791335, 4321197.758645995],
            [-4785699.206404039, 4321561.100989312],
            [-4785677.285756292, 4322075.479941523],
            [-4787007.926295284, 4323221.850917966],
            [-4786985.979646416, 4323736.267967321],
            [-4786752.122920658, 4324099.614126754],
            [-4786371.193661657, 4324372.233536385],
            [-4785925.443364085, 4324584.503709743],
            [-4785485.094820265, 4324617.32187629],
            [-4784652.875315835, 4325179.912316423],
            [-4784419.050354828, 4325543.241521657],
            [-4784367.336771803, 4325937.835842278],
            [-4784749.721873923, 4326173.921999402],
            [-4784927.443304746, 4326689.789833078],
            [-4784758.322642155, 4327113.406681416],
            [-4784436.290464787, 4327422.269581605],
            [-4784034.866451937, 4328717.988750116],
            [-4783037.847219526, 4329117.780520168],
            [-4782511.397262882, 4329808.138854224],
            [-4782424.666392035, 4330262.271099987],
            [-4782461.509431475, 4330813.050726473],
            [-4782756.182209713, 4331198.162656122],
            [-4784025.540902686, 4331596.373973446],
            [-4784407.934148873, 4331832.528128445],
            [-4784944.326521867, 4332590.5172038525],
            [-4784481.193977892, 4332832.4970078645],
            [-4782794.484543765, 4332257.671225481],
            [-4781854.5682654595, 4332083.253179901],
            [-4781620.811765377, 4332446.640692261],
            [-4781741.353568974, 4333536.614555629],
            [-4781660.560993223, 4334014.757548181],
            [-4781191.556142163, 4334232.732680061],
            [-4780508.883584908, 4333689.202782839],
            [-4780097.526991746, 4333536.593294893],
            [-4779481.5124037, 4333663.843786496],
            [-4778045.093830191, 4334299.661025679],
            [-4777277.623370394, 4334820.664948407],
            [-4776729.373736405, 4336025.396860391],
            [-4776260.454853815, 4336243.3740616115],
            [-4775373.967020464, 4336183.169434384],
            [-4775204.961461455, 4336606.70842486],
            [-4775183.085832063, 4337121.1303774575],
            [-4774884.623924008, 4337424.12085735],
            [-4773448.496937489, 4338059.875569085],
            [-4772275.254622084, 4338248.862410203],
            [-4771953.434554907, 4338557.640186315],
            [-4771721.324765752, 4339429.45981901],
            [-4771318.736628451, 4340216.285528755],
            [-4770849.935017562, 4340434.23915865],
            [-4769266.150229476, 4340674.150866793],
            [-4769032.535399479, 4341037.365106236],
            [-4769004.672231688, 4341527.751247191],
            [-4768096.590390861, 4341981.823312206],
            [-4767394.184682414, 4342562.993282428],
            [-4766866.639802389, 4342744.680763741],
            [-4766367.922369618, 4342741.068242073],
            [-4766044.241824084, 4342439.617968722],
            [-4766446.693660106, 4341652.87564167],
            [-4766468.518881707, 4341138.647942924],
            [-4765640.144312604, 4340809.665289612],
            [-4764525.671699789, 4340933.41577909],
            [-4763998.147336536, 4341115.0608402835],
            [-4763295.953109612, 4341696.303393887],
            [-4762746.605366213, 4342392.225219641],
            [-4762417.669003978, 4342270.197844984],
            [-4762239.973004264, 4341754.583654771],
            [-4762261.843745229, 4341240.404110826],
            [-4761739.688728597, 4341242.702236211],
            [-4761353.266550232, 4341491.21723377],
            [-4761119.757644153, 4341854.380584971],
            [-4761121.372315045, 4342362.7237288095],
            [-4761570.179553965, 4343269.107236342],
            [-4761548.312799004, 4343783.292043739],
            [-4760640.42148111, 4344237.395676583],
            [-4760112.371752921, 4344215.677138904],
            [-4759812.203878061, 4343908.586517243],
            [-4759576.077882135, 4343458.323809449],
            [-4759831.37872526, 4342580.938738086],
            [-4759566.144741129, 4342214.292368249],
            [-4759009.009554755, 4342276.216044899],
            [-4757904.70952713, 4343643.961039172],
            [-4757371.399455329, 4343801.719730846],
            [-4756931.229377302, 4343732.897847367],
            [-4756601.623594381, 4343407.628281395],
            [-4756190.542672645, 4343255.23604856],
            [-4755282.804696909, 4343709.398268629],
            [-4754854.683882119, 4345494.479786159],
            [-4754621.178155703, 4345857.62006076],
            [-4754299.632870285, 4346166.322823383],
            [-4752631.330308759, 4347165.277448783],
            [-4752462.715560812, 4347588.677999796],
            [-4752698.094138033, 4347835.479269671],
            [-4754024.708048839, 4348167.707859315],
            [-4754354.267009927, 4348493.0091102],
            [-4754467.1801343225, 4348948.246375064],
            [-4754228.14137439, 4349389.130040177],
            [-4752640.429212694, 4349910.131684543],
            [-4752179.600157725, 4350660.316764315],
            [-4752269.074217672, 4351121.446452525],
            [-4753187.195942294, 4352114.726053236],
            [-4753253.587032315, 4352683.354847792],
            [-4753078.914979381, 4353082.815801296],
            [-4752230.214737402, 4353573.123300954],
            [-4752231.849348415, 4354081.4317356795],
            [-4751976.663051755, 4354958.744594008],
            [-4751743.305184137, 4355321.926193802],
            [-4751363.02438022, 4355594.2404633965],
            [-4751107.851432621, 4356471.54701569],
            [-4750699.921510073, 4357234.063750465],
            [-4749857.183904216, 4357748.225257369],
            [-4748484.20738868, 4359233.329721799],
            [-4748749.221216851, 4359600.147083526],
            [-4748862.499911583, 4360157.158690986],
            [-4748699.434668343, 4360502.81297227],
            [-4748102.0759483995, 4360701.718734305],
            [-4747274.337940779, 4362178.829131545],
            [-4747193.838574075, 4362656.67381891],
            [-4747312.9642038625, 4363237.70460179],
            [-4725722.816879339, 4368415.446620826],
            [-4723848.15484035, 4368774.20277316],
            [-4722933.716058827, 4368432.8858902035],
            [-4724875.3444112865, 4372090.740735969],
            [-4725388.854751969, 4373373.887750064],
            [-4735400.480684306, 4393130.429277771],
            [-4736679.4578248635, 4395950.480824662],
            [-4746618.2381067155, 4415871.486502076],
            [-4747021.671936774, 4416887.5910053905],
            [-4747841.396768245, 4418221.885519021],
            [-4750272.364842447, 4422950.331444168],
            [-4752136.785264255, 4428285.364968329],
            [-4752196.743444295, 4429113.352382773],
            [-4752053.177440647, 4429887.827459163],
            [-4751135.917214818, 4431446.998336617],
            [-4750669.046696765, 4431859.040133799],
            [-4745169.223301708, 4435765.006870428],
            [-4742672.189989595, 4436072.6864372175],
            [-4740126.269916172, 4437446.9752049055],
            [-4739540.068933703, 4437888.4264903795],
            [-4735698.362173834, 4442263.741485237],
            [-4736754.996103084, 4444889.905156299],
            [-4737310.463679128, 4447534.298385676],
            [-4738734.778074438, 4448423.552706704],
            [-4739027.302848032, 4448835.770193659],
            [-4739092.187446704, 4449262.745581392],
            [-4737422.755605271, 4451535.175443638],
            [-4737204.51934727, 4452179.467229153],
            [-4734660.370231324, 4456018.874895768],
            [-4732575.48027406, 4455947.72087253],
            [-4732515.751690074, 4456299.887035589],
            [-4731725.77367689, 4457108.700636617],
            [-4731164.590706024, 4457396.278151137],
            [-4731199.697412151, 4457618.728722212],
            [-4730712.9645911185, 4457951.259593512],
            [-4730618.588923015, 4458333.040750436],
            [-4729738.78328722, 4459374.874147217],
            [-4729718.22578498, 4459886.132403332],
            [-4730298.262395629, 4461449.13221767],
            [-4732945.329412267, 4465978.167663135],
            [-4734454.286947485, 4471191.776076153],
            [-4734189.484266385, 4472587.025536633],
            [-4734312.532098746, 4473167.776567451],
            [-4733043.124811425, 4480105.351112766],
            [-4732626.524405649, 4483436.401799444],
            [-4732396.50726187, 4483872.735433363],
            [-4732365.302172533, 4485104.427193936],
            [-4731860.706828589, 4486979.956660927],
            [-4731925.060127356, 4487238.525636269],
            [-4731555.326972399, 4488384.522324177],
            [-4728566.070108502, 4494018.267594262],
            [-4728645.116953536, 4493998.871296354],
            [-4727762.705063722, 4496052.558228162],
            [-4727050.860833513, 4497093.503107893],
            [-4725504.397771773, 4500302.167505294],
            [-4722411.052048884, 4508764.545683387],
            [-4721947.585435504, 4509617.955078831],
            [-4721901.669991393, 4510113.819708765],
            [-4721391.470990781, 4511463.306915102],
            [-4721415.233815835, 4511730.99468468],
            [-4721161.872298727, 4511984.030522952],
            [-4718715.971165618, 4518471.856051315],
            [-4718272.194673743, 4519234.196674161],
            [-4718225.874622673, 4519815.5793356],
            [-4717435.383005381, 4521739.652107487],
            [-4717304.35910955, 4522404.234846623],
            [-4717120.297877093, 4522598.057354067],
            [-4712258.14303273, 4535456.72945254],
            [-4711234.044117664, 4538576.741793304],
            [-4710878.852540479, 4539190.761974436],
            [-4707637.414608217, 4547094.226871484],
            [-4707143.402590771, 4547573.315220519],
            [-4707207.463342179, 4547747.704666817],
            [-4707023.347802072, 4547940.6282234425],
            [-4706955.489771696, 4548695.521126198],
            [-4706589.82673336, 4549691.388028396],
            [-4702883.55087899, 4558634.123608497],
            [-4702359.009411527, 4559332.839964161],
            [-4694740.677515496, 4572625.722180123],
            [-4694080.4535937095, 4573545.994882372],
            [-4692221.55606761, 4577057.791242013],
            [-4689777.077876585, 4581197.080267347],
            [-4688716.424607131, 4582720.623805121],
            [-4688083.9748073155, 4584098.052157445],
            [-4688072.407660366, 4584395.755573647],
            [-4687291.678366255, 4585682.722850132],
            [-4687119.01595998, 4586356.990855095],
            [-4683591.030166917, 4592076.340374144],
            [-4677151.722557051, 4603964.89517316],
            [-4676397.084659264, 4605032.528115727],
            [-4676042.568449777, 4606015.125064401],
            [-4670108.481926554, 4616729.409686736],
            [-4667538.00655924, 4621832.80297511],
            [-4651363.290311058, 4650858.629900876],
            [-4648951.770188574, 4655238.289164123],
            [-4648890.756767491, 4655572.256581639],
            [-4644580.767342786, 4662904.757911966],
            [-4644529.562364134, 4663278.659190596],
            [-4633776.225701699, 4682730.777072824],
            [-4634930.080344995, 4688784.818258495],
            [-4635164.445888519, 4689359.552712736],
            [-4635246.235081383, 4690566.861875122],
            [-4635791.594296288, 4692500.93017794],
            [-4636248.743348125, 4695476.278979174],
            [-4641609.303853072, 4720845.482389627],
            [-4648898.863380611, 4759361.969928634],
            [-4656755.97676115, 4801645.408227459],
            [-4665564.090038057, 4848804.236141366],
            [-4671533.840940596, 4902087.796664802],
            [-4677219.054734111, 4952579.688651398],
            [-4665940.5087623745, 4994345.616560309],
            [-4692739.227397798, 5013169.252292686],
            [-4699965.337011699, 5018372.933292226],
            [-4701497.418217231, 5018473.098326518],
            [-4703722.180612116, 5019132.272046424],
            [-4706132.547448907, 5020264.595037371],
            [-4709507.139988481, 5022383.236928106],
            [-4710385.170773645, 5023415.5807845425],
            [-4711293.915574325, 5025190.793422167],
            [-4712085.953179535, 5026373.167573043],
            [-4713107.6593844, 5029544.60418933],
            [-4713432.03083899, 5032442.437770308],
            [-4713338.282860097, 5033991.17760723],
            [-4713122.046090635, 5034922.312848963],
            [-4712223.913469502, 5036972.870329542],
            [-4710951.0695557175, 5038776.26039816],
            [-4710319.687277472, 5039392.177887944],
            [-4709210.807498712, 5040044.072621028],
            [-4727703.979783116, 5057451.135550426],
            [-4747841.3615091825, 5076580.272644576],
            [-4755678.342558104, 5079450.865611074],
            [-4766801.342864971, 5123838.9332664255],
            [-4784923.591942338, 5165433.44796817],
            [-4803809.534964505, 5209103.50622686],
            [-4831277.038722948, 5184700.622108599],
            [-4858897.965984616, 5159970.125716586],
            [-4860308.829260642, 5160738.9778603185]
          ]
        ]
      }
    }
  ]
}
