{
  "type": "FeatureCollection",

  "features": [
    {
      "type": "Feature",
      "properties": {
        "NAME": "Gabon"
      },
      "geometry": {
        "type": "Polygon",
        "coordinates": [
          [
            [-4628747.98209326, 3355734.5553662404],
            [-4631782.285446083, 3356416.431131171],
            [-4635492.934496468, 3355045.1392881963],
            [-4637065.690481452, 3353263.110272349],
            [-4638178.445024338, 3352945.7567829783],
            [-4639797.723869972, 3353517.2319547003],
            [-4642920.287504317, 3352626.753438533],
            [-4644033.648288791, 3351674.248275559],
            [-4651933.115951133, 3349121.8869637633],
            [-4656121.281941268, 3348062.1320346487],
            [-4658411.696373215, 3347259.921580659],
            [-4657747.132586695, 3344931.404113791],
            [-4658082.542612663, 3343780.293682246],
            [-4657775.469677092, 3342868.7285686084],
            [-4658161.8551977705, 3341761.317423693],
            [-4656281.006927588, 3333424.514547678],
            [-4656508.047486071, 3332325.2040350656],
            [-4650349.891453481, 3311877.0747692953],
            [-4632051.390233515, 3251527.034190622],
            [-4628073.704753737, 3239466.2775208345],
            [-4628345.181592643, 3239377.928335366],
            [-4627716.2531936215, 3237318.7470058557],
            [-4661041.91781664, 3227405.8920944007],
            [-4661122.317810529, 3227174.5225434606],
            [-4661451.596778643, 3227283.957718742],
            [-4705736.591088108, 3214093.063255364],
            [-4719202.9064273955, 3210078.043595867],
            [-4726859.167413805, 3207952.909996424],
            [-4741119.789363985, 3203501.6282980465],
            [-4741311.206049551, 3203309.06972387],
            [-4739600.422353642, 3197848.635989418],
            [-4740859.008228696, 3197022.194380496],
            [-4741578.510703818, 3196850.083611294],
            [-4742919.565874558, 3195961.0195070016],
            [-4745223.954908553, 3195287.1900310228],
            [-4747074.348021662, 3195436.3734361148],
            [-4747548.709344158, 3195736.5393855874],
            [-4748935.097128847, 3195953.6454848694],
            [-4750790.423317784, 3198393.5131719387],
            [-4751298.77005593, 3198860.5930942968],
            [-4752328.969075948, 3199147.1693798252],
            [-4758349.541143709, 3197387.9692665837],
            [-4759159.502437167, 3198256.3164816676],
            [-4760219.984149318, 3200177.8032560367],
            [-4760629.468804853, 3200554.1544754854],
            [-4761498.333092861, 3201026.4681965257],
            [-4762891.284460819, 3201034.1401771237],
            [-4768017.88504536, 3199537.0584430555],
            [-4770341.890292508, 3198443.7228446957],
            [-4772418.185504751, 3195072.8489438156],
            [-4776740.394268169, 3193671.345204092],
            [-4777410.312509064, 3191889.3406560603],
            [-4777508.825309639, 3190604.04350086],
            [-4775925.663542602, 3185479.631598449],
            [-4774421.759591169, 3184921.3051511724],
            [-4773621.630861397, 3182426.9043038446],
            [-4773129.748145571, 3181663.575978385],
            [-4769079.5683609005, 3178417.7024040553],
            [-4762454.270318087, 3159888.4311977294],
            [-4761165.080491205, 3155173.3791820356],
            [-4761604.092940696, 3154844.4971844093],
            [-4761419.373267356, 3154217.272077194],
            [-4762294.32656293, 3153648.9605285665],
            [-4761023.54785024, 3149336.368572229],
            [-4762020.7251971485, 3149117.732740099],
            [-4762103.886779461, 3148814.8650971656],
            [-4763828.201391605, 3148871.889989037],
            [-4763921.837878718, 3149035.708910872],
            [-4764386.3731097495, 3149031.0006331373],
            [-4764657.080830474, 3150168.1975164767],
            [-4765090.6076487005, 3150090.7929760003],
            [-4766032.724241688, 3152110.6388523034],
            [-4765973.459157083, 3153119.4342336124],
            [-4766358.991445865, 3154721.7912368877],
            [-4767514.392625998, 3156635.616990001],
            [-4770169.29685611, 3157272.7880123085],
            [-4772532.541271434, 3156922.8505816623],
            [-4775132.909586103, 3157039.8484597052],
            [-4775360.654434794, 3158149.251173965],
            [-4773676.799099817, 3159134.781085397],
            [-4771533.234226434, 3159954.838580523],
            [-4773642.1797224935, 3162436.901223115],
            [-4775094.085192704, 3161614.145762094],
            [-4777569.618014081, 3159189.355134387],
            [-4779500.038057705, 3158395.23289535],
            [-4781382.273521343, 3157049.441761182],
            [-4783282.37418726, 3156150.849119657],
            [-4785484.316023622, 3155502.854009534],
            [-4788891.644633546, 3153141.622991658],
            [-4789836.56723902, 3151883.498089414],
            [-4787163.14331071, 3145782.9153984473],
            [-4785990.83988442, 3146803.9253808213],
            [-4785201.092460823, 3147266.69601383],
            [-4783128.04906737, 3147302.802183799],
            [-4781914.360447334, 3146127.546170968],
            [-4780805.518203179, 3145464.7178705116],
            [-4779801.643866637, 3145074.1610091873],
            [-4776081.287813861, 3142365.2861854797],
            [-4775432.599698066, 3141003.7031790265],
            [-4774267.607098247, 3139526.011259762],
            [-4772187.425080655, 3138403.285880433],
            [-4770739.667907325, 3136576.0182634005],
            [-4770581.304801321, 3136204.470799063],
            [-4769708.002349819, 3136007.090830573],
            [-4768571.50564095, 3133666.575392438],
            [-4767326.735009328, 3132195.7216783445],
            [-4766757.1286939485, 3131888.5740287667],
            [-4765316.010469979, 3132176.8853635504],
            [-4764716.756002201, 3133541.9723479026],
            [-4764078.450392796, 3133730.6715516313],
            [-4763722.144760708, 3132916.7703699907],
            [-4762627.134623763, 3133125.626186726],
            [-4762220.223422731, 3133705.515603044],
            [-4762213.441125104, 3134856.455147787],
            [-4761524.4275744185, 3136438.7392221703],
            [-4760335.86620697, 3136330.4280762714],
            [-4760524.221655468, 3135011.0796687026],
            [-4760318.616578009, 3133176.5908566415],
            [-4758923.969100589, 3133455.5619283603],
            [-4755783.219739856, 3131529.850842317],
            [-4753591.131379816, 3131276.949465816],
            [-4751734.681920736, 3130624.4961496633],
            [-4749044.21351533, 3130219.0124619384],
            [-4748111.888857471, 3129970.0345613267],
            [-4747674.002265024, 3130656.8200858207],
            [-4747005.042011192, 3130739.9365060627],
            [-4746136.112032495, 3130537.788680136],
            [-4744922.870054868, 3129173.7365514576],
            [-4740057.6713198135, 3128820.608898001],
            [-4740144.363056361, 3129239.450907994],
            [-4739103.061499167, 3129397.822271994],
            [-4736613.203007388, 3130134.785306685],
            [-4734836.286918553, 3130839.980223588],
            [-4732678.835596007, 3131478.437454946],
            [-4731897.881414645, 3131888.798330536],
            [-4730814.205159567, 3133105.7145851715],
            [-4728823.0700218845, 3133694.75086056],
            [-4727369.147034807, 3133049.521909285],
            [-4727954.879010779, 3131980.0837369785],
            [-4729819.138974247, 3130352.9009256],
            [-4731076.51996489, 3129804.4289162075],
            [-4731145.080465405, 3127964.9304580903],
            [-4733104.482677957, 3124879.6636009435],
            [-4734811.308161961, 3123527.407292682],
            [-4739217.0863344325, 3121583.0603129375],
            [-4742641.882670248, 3121206.5335196625],
            [-4745788.914575997, 3120433.31702459],
            [-4747702.171541818, 3121463.3528067498],
            [-4749780.659163404, 3121965.4629533626],
            [-4752501.655608013, 3118123.5015477636],
            [-4754188.772122133, 3117303.605248302],
            [-4755702.926055348, 3118612.2919308306],
            [-4757182.552533307, 3120890.2220308436],
            [-4758435.466088276, 3121317.933038695],
            [-4761097.780264559, 3120528.952273136],
            [-4762002.571514768, 3119781.280300915],
            [-4762033.320192375, 3118917.8387300526],
            [-4761771.640046821, 3118035.1992155956],
            [-4761606.817348055, 3116818.1728946855],
            [-4761008.529159817, 3114801.19023681],
            [-4761695.137998637, 3113318.629039955],
            [-4763600.953659169, 3113232.662524811],
            [-4765229.684578914, 3115467.3444596226],
            [-4766353.581104491, 3118171.774511535],
            [-4766919.893673588, 3120082.3381724595],
            [-4771759.607416298, 3118488.012937846],
            [-4774058.533502548, 3119725.8083624016],
            [-4774755.489909581, 3122078.270498582],
            [-4777784.897358353, 3130137.835465885],
            [-4778960.109878232, 3131389.655111064],
            [-4779996.624416625, 3131083.1948571],
            [-4782399.206676384, 3129413.7817351935],
            [-4779465.611362264, 3121344.245715254],
            [-4778677.277614375, 3118414.9384653396],
            [-4778152.257748712, 3117856.4137309557],
            [-4776659.075303516, 3116800.990335895],
            [-4774780.718756328, 3112495.1789520597],
            [-4772406.332813727, 3105347.2536870046],
            [-4768744.5969971735, 3092549.850302046],
            [-4768086.592536127, 3089852.675235024],
            [-4768339.7530884575, 3086305.1356448396],
            [-4768988.713214659, 3084086.0199876847],
            [-4767507.898118653, 3078092.0454655048],
            [-4767385.195915959, 3078014.5839973344],
            [-4766219.439262335, 3074329.724727486],
            [-4766438.287108204, 3071941.801300911],
            [-4765463.090244656, 3067608.9835207355],
            [-4766367.333074685, 3065915.2213331233],
            [-4767125.374216752, 3063360.8379082526],
            [-4767679.596963913, 3060518.0651827515],
            [-4768640.578591878, 3058251.3809189126],
            [-4770042.848454029, 3055502.79767037],
            [-4770616.734461261, 3053118.7357750256],
            [-4771080.887495973, 3051931.6307666847],
            [-4772448.572604891, 3050240.2965743877],
            [-4772869.231283242, 3049298.9055993385],
            [-4773357.448884391, 3046241.0812129155],
            [-4773745.840909754, 3045192.7316701366],
            [-4774973.534565812, 3043426.1532254466],
            [-4775210.983484754, 3042655.944033941],
            [-4775104.84859952, 3041523.1362551865],
            [-4774815.714924023, 3040561.836611297],
            [-4774472.140938384, 3040199.2946906434],
            [-4773698.47163707, 3039966.157119668],
            [-4772872.853291508, 3038001.6832345733],
            [-4773082.2944307905, 3037030.1765948883],
            [-4773529.900519457, 3036522.718175281],
            [-4773881.681263569, 3035447.70818455],
            [-4773854.650657095, 3034859.463998569],
            [-4774494.540954975, 3034741.318681874],
            [-4775225.354482828, 3035775.483989724],
            [-4775312.608799975, 3035576.431200466],
            [-4777471.01306202, 3034003.761327817],
            [-4777733.180955658, 3034353.3549082032],
            [-4778258.450089033, 3034278.869376762],
            [-4778557.671780524, 3035456.9352672785],
            [-4780121.913545965, 3037665.944856609],
            [-4782873.738332545, 3039606.634470084],
            [-4784421.182150088, 3039602.6288940473],
            [-4786737.702428405, 3037521.0527294604],
            [-4786898.391328699, 3032395.023041906],
            [-4787005.539631642, 3032316.3281117687],
            [-4786897.849122132, 3032049.6889981944],
            [-4785907.264872629, 3031005.2849247833],
            [-4785013.142123757, 3029782.7175151347],
            [-4784580.2728183335, 3028346.603299687],
            [-4784759.5693049, 3027695.744742624],
            [-4785220.878339765, 3027482.0568868397],
            [-4785675.2074013, 3027494.2831198503],
            [-4786108.559318408, 3028184.2964317314],
            [-4786892.311766233, 3030037.035983858],
            [-4787593.990299494, 3030870.0981304096],
            [-4789164.26607095, 3030942.9882074962],
            [-4790100.5933095645, 3030660.8811541535],
            [-4790080.259205952, 3030515.523750581],
            [-4790577.984627683, 3030209.2175273644],
            [-4790589.508060976, 3028709.561269089],
            [-4790129.223117266, 3028315.3225353598],
            [-4789516.439948548, 3028276.1770186685],
            [-4789137.886915655, 3028017.1987754013],
            [-4788904.0567299, 3027490.749275236],
            [-4791004.359971979, 3026782.8801432834],
            [-4791276.23365128, 3025842.806209751],
            [-4791163.450673509, 3023413.8424843177],
            [-4791597.348662026, 3022663.4669673457],
            [-4791316.042191655, 3021539.267226511],
            [-4791516.009599751, 3019463.663677559],
            [-4792108.2474402655, 3019434.1258480037],
            [-4792638.474567231, 3019945.8279895904],
            [-4793292.198681745, 3020293.547229687],
            [-4794303.321544544, 3020464.812888437],
            [-4795172.034934074, 3021316.4551148107],
            [-4797590.226794862, 3022407.8163511166],
            [-4798959.066970456, 3027445.034220843],
            [-4800958.8683925625, 3029457.806262463],
            [-4801778.598698798, 3030070.942945672],
            [-4801860.104064218, 3030341.490884866],
            [-4802697.806377266, 3031077.540584605],
            [-4804444.608610432, 3031446.986473702],
            [-4804952.228353123, 3031982.293540124],
            [-4807354.782247829, 3032291.1667959224],
            [-4808005.444788234, 3032726.1751855374],
            [-4809025.691567632, 3034197.131094467],
            [-4809402.914622568, 3034036.62549748],
            [-4808542.15606339, 3030991.9401722294],
            [-4805110.916769185, 3029361.6031997437],
            [-4802947.767757241, 3027525.8680927316],
            [-4798966.4617894925, 3021442.0582192866],
            [-4796704.7937028045, 3019282.2142502083],
            [-4794328.390635054, 3017335.184233865],
            [-4792755.03630762, 3015678.8990190383],
            [-4791722.389138549, 3014037.0695769074],
            [-4789263.7401393885, 3011228.0418701884],
            [-4786176.591034131, 3006561.5021305704],
            [-4785533.705052845, 3006092.6654038923],
            [-4785195.370599715, 3005363.347830911],
            [-4777984.7536144, 3002009.6129696164],
            [-4771731.700568033, 2996842.626274063],
            [-4770973.8651702, 2995194.61225719],
            [-4770634.530600607, 2994997.6740901903],
            [-4769823.7909663385, 2992694.383174567],
            [-4768881.194505908, 2990645.8881003847],
            [-4768511.445874636, 2989026.1516247545],
            [-4766273.1212699525, 2984883.8695204994],
            [-4765762.695208451, 2984957.653182513],
            [-4765279.029846954, 2984766.5648468016],
            [-4764735.063916089, 2983374.590146628],
            [-4759232.604216848, 2978575.2019493915],
            [-4751679.285092379, 2973132.0026278337],
            [-4737572.414332965, 2963653.6775591103],
            [-4735097.009352741, 2956334.1935918294],
            [-4733796.701596765, 2954540.3328006295],
            [-4733148.311254358, 2953400.174582927],
            [-4732678.400061638, 2952354.1701168106],
            [-4730970.807364225, 2946779.226030599],
            [-4730113.627515525, 2944959.731099016],
            [-4729239.455319555, 2943792.1414582],
            [-4725117.8547822125, 2941545.5102375294],
            [-4723762.786918373, 2939995.6445788164],
            [-4720262.47534823, 2937903.4989314335],
            [-4718469.400798494, 2935806.2093216972],
            [-4709730.457222641, 2930822.349652696],
            [-4701860.621508413, 2927024.511495638],
            [-4698272.897734145, 2924831.6464198246],
            [-4695529.817595523, 2923343.5279722223],
            [-4692548.10296899, 2922139.8144005677],
            [-4690137.563978003, 2913452.7743791738],
            [-4688567.862276026, 2911559.739666159],
            [-4688052.330504494, 2911100.20807564],
            [-4686874.596351733, 2910433.157135612],
            [-4643013.255793597, 2889086.560238528],
            [-4627904.835795312, 2882824.0194319203],
            [-4613393.737014036, 2878365.2511455193],
            [-4610836.241268199, 2876411.0861249752],
            [-4608762.51553405, 2875972.8739666203],
            [-4601802.546200418, 2873445.9684670395],
            [-4589636.287460019, 2867012.988847435],
            [-4587604.645467546, 2864761.4647988034],
            [-4585937.875041707, 2862516.9269332513],
            [-4582525.463649812, 2861657.687293818],
            [-4579580.778146953, 2861133.6505083987],
            [-4574046.921580679, 2858894.9408044214],
            [-4573186.094894311, 2856521.533774911],
            [-4572786.041125689, 2853713.545196609],
            [-4571490.833378208, 2849563.8790042205],
            [-4569702.094093894, 2848843.2636395716],
            [-4567343.991964821, 2848259.0045623635],
            [-4562670.443976201, 2846837.791644443],
            [-4558870.933149921, 2845504.5057598893],
            [-4558115.080577484, 2845134.3350187545],
            [-4555575.28049686, 2844596.3819381366],
            [-4549910.736879795, 2842051.1757382094],
            [-4547146.817620169, 2841610.879867809],
            [-4546286.68793364, 2840423.234790405],
            [-4536195.92032717, 2835892.1416454655],
            [-4534428.504523243, 2833453.297204652],
            [-4533240.36968569, 2832653.970720497],
            [-4532246.646148004, 2831407.1172787836],
            [-4530758.836366689, 2826893.755669799],
            [-4529953.696393289, 2825986.2371476335],
            [-4527292.122739763, 2824451.4646855635],
            [-4521618.257124988, 2822512.1558264387],
            [-4519752.107083553, 2821545.1705159727],
            [-4516430.400760056, 2820599.2949349484],
            [-4515722.95257726, 2822300.762647608],
            [-4516671.234524412, 2826977.7269531074],
            [-4516510.742350299, 2829772.362572683],
            [-4515319.093832605, 2832032.125818043],
            [-4515217.313241681, 2834464.965662512],
            [-4515771.713092404, 2837892.92456675],
            [-4515226.98585428, 2840533.7910048654],
            [-4516073.998052212, 2843244.4090787214],
            [-4516255.409962585, 2844180.7461324264],
            [-4513089.283313519, 2849692.254707902],
            [-4510598.917199751, 2854880.669291527],
            [-4510715.607039535, 2854977.559961745],
            [-4506450.354710429, 2856173.4940845477],
            [-4505298.909220836, 2856752.7486833087],
            [-4504108.9507082505, 2857564.4206473683],
            [-4503285.100020588, 2858482.4439594382],
            [-4502555.097212181, 2859701.8460380323],
            [-4501935.476066007, 2861989.0024650805],
            [-4501968.593089948, 2863521.7874085433],
            [-4501845.289368861, 2864552.115178068],
            [-4501457.080761775, 2865444.3738660016],
            [-4498453.484436347, 2866488.6148935235],
            [-4495387.821892471, 2867331.550694658],
            [-4493909.449025495, 2867570.7752750046],
            [-4492539.766124851, 2867445.731124986],
            [-4488560.588781941, 2864277.082299572],
            [-4484769.281989951, 2861712.1347619463],
            [-4483523.382065686, 2860558.218786284],
            [-4480254.561223537, 2858602.862465216],
            [-4477757.916988631, 2858059.044165887],
            [-4475954.115075787, 2857960.1483788863],
            [-4472471.960375971, 2858163.6652070903],
            [-4470365.702125448, 2858159.0417035124],
            [-4466930.427687768, 2857798.012871393],
            [-4465757.352737104, 2857943.1235649944],
            [-4464740.405644121, 2858589.6407893635],
            [-4462893.775166225, 2860484.1396128475],
            [-4462019.5669434965, 2863725.5295361793],
            [-4460810.2989258235, 2865688.86521278],
            [-4462141.629322, 2865587.519126387],
            [-4465345.924458745, 2866871.6551890047],
            [-4465666.3797296565, 2867903.052438433],
            [-4466174.460174914, 2867906.3789837467],
            [-4466593.305165502, 2868368.635554836],
            [-4467260.710425911, 2868476.1903094887],
            [-4468124.613211838, 2870187.950802459],
            [-4468055.738025117, 2871749.410897157],
            [-4467863.979762632, 2872307.479171117],
            [-4467917.531243686, 2873519.8525216244],
            [-4466916.382958005, 2876394.877251131],
            [-4466760.578626023, 2880887.81583583],
            [-4467727.085598155, 2884007.2329518725],
            [-4466953.918931681, 2885956.0722374143],
            [-4464706.876754594, 2888702.6888889475],
            [-4463196.461868596, 2891049.881606664],
            [-4463430.008995633, 2893348.9711621823],
            [-4465565.306052547, 2893907.2813533074],
            [-4468268.401458987, 2893578.1061218064],
            [-4472368.6220014375, 2892816.8556557284],
            [-4474477.497777971, 2894415.387950815],
            [-4476411.157728407, 2894826.8821991943],
            [-4481150.965741697, 2896651.3965114974],
            [-4481844.563585085, 2896728.1291974373],
            [-4484522.692295922, 2896299.1491028853],
            [-4487428.983908174, 2897546.918039069],
            [-4490070.685792581, 2897789.1522605177],
            [-4492450.918331761, 2904718.8444288797],
            [-4492379.456088839, 2907642.2553858254],
            [-4491590.727630667, 2909819.671608836],
            [-4487418.383482337, 2912072.9585074843],
            [-4485894.666789194, 2914234.3164234343],
            [-4487839.97282988, 2915810.177318872],
            [-4490606.439491505, 2916891.778596798],
            [-4491562.695545448, 2917603.8570553106],
            [-4493284.477642467, 2918071.089729015],
            [-4495017.30618165, 2918980.638083068],
            [-4500885.312389421, 2923399.1010282086],
            [-4502541.152395674, 2924824.5244013835],
            [-4502990.640208442, 2925060.6296357326],
            [-4505442.118226264, 2924170.5890265647],
            [-4506609.3867970705, 2922179.415495125],
            [-4507380.582305469, 2921125.9916443503],
            [-4508231.244731904, 2918551.7352578533],
            [-4509510.04099408, 2918702.048804444],
            [-4510015.544505138, 2919877.4583858177],
            [-4511155.380527751, 2918786.500374813],
            [-4513990.1800301345, 2924515.5800052723],
            [-4512346.670164849, 2929240.3114001597],
            [-4513531.225171693, 2933095.6392461113],
            [-4514398.227866948, 2935082.5057925573],
            [-4514283.239187708, 2935032.8806771585],
            [-4513825.888020973, 2935466.5786261866],
            [-4513712.959494299, 2936381.0674824696],
            [-4513255.58862369, 2936814.7215482136],
            [-4513005.511320868, 2937282.487412882],
            [-4512998.703971156, 2939826.0944076157],
            [-4513883.289840208, 2942389.5467777313],
            [-4514509.277225632, 2943468.395728398],
            [-4515729.77930176, 2944560.5995448567],
            [-4516930.725614758, 2945267.891026634],
            [-4519051.08842288, 2946084.6320659253],
            [-4520498.667001509, 2947596.6226337664],
            [-4522715.568765855, 2954838.0437164693],
            [-4524032.849327086, 2957857.5007121745],
            [-4524748.390696806, 2958909.922141568],
            [-4526012.137061211, 2959501.4749584766],
            [-4527103.894094587, 2959852.303848944],
            [-4527756.741727731, 2961021.9284872757],
            [-4527558.863470757, 2962014.052487684],
            [-4526878.360985341, 2961922.7865805915],
            [-4522698.191847662, 2963276.6334649487],
            [-4523159.695677103, 2963759.4949923786],
            [-4523368.37849379, 2965353.725941063],
            [-4521209.684605058, 2967394.2828707118],
            [-4518090.997571318, 2967655.4980283887],
            [-4514217.190801054, 2966351.980063302],
            [-4512228.444286825, 2965302.0629540375],
            [-4510289.864288031, 2963960.9386007083],
            [-4507395.799008489, 2962221.696368648],
            [-4505450.51850487, 2962677.8536943733],
            [-4502766.711056714, 2967085.907116434],
            [-4494360.13653767, 2972783.7440978666],
            [-4491113.213305582, 2974726.7010415564],
            [-4487534.487217049, 2975578.808937464],
            [-4484409.650272544, 2973195.4421963873],
            [-4482760.778762365, 2972506.8624123954],
            [-4480626.845303197, 2971013.5035358956],
            [-4476524.924744255, 2972502.088164832],
            [-4473280.842051475, 2974443.129277357],
            [-4468874.17173803, 2976499.6061319807],
            [-4461995.110949605, 2981449.3513871175],
            [-4458094.646199843, 2983587.3932183273],
            [-4456693.495965673, 2986525.64814004],
            [-4454055.827950923, 2987327.2444956354],
            [-4451507.917222865, 2989055.2240882553],
            [-4450156.553484992, 2990886.8351281965],
            [-4450549.393516844, 2991893.4590301984],
            [-4450173.208198766, 2993519.766767022],
            [-4449746.407364456, 2994621.3333875802],
            [-4449709.576136787, 2997008.5234868294],
            [-4449491.29897034, 2997722.718136617],
            [-4449751.644463415, 2998939.731788142],
            [-4450380.2295427285, 2999937.1255686823],
            [-4450850.317246424, 3001846.621628804],
            [-4451558.070279342, 3002388.1387059228],
            [-4452694.171313451, 3002907.9052722855],
            [-4453033.564395242, 3003669.1393914614],
            [-4452088.78173119, 3005575.4284407226],
            [-4451890.413246961, 3006715.510882297],
            [-4452359.203428637, 3007545.5668258816],
            [-4454073.382690875, 3008538.6727508227],
            [-4455145.926543139, 3009618.331910237],
            [-4457382.868564688, 3011209.5864027785],
            [-4457891.372888888, 3011811.8982544774],
            [-4458148.79609409, 3012467.495651945],
            [-4459151.190379956, 3013636.9470988163],
            [-4464041.2837167485, 3027289.179569183],
            [-4463702.487483518, 3027398.9522079937],
            [-4463024.711531479, 3026952.2301258403],
            [-4462168.833599583, 3027047.732838811],
            [-4460972.943257076, 3026328.3529541544],
            [-4460624.193760744, 3025893.487496015],
            [-4458834.013041566, 3024884.8591045956],
            [-4458636.616725914, 3024665.3368649874],
            [-4457925.338758717, 3024503.9802571633],
            [-4456832.398097696, 3024645.8846719],
            [-4455808.81405157, 3025330.895016996],
            [-4455621.227173959, 3026302.9395285803],
            [-4455756.40833139, 3027038.8191775423],
            [-4456883.531864415, 3028578.901403554],
            [-4457056.701100307, 3029466.752867987],
            [-4456405.90245047, 3030133.0648354236],
            [-4454748.948586614, 3030914.7269519633],
            [-4454098.167502795, 3031580.915936868],
            [-4453047.976495052, 3033119.3537066993],
            [-4452500.427927316, 3035070.0469453908],
            [-4452352.90852194, 3035208.4748469777],
            [-4451424.75203482, 3035582.0884435433],
            [-4450418.767408354, 3035697.2086604503],
            [-4449742.659562488, 3035337.080854518],
            [-4448823.483743702, 3035426.0702113877],
            [-4447608.673433168, 3036731.609561549],
            [-4446421.251990247, 3036243.6776287546],
            [-4445615.55521205, 3035452.92853741],
            [-4445000.637183375, 3035307.2942607375],
            [-4444409.176483928, 3035485.473102311],
            [-4443079.636245716, 3035371.388380816],
            [-4442694.1663612425, 3035487.5085115484],
            [-4441749.360627216, 3035490.320588713],
            [-4441212.12170135, 3035276.4402917037],
            [-4440420.663261001, 3034597.8699231753],
            [-4439184.919350178, 3034434.4567832337],
            [-4437270.353568558, 3034761.306974129],
            [-4431372.536950891, 3033773.308694333],
            [-4430686.169672948, 3033890.489705794],
            [-4430475.278151699, 3032577.1875498346],
            [-4430115.337679281, 3032097.3946965653],
            [-4428672.669445052, 3032343.8019885346],
            [-4426375.5517679285, 3028564.022365842],
            [-4424961.209377296, 3027712.83142432],
            [-4424183.659079496, 3026414.1821204433],
            [-4422251.559446076, 3022142.358978733],
            [-4421626.213309523, 3021587.116166739],
            [-4420666.707850413, 3021590.535647786],
            [-4419895.846557884, 3021359.0482299416],
            [-4420009.03991581, 3020151.3583751],
            [-4418386.0932961535, 3018710.656147761],
            [-4416594.78857656, 3016186.2293934464],
            [-4414831.288466688, 3013244.601631642],
            [-4413482.652964486, 3013023.4523412655],
            [-4412990.978408801, 3013582.165794767],
            [-4412199.09700742, 3014053.5362784094],
            [-4410807.699602549, 3013314.014169941],
            [-4410073.424003747, 3012541.283720447],
            [-4409565.909660376, 3012469.507789737],
            [-4407667.484313504, 3011460.671110259],
            [-4405760.0607895665, 3009568.1267999355],
            [-4404161.75555629, 3008712.298124498],
            [-4403572.681955697, 3007150.9630160974],
            [-4403665.571050199, 3007025.3427872634],
            [-4402374.704295228, 3004703.0778666344],
            [-4402395.657409264, 3004001.114942858],
            [-4402105.579423275, 3004231.94141591],
            [-4400715.342656282, 3004652.744369669],
            [-4400216.262601182, 3004546.1858308185],
            [-4399344.272632598, 3005011.2979616206],
            [-4396828.21322948, 3004103.1425195495],
            [-4394149.144099807, 3004553.1859487956],
            [-4393250.6299916925, 3003897.8098047604],
            [-4392587.590883791, 3003634.852233133],
            [-4389840.602704549, 3004582.1069092033],
            [-4389242.532541229, 3005690.1804488427],
            [-4388729.714694143, 3006308.8613097533],
            [-4386453.195431377, 3006881.606578838],
            [-4384497.013885202, 3006198.8089178526],
            [-4383759.541592882, 3006074.319141048],
            [-4381024.085268403, 3006670.0165202823],
            [-4379230.0719674425, 3006197.9226649473],
            [-4378006.128021464, 3006345.722254593],
            [-4375524.39664717, 3007022.1186437868],
            [-4374669.7500878405, 3006909.98631861],
            [-4372454.260968474, 3005504.9520159345],
            [-4371736.4396905545, 3005351.5399954286],
            [-4370806.858595696, 3005484.4882550226],
            [-4369727.123286514, 3006107.4104592674],
            [-4369009.64989488, 3006694.8280279594],
            [-4365818.307125134, 3007733.745225142],
            [-4364977.805259486, 3007913.7366872057],
            [-4363608.714569112, 3007523.4514772734],
            [-4362417.78635278, 3007985.0931329494],
            [-4361834.7846631855, 3008863.681357465],
            [-4361308.89843025, 3010577.8861145265],
            [-4360680.385734323, 3011952.6867017997],
            [-4359184.827731456, 3013623.3326797993],
            [-4358838.105589071, 3014883.8943173913],
            [-4357984.637628227, 3015685.573774734],
            [-4357543.918251335, 3017120.4029232017],
            [-4356669.126429528, 3018420.90224726],
            [-4355402.212267557, 3019037.9450811693],
            [-4355171.360875566, 3019410.6635396373],
            [-4354659.959985923, 3022984.761377663],
            [-4353396.589652268, 3024943.8065182003],
            [-4352375.850448343, 3026829.5080050975],
            [-4350626.675820557, 3028934.3241605177],
            [-4348992.316289679, 3032959.8694436876],
            [-4348837.534016024, 3033733.572369341],
            [-4349776.377566459, 3036855.2877564994],
            [-4349542.955290058, 3037813.4830558663],
            [-4349002.521022001, 3038493.9342499073],
            [-4348659.910060936, 3039336.8840102674],
            [-4348806.014180047, 3041291.9384542974],
            [-4348015.317752974, 3041111.9759574747],
            [-4347480.247755982, 3042239.7848078953],
            [-4344425.969994062, 3040002.43386624],
            [-4344043.72890047, 3039462.0803971593],
            [-4341490.100559841, 3037959.2120821094],
            [-4338984.539322999, 3035038.3427031916],
            [-4337929.059135056, 3033004.5018869042],
            [-4336302.776172253, 3032024.2359200804],
            [-4336130.368123702, 3031607.838928308],
            [-4334496.141874064, 3030414.022796495],
            [-4333596.707535901, 3030116.732475765],
            [-4332780.403622601, 3027721.02897531],
            [-4332363.114638334, 3027498.6403490626],
            [-4331344.831986333, 3027345.3449804606],
            [-4331077.534407767, 3026813.533252581],
            [-4330276.4940696005, 3026386.665297267],
            [-4329058.615521228, 3026277.2300974736],
            [-4327658.767562006, 3025598.475334179],
            [-4327671.583785477, 3024518.3425384997],
            [-4328257.585230569, 3023551.8682466056],
            [-4325656.109133452, 3021713.8830777514],
            [-4326199.28194049, 3020081.432746321],
            [-4328071.096456293, 3017460.745177633],
            [-4328333.915732008, 3014899.5918606697],
            [-4324143.491590695, 3014561.301420716],
            [-4323777.857364039, 3014755.88487344],
            [-4321724.724546339, 3016740.804304174],
            [-4320995.408747, 3017253.326155027],
            [-4320201.014831331, 3017210.531105108],
            [-4319841.381160192, 3017415.551591933],
            [-4317634.758442127, 3015605.925571204],
            [-4315559.759485323, 3017136.3297649603],
            [-4314758.400344447, 3018060.486313041],
            [-4313762.746629585, 3018201.8830378884],
            [-4312831.672134257, 3018856.008043268],
            [-4311095.403873176, 3018707.138722025],
            [-4309638.78077124, 3017802.084972709],
            [-4309611.367623706, 3019221.4317414584],
            [-4309763.721374765, 3020052.9403125197],
            [-4308744.391796933, 3021136.8243776206],
            [-4308364.226655842, 3022553.614271964],
            [-4308699.798495181, 3028163.764597597],
            [-4307473.406211126, 3029708.3955040285],
            [-4304587.591914713, 3031919.6218913565],
            [-4301905.656715135, 3033481.2136939946],
            [-4301802.753670257, 3034065.1103901123],
            [-4302087.978832382, 3034274.1688167327],
            [-4304844.393644828, 3035346.0045101037],
            [-4307713.076776428, 3036211.689967838],
            [-4307869.489863099, 3038125.8776898817],
            [-4308532.876964898, 3039050.609381862],
            [-4310700.081775131, 3039320.8275475805],
            [-4311370.660791304, 3040269.2379256585],
            [-4312321.48996549, 3040633.816623875],
            [-4312580.442474416, 3041823.4296389716],
            [-4311506.737644888, 3042621.0032796026],
            [-4310427.325020924, 3044609.822938737],
            [-4309027.893719344, 3046709.1680631055],
            [-4308479.799423835, 3049392.742126006],
            [-4307310.797363326, 3052262.142934258],
            [-4309937.946184123, 3060707.1976795644],
            [-4310325.643710698, 3060824.6710994733],
            [-4310419.999101629, 3062257.972484993],
            [-4311801.688746402, 3066704.9616351966],
            [-4309422.51066964, 3068927.4001158215],
            [-4306876.201842936, 3070023.889384682],
            [-4302991.307237068, 3072862.8572927434],
            [-4299853.600495874, 3074806.504359401],
            [-4298305.879365734, 3076028.0484138248],
            [-4298607.3361426005, 3077088.7835304774],
            [-4299281.000239047, 3077374.8501711525],
            [-4299827.940111396, 3077893.54268554],
            [-4300264.776455484, 3079029.531691604],
            [-4300054.552998984, 3079968.8560000393],
            [-4299651.6552852215, 3080964.7066296926],
            [-4300858.264325724, 3084409.860812691],
            [-4301362.239593497, 3085211.6809327747],
            [-4301482.996199086, 3085712.5495963222],
            [-4302196.410540208, 3087200.3826082293],
            [-4302528.682072895, 3089451.373581303],
            [-4301391.742647325, 3092233.3546198886],
            [-4303385.611081313, 3092963.621060856],
            [-4304882.212619685, 3094325.3494694037],
            [-4304728.327101623, 3095184.5734072374],
            [-4305636.594901232, 3096074.1918959296],
            [-4306696.83210625, 3096366.539926086],
            [-4308732.733493373, 3096670.4992852085],
            [-4309346.70615295, 3098166.8705205917],
            [-4308326.212315812, 3100988.5485525266],
            [-4306819.093493774, 3101604.2686274126],
            [-4307040.588241717, 3104056.527491962],
            [-4305607.17644392, 3105489.3933773097],
            [-4303524.7150172, 3106443.3794868626],
            [-4303932.146224029, 3106692.2719221013],
            [-4304419.219295814, 3107475.203132034],
            [-4304680.071186182, 3108354.059402857],
            [-4305847.916162015, 3110285.7356667225],
            [-4306681.302484401, 3114234.897079204],
            [-4305987.554795109, 3116454.775457049],
            [-4305886.730012599, 3117516.300829523],
            [-4306981.043562962, 3117550.9293094305],
            [-4307947.239622388, 3118743.142338156],
            [-4308046.652256683, 3119668.641278398],
            [-4309786.333436644, 3120134.928556118],
            [-4310383.307232159, 3120717.094945288],
            [-4309893.796347844, 3121711.7891593743],
            [-4311993.308337009, 3123399.8081861413],
            [-4312002.601016968, 3124594.828668879],
            [-4310819.1936190855, 3126998.3415640043],
            [-4309673.081316376, 3128364.013789732],
            [-4310650.6990259625, 3132251.798458656],
            [-4311118.699472033, 3132416.3620179296],
            [-4312003.869620207, 3133633.3150115586],
            [-4312343.15005592, 3134657.573533214],
            [-4313575.1238022, 3135135.1808112264],
            [-4314039.573408831, 3135893.340956174],
            [-4314222.563906996, 3136512.5918989736],
            [-4314728.49973952, 3137306.50146447],
            [-4315591.707733303, 3140812.1682573603],
            [-4316188.441020845, 3140929.772276894],
            [-4316646.19987556, 3141466.2498959913],
            [-4317565.468513131, 3142146.371433848],
            [-4317986.572851926, 3143572.849191226],
            [-4318908.219879174, 3144555.5634648786],
            [-4319059.646618841, 3144771.876217786],
            [-4319000.891543468, 3145013.7062147516],
            [-4320426.037568757, 3145346.339317396],
            [-4321166.937842824, 3146791.847280409],
            [-4321533.720168371, 3146934.487031808],
            [-4322640.336186871, 3149517.746175166],
            [-4322899.715766362, 3150981.7032616837],
            [-4322254.214459755, 3152883.562720431],
            [-4322656.868657863, 3155412.118636423],
            [-4322593.777044736, 3155759.1887551323],
            [-4324063.7103546485, 3159025.5366276526],
            [-4324295.596044033, 3159813.0518344953],
            [-4323034.528749237, 3161382.3751701787],
            [-4322473.503229079, 3162403.2228577253],
            [-4322166.769853826, 3164669.116736322],
            [-4322623.498586117, 3164766.6603757185],
            [-4323532.761299182, 3165883.558436374],
            [-4323195.216904556, 3168290.110149814],
            [-4323199.3964031255, 3169001.6486476646],
            [-4323911.31176845, 3171393.1359233363],
            [-4324539.619795742, 3174117.9237834443],
            [-4322887.46834995, 3179052.4897798197],
            [-4322741.696137136, 3181490.948574174],
            [-4323994.984864, 3184798.737895049],
            [-4326660.895666404, 3186422.7859308305],
            [-4327582.905210631, 3187190.761765205],
            [-4329578.621118116, 3188451.6932450924],
            [-4330376.130925657, 3188794.829477767],
            [-4332198.7244271245, 3189068.3237703294],
            [-4332531.435435799, 3189807.181184538],
            [-4335904.52027241, 3189648.893578866],
            [-4338685.4272283325, 3190143.076763437],
            [-4343570.736086261, 3188820.2293465007],
            [-4346492.133030345, 3188291.1600354346],
            [-4352420.443312376, 3186771.0369577766],
            [-4353482.717290819, 3187769.655274767],
            [-4354119.450199169, 3189289.9825601354],
            [-4354354.846153119, 3188922.809054662],
            [-4355599.221860798, 3189597.5262595504],
            [-4357464.099401587, 3194016.812859975],
            [-4357869.905832115, 3195589.6573651806],
            [-4358696.5434925705, 3195705.451671014],
            [-4360182.92223888, 3198742.2359321825],
            [-4360519.425665338, 3199029.458092337],
            [-4361868.913697364, 3199508.0690388517],
            [-4364695.266269113, 3199772.8819256127],
            [-4371498.541293203, 3198217.9953563004],
            [-4373136.08669942, 3198175.521490559],
            [-4374731.3704072805, 3198363.991321693],
            [-4376584.707680749, 3197930.53020604],
            [-4377725.134395829, 3196940.7977995267],
            [-4378701.488697343, 3195015.367860544],
            [-4380077.853330259, 3194830.680330027],
            [-4381762.123808999, 3195320.9445432895],
            [-4382766.526768634, 3196119.8073747368],
            [-4385128.367112037, 3197206.0393019808],
            [-4385868.354557221, 3198405.2093235473],
            [-4386089.265888708, 3199159.563947627],
            [-4387807.144723395, 3199651.3778299694],
            [-4389523.30468566, 3200990.3059781147],
            [-4390374.348154201, 3203898.00006634],
            [-4389736.106505033, 3209540.5577390804],
            [-4389912.786329123, 3210240.101378709],
            [-4389582.866096696, 3210573.7908431916],
            [-4388982.179578116, 3212239.678634553],
            [-4389236.812286757, 3211981.6917366595],
            [-4390055.94638796, 3212070.582862208],
            [-4387084.016824507, 3216237.4863621457],
            [-4387187.976160744, 3217859.702040132],
            [-4387324.292205121, 3218119.7957157553],
            [-4387233.339506856, 3218568.122816013],
            [-4387366.309763962, 3220646.6152149327],
            [-4387598.420233023, 3221753.9102373994],
            [-4389774.104130118, 3222867.2145957453],
            [-4391065.260535102, 3224252.7306931396],
            [-4391396.805068075, 3225389.5654702988],
            [-4391005.474258976, 3227089.603157162],
            [-4391668.239185977, 3229363.397976958],
            [-4392748.286987582, 3230634.6182817123],
            [-4395304.346578172, 3232709.606024606],
            [-4396035.658488467, 3234611.453687515],
            [-4396345.122427319, 3236283.7193941046],
            [-4396326.788913462, 3236736.2194563956],
            [-4396732.732921961, 3238130.912161092],
            [-4396604.2309568785, 3239416.2095188685],
            [-4394459.393222874, 3244815.8666376616],
            [-4394534.762692962, 3248969.240023883],
            [-4394163.652433583, 3250134.2277465397],
            [-4393046.93462147, 3252396.611049789],
            [-4391634.892389566, 3253620.595654994],
            [-4389646.648062351, 3257671.889253144],
            [-4387683.656029272, 3259020.832172674],
            [-4386412.4005032275, 3261312.309139164],
            [-4386521.386702045, 3261688.208573064],
            [-4387715.978915033, 3262750.846184406],
            [-4388466.955450969, 3264118.294331913],
            [-4388163.632398645, 3265426.1669894354],
            [-4388835.806782191, 3265702.0254455446],
            [-4390804.608355405, 3267080.342728172],
            [-4391067.498466316, 3269342.724426718],
            [-4386931.798727331, 3271319.591323936],
            [-4384551.9466266725, 3271229.2196316975],
            [-4375970.991722395, 3274102.2332633566],
            [-4373180.562200509, 3275298.993185319],
            [-4370859.855844538, 3279474.7618766744],
            [-4369674.182394721, 3282153.6393265775],
            [-4369781.160436998, 3285237.4894653745],
            [-4370353.300034116, 3288576.3201681776],
            [-4369065.116386064, 3293619.8337499215],
            [-4367154.319698012, 3296506.5286607374],
            [-4364416.186342519, 3299241.9466523957],
            [-4363386.096220803, 3303930.768122208],
            [-4364086.748943688, 3304256.446989269],
            [-4364266.333581081, 3304880.0934745194],
            [-4363781.161295916, 3306559.139163265],
            [-4364220.789770486, 3308086.4888149854],
            [-4366542.448579897, 3308697.246604065],
            [-4370759.315019635, 3311124.469039336],
            [-4371745.835064707, 3314044.667243968],
            [-4372514.743313911, 3315183.204607427],
            [-4374743.6161452895, 3317816.2278802064],
            [-4378981.400605263, 3317790.7240587347],
            [-4381419.396573184, 3319129.6029378185],
            [-4382804.710037704, 3322997.754111996],
            [-4384791.477628373, 3323747.037259466],
            [-4386440.396476136, 3329491.9401243892],
            [-4386786.930762996, 3329596.831481593],
            [-4388459.011213185, 3334636.472116642],
            [-4389420.398099126, 3336373.667360836],
            [-4389654.311614256, 3336581.0417079455],
            [-4392886.015883425, 3338132.119410008],
            [-4397009.889160025, 3338699.385292658],
            [-4400755.304650431, 3337586.070891308],
            [-4407894.62103497, 3335869.564448814],
            [-4409233.720601984, 3336794.897643706],
            [-4409582.229764833, 3336695.016951036],
            [-4410885.1791230375, 3336885.2704597088],
            [-4412172.469396048, 3337675.4843773004],
            [-4419327.815560918, 3335999.375044578],
            [-4420385.569951426, 3337098.1651545228],
            [-4421372.524179817, 3337037.045014682],
            [-4423081.276169472, 3336660.121633219],
            [-4423493.064613158, 3336815.6692454345],
            [-4431761.725894496, 3334194.257851359],
            [-4430187.206253611, 3329476.6182999196],
            [-4432326.086476483, 3326860.719184479],
            [-4441843.770492873, 3324128.27447473],
            [-4442911.650564299, 3322396.3631758424],
            [-4445080.772386817, 3321773.3014966026],
            [-4447285.004804633, 3319455.331660525],
            [-4446769.282426562, 3314937.9556005],
            [-4450866.970089686, 3313759.5121227214],
            [-4453312.1172226705, 3313185.859507807],
            [-4455267.036746955, 3313480.893559711],
            [-4456280.176435653, 3313306.8305786997],
            [-4457303.204034244, 3313593.7309842617],
            [-4463715.302681848, 3311230.4481136687],
            [-4464972.653764782, 3308793.319585347],
            [-4466884.430558422, 3305907.9883096647],
            [-4469175.281589433, 3303431.900267277],
            [-4473552.080264278, 3302300.721586725],
            [-4479756.500047951, 3300253.2601658492],
            [-4480232.050784898, 3301903.5081596365],
            [-4480758.644633502, 3301746.8483148054],
            [-4482396.717880672, 3302523.6088265325],
            [-4482035.362886992, 3303866.2356765587],
            [-4482640.4422115665, 3303603.553757236],
            [-4484009.687535555, 3308358.865353506],
            [-4481825.001253899, 3309273.712512558],
            [-4479659.534313006, 3310754.9667361025],
            [-4478272.954001813, 3312440.93091876],
            [-4477741.092397486, 3313594.89642236],
            [-4478538.42140801, 3317369.504112362],
            [-4479011.495399139, 3319015.622344148],
            [-4481733.990883082, 3320974.8448640923],
            [-4482864.124984183, 3322747.5122872936],
            [-4484584.759301426, 3323396.4362806366],
            [-4488276.0399459135, 3326654.83598676],
            [-4489382.238541452, 3326270.2252084753],
            [-4492677.483882832, 3329539.3728638194],
            [-4493132.552207036, 3331126.007003403],
            [-4492939.299894878, 3332626.6260724855],
            [-4493516.147655427, 3334939.316451354],
            [-4495735.624148332, 3341307.264355419],
            [-4495309.308550634, 3342205.0582364295],
            [-4496244.38719339, 3345472.314715629],
            [-4496279.317221523, 3347607.951504787],
            [-4496029.708906725, 3349252.750363136],
            [-4495130.825636846, 3352656.363250311],
            [-4495429.7347883135, 3356142.4166135895],
            [-4495774.829620793, 3356280.0766297225],
            [-4497682.961781329, 3356359.343328996],
            [-4499092.527471753, 3356893.2486300864],
            [-4498218.729625753, 3358235.363698379],
            [-4497631.051846762, 3358770.998878321],
            [-4498841.612416836, 3360607.1374248303],
            [-4499085.932072106, 3361967.690870151],
            [-4498435.874483279, 3363726.441286229],
            [-4497863.38091438, 3364747.8669802034],
            [-4496714.69910844, 3365691.6924697477],
            [-4496812.791553495, 3365971.679631788],
            [-4495933.147747932, 3367199.871356326],
            [-4496691.928519093, 3371000.392808036],
            [-4493478.099959136, 3375755.786097007],
            [-4492686.886903113, 3376679.159785671],
            [-4492513.246250366, 3378007.787034798],
            [-4492695.618927233, 3378534.709790786],
            [-4494079.197245368, 3380636.960511166],
            [-4493535.968412184, 3382039.5309693385],
            [-4493842.266328088, 3383668.362767309],
            [-4495020.246266211, 3385049.327338704],
            [-4494934.842701949, 3385853.606336661],
            [-4494268.213623471, 3386823.1081650318],
            [-4495010.1079961965, 3388328.1358481846],
            [-4496128.0871550925, 3388946.374745281],
            [-4496798.960315338, 3389125.2583733853],
            [-4498036.74301189, 3389061.398559645],
            [-4501167.466133888, 3388171.6653327276],
            [-4503060.3424160285, 3389004.6373080444],
            [-4503782.843130583, 3388799.324157732],
            [-4503945.524104679, 3388947.649393974],
            [-4508446.944936575, 3387788.8319313135],
            [-4510413.19153884, 3385732.797356049],
            [-4511502.3612976065, 3385077.62417448],
            [-4511752.128485159, 3383509.2809420386],
            [-4513944.479898865, 3382655.40874908],
            [-4516610.483404321, 3382242.745829998],
            [-4519428.36752193, 3382362.989084759],
            [-4522570.959981136, 3381584.3993313853],
            [-4531291.326481815, 3378873.1421700562],
            [-4532171.996592551, 3378071.9417653163],
            [-4533428.0666922685, 3378265.171653625],
            [-4535177.971676966, 3377767.237183146],
            [-4537927.8576293215, 3375600.927714142],
            [-4541149.78872709, 3374683.7765440373],
            [-4547546.048980929, 3373901.0312482803],
            [-4549265.677986818, 3374095.5480579752],
            [-4552736.693316746, 3373469.39284313],
            [-4554848.138308374, 3373983.707612803],
            [-4558461.833804514, 3373560.4922923595],
            [-4560621.6355778985, 3371850.1992589342],
            [-4564077.166208057, 3370709.8092906806],
            [-4568968.447761099, 3369629.874664937],
            [-4572007.068760228, 3369234.049036014],
            [-4579020.691412383, 3368958.714350612],
            [-4581667.296282436, 3367735.236143571],
            [-4584275.682498868, 3365269.573953817],
            [-4585588.182321995, 3364895.613978739],
            [-4588048.893258211, 3366137.8253821353],
            [-4615383.245046079, 3358348.385530887],
            [-4618337.342518781, 3357020.0969634685],
            [-4620648.07108938, 3356849.509258545],
            [-4621775.560881657, 3355532.731260249],
            [-4625998.378781927, 3354527.527470488],
            [-4628747.98209326, 3355734.5553662404]
          ]
        ]
      }
    }
  ]
}
