{
  "type": "FeatureCollection",
  "features": [
    {
      "type": "Feature",
      "properties": {
        "NAME": "Togo"
      },
      "geometry": {
        "type": "Polygon",
        "coordinates": [
          [
            [-5860062.579297314, 3855493.98727383],
            [-5861240.703921702, 3855459.73642102],
            [-5860954.395452295, 3855209.8093061266],
            [-5860820.448158138, 3854630.4419493307],
            [-5860977.367607057, 3854269.4764689016],
            [-5861319.520135386, 3853960.322533019],
            [-5861475.38797878, 3853410.0279789004],
            [-5861165.30984043, 3852741.002830071],
            [-5861140.189265517, 3852263.783843453],
            [-5860941.738816835, 3852215.836948298],
            [-5860603.123309026, 3852506.5726630692],
            [-5860269.050579621, 3852429.0135280704],
            [-5859657.2836014945, 3852625.4799647974],
            [-5859055.010138593, 3852435.400586672],
            [-5858874.37824747, 3852168.894625329],
            [-5858566.43398127, 3852263.532731908],
            [-5858018.261893045, 3852054.253141231],
            [-5857257.695799931, 3852007.605198174],
            [-5857235.425547429, 3851677.5104561183],
            [-5856425.428959249, 3851472.4593286403],
            [-5855691.336817786, 3851755.8232163913],
            [-5855144.142714983, 3851579.9630515696],
            [-5854638.82327291, 3851735.2221681937],
            [-5854423.407811468, 3851960.871785249],
            [-5853979.290190831, 3851893.2250940027],
            [-5853688.9362029, 3852144.713438385],
            [-5852812.3980965745, 3852294.6327561173],
            [-5852760.13516151, 3852723.818201728],
            [-5852296.534920929, 3853517.689506737],
            [-5852352.519369772, 3853775.8308240566],
            [-5851534.392747062, 3854713.1706914613],
            [-5850897.900358043, 3855173.297083853],
            [-5850383.29998137, 3855321.706982419],
            [-5850252.968627004, 3855613.710628748],
            [-5849800.565433101, 3855586.1053831927],
            [-5849721.209827539, 3855388.001882549],
            [-5849266.775968105, 3855471.3017090834],
            [-5848790.133657634, 3855315.869044734],
            [-5848648.032803292, 3855047.6523474995],
            [-5848692.115175726, 3854676.535002655],
            [-5847925.851470744, 3854224.3076668875],
            [-5847585.493124598, 3853322.95084912],
            [-5847280.122737894, 3853168.653378473],
            [-5847082.362378899, 3852845.4356915],
            [-5845282.649548943, 3851811.2874067975],
            [-5843629.944675476, 3846594.0033757896],
            [-5842871.135653386, 3845692.880524225],
            [-5842804.401217962, 3845077.8206429016],
            [-5842942.232608626, 3844721.862716449],
            [-5842663.196979098, 3844335.861240559],
            [-5843213.063520241, 3844214.6979112136],
            [-5843214.395058943, 3844063.852670338],
            [-5843523.492832687, 3844081.7197060757],
            [-5843868.678363197, 3843749.231748433],
            [-5844092.885496732, 3843295.1071680496],
            [-5844324.112971867, 3843310.8448293167],
            [-5844217.694405813, 3843199.1420443673],
            [-5844452.051250273, 3842995.8021933627],
            [-5844508.402003863, 3842724.3137514507],
            [-5844924.150009938, 3842773.0866322406],
            [-5845876.401339908, 3842181.223012594],
            [-5845872.227151363, 3841904.2903485247],
            [-5845675.229700679, 3841827.554089811],
            [-5845640.062392516, 3841379.143049622],
            [-5845808.851046638, 3841198.797133127],
            [-5845643.223955168, 3841006.423172577],
            [-5845589.570057331, 3840566.917525672],
            [-5845981.543995362, 3840295.5183128393],
            [-5845546.171781138, 3839355.681814583],
            [-5845426.919783202, 3838610.2340647504],
            [-5845024.412618628, 3838124.0027327402],
            [-5845143.282947563, 3837837.1601304836],
            [-5844991.530500885, 3837749.2897525327],
            [-5845285.881653409, 3837286.5448722583],
            [-5845235.784931986, 3837089.3367986535],
            [-5845479.345877643, 3836837.5949719236],
            [-5845202.174245835, 3836814.735498765],
            [-5845398.212284497, 3836199.690078956],
            [-5845259.77241768, 3835833.072114937],
            [-5845464.808277874, 3835347.085977884],
            [-5845362.068665135, 3835263.367755166],
            [-5845778.972223977, 3834564.977559922],
            [-5845745.320667878, 3834389.124229448],
            [-5845873.933083, 3834359.6045662924],
            [-5845870.972299583, 3833951.336270923],
            [-5845562.652336451, 3833381.574290396],
            [-5845738.478161669, 3833354.9311029506],
            [-5845523.76869973, 3832950.527338243],
            [-5845684.216058294, 3832558.6985691697],
            [-5845592.680454346, 3832379.15545272],
            [-5845675.668997679, 3831836.2705015847],
            [-5845273.061119455, 3830755.7319141747],
            [-5844553.345387692, 3829921.1711212685],
            [-5844506.693256388, 3829219.835999051],
            [-5844232.530893608, 3828969.5009569298],
            [-5844226.181105899, 3828754.965236902],
            [-5844796.651712515, 3828223.949378192],
            [-5844769.769852874, 3827539.150225384],
            [-5845425.772985701, 3827138.0376927913],
            [-5845802.748070588, 3826413.651741302],
            [-5845719.490505641, 3825876.697597616],
            [-5846105.217554535, 3825683.705592366],
            [-5846627.340396479, 3825100.140844383],
            [-5847044.034599057, 3823707.51163857],
            [-5847170.442941542, 3823597.4242622172],
            [-5847402.352917463, 3823685.35147913],
            [-5847418.160465059, 3823511.939761803],
            [-5847768.65502516, 3823260.056967817],
            [-5847369.207817869, 3822808.9464580575],
            [-5847634.261914039, 3822099.566982049],
            [-5847300.419672917, 3821107.3480454255],
            [-5847005.115152719, 3820761.7183771892],
            [-5847067.177308932, 3819626.1342038107],
            [-5846669.422099211, 3818759.7648412394],
            [-5846968.924180255, 3818446.5968659893],
            [-5847786.554771142, 3818149.960774272],
            [-5848079.65954573, 3817618.9552854593],
            [-5848017.537035935, 3817323.0436305995],
            [-5846567.940190689, 3815937.622858103],
            [-5845412.618475728, 3814229.3723058067],
            [-5845255.822580915, 3813544.0969583234],
            [-5844852.6021884335, 3812803.309391719],
            [-5844311.411948128, 3812202.4846960246],
            [-5843635.051390259, 3811088.018904591],
            [-5839547.389251517, 3811211.7444184446],
            [-5839558.159630569, 3811077.9444520758],
            [-5839032.977712891, 3810582.135611468],
            [-5838573.7600939, 3810722.4510758924],
            [-5838517.84019579, 3810603.3475591308],
            [-5838221.948568843, 3810697.3243861375],
            [-5838183.815993378, 3810608.920845066],
            [-5833972.606646555, 3810403.6011125953],
            [-5833922.604432064, 3810102.5280578113],
            [-5833718.367107019, 3810008.6491155983],
            [-5833680.9765443485, 3809799.942150137],
            [-5832262.662647487, 3809092.6851307275],
            [-5831695.295611938, 3808178.561011996],
            [-5831343.642276971, 3807141.1973727103],
            [-5825896.373742365, 3806569.8915890153],
            [-5824716.177271383, 3805733.2228397694],
            [-5823295.750951611, 3805735.6965193595],
            [-5822827.135532071, 3804902.592374723],
            [-5822927.064075167, 3804758.8592316047],
            [-5822608.351622493, 3804684.8989979085],
            [-5822699.172813366, 3804351.701581074],
            [-5822339.816658585, 3803802.058023231],
            [-5822377.204275994, 3803561.7357724416],
            [-5822157.052660838, 3803296.650527155],
            [-5821914.428312717, 3803293.8683496327],
            [-5821954.880339207, 3803052.157353589],
            [-5821710.520017681, 3802737.324821679],
            [-5821750.907421995, 3802367.8916864097],
            [-5821321.16861293, 3802222.689448244],
            [-5821416.335154835, 3801920.1560542737],
            [-5821234.327117984, 3801585.778288142],
            [-5821092.553350634, 3801648.5113331545],
            [-5820756.732058694, 3801456.472044544],
            [-5820693.294222757, 3801173.0073632016],
            [-5820810.511192341, 3801065.8446713667],
            [-5820713.755909224, 3800948.039962523],
            [-5820999.065342318, 3800647.7264970257],
            [-5820954.075508514, 3800445.7312563728],
            [-5820789.930619843, 3800425.6349547254],
            [-5820708.727994073, 3800232.373943103],
            [-5820193.49783179, 3800193.6120455386],
            [-5820113.877932159, 3799806.003811934],
            [-5819948.802866128, 3799906.1367047345],
            [-5819841.019521029, 3799638.3016397282],
            [-5819389.441235268, 3799463.2299574227],
            [-5819269.51100998, 3799654.9546494447],
            [-5819002.098299616, 3799528.753328047],
            [-5818887.959330287, 3799142.349064871],
            [-5819097.818912402, 3799138.7434259034],
            [-5819041.382330624, 3798998.0843066466],
            [-5819341.532273643, 3798576.2436075],
            [-5818958.730802284, 3798254.291012586],
            [-5818883.607012548, 3797944.0205979114],
            [-5818771.762947665, 3797960.58832684],
            [-5818883.962942591, 3797617.270119106],
            [-5818660.918834545, 3797478.6208289135],
            [-5818491.387904733, 3797583.460029036],
            [-5818519.798086719, 3797457.238018293],
            [-5818245.356918529, 3797210.167628182],
            [-5817886.144237705, 3797395.6879579737],
            [-5817763.508915903, 3797214.067582948],
            [-5817587.895013075, 3797291.902973353],
            [-5817150.493620695, 3796766.531221737],
            [-5816931.718224682, 3796980.469500685],
            [-5816640.106081736, 3796849.1787948855],
            [-5816669.506035291, 3796182.758093544],
            [-5816487.665661983, 3796181.805100572],
            [-5816426.39629456, 3795714.0579466214],
            [-5816276.373062385, 3795802.190661975],
            [-5816065.196505664, 3795668.074159341],
            [-5815901.53433555, 3795979.421858623],
            [-5815561.859724938, 3796027.8906771275],
            [-5815499.991052022, 3796205.149805802],
            [-5815202.239593029, 3796318.6396829626],
            [-5815030.727304684, 3796317.3582814857],
            [-5814978.403073657, 3796067.917585302],
            [-5814745.596739709, 3796221.902574487],
            [-5815401.77534668, 3797286.463835947],
            [-5815132.79677372, 3797404.116404383],
            [-5814755.479003833, 3797305.8936965293],
            [-5815010.053328215, 3797696.054662068],
            [-5814538.672631249, 3798001.5236177086],
            [-5814462.456147935, 3798335.621116288],
            [-5814107.61247238, 3798224.8362182393],
            [-5814393.4847683925, 3797952.022281214],
            [-5813917.635884095, 3798132.091167378],
            [-5813590.547825364, 3798106.00125952],
            [-5812465.924353815, 3797428.9376553018],
            [-5812444.59754639, 3797787.6426628223],
            [-5812048.468533475, 3797725.9859816725],
            [-5811891.437505629, 3797901.3692622217],
            [-5811512.860418728, 3797714.479618148],
            [-5811340.826317209, 3797813.1558706323],
            [-5811109.516519551, 3797440.800466842],
            [-5810460.360947762, 3797657.4112391924],
            [-5810330.551793088, 3797466.71977147],
            [-5810006.517037125, 3797866.9807467246],
            [-5809932.8995885765, 3797681.4278931315],
            [-5809723.42094651, 3797904.1306387153],
            [-5809562.447765745, 3797898.864606807],
            [-5809511.801984987, 3798080.2007355927],
            [-5809753.66822753, 3798076.841935142],
            [-5809869.871739699, 3798385.4341537054],
            [-5809513.435697538, 3798419.971721591],
            [-5809413.355700652, 3798966.023456219],
            [-5809025.385635542, 3798890.6537072537],
            [-5808833.522488214, 3799151.443298028],
            [-5808656.960918431, 3799030.2143745995],
            [-5808467.602686853, 3799307.9641573834],
            [-5808242.09411576, 3799296.1032227487],
            [-5807815.09800529, 3798701.9985101405],
            [-5807860.362277174, 3798485.980113356],
            [-5807597.523692237, 3798246.353414928],
            [-5807265.560642819, 3798530.827941813],
            [-5807161.904292222, 3798355.274755955],
            [-5806896.0745775495, 3798497.6057505277],
            [-5806698.2022733055, 3798145.7101332806],
            [-5806747.062031205, 3797983.7047298853],
            [-5806540.093011461, 3797877.7203813195],
            [-5806277.667155659, 3796916.0344762453],
            [-5806637.089990592, 3796345.684326593],
            [-5806590.002696512, 3796120.3168596164],
            [-5806792.517360818, 3796069.634860777],
            [-5806994.350005088, 3795799.6793548344],
            [-5806958.108954947, 3795694.8153723413],
            [-5806701.9131296165, 3795733.014965991],
            [-5806942.372037236, 3795479.0072816126],
            [-5806886.102490633, 3795306.2783410475],
            [-5806196.361891654, 3795161.346962766],
            [-5805880.17917549, 3795235.4157320485],
            [-5805659.264164048, 3794935.383734575],
            [-5805244.997116314, 3795226.723160471],
            [-5805079.307610734, 3794883.488191343],
            [-5804819.229922086, 3794862.536995388],
            [-5804365.402600236, 3794297.720758026],
            [-5804224.17104058, 3793640.683924813],
            [-5803929.324862864, 3793347.3409170047],
            [-5803803.198128891, 3792369.0718928776],
            [-5803268.785069688, 3792126.0298700593],
            [-5802981.09266648, 3792801.082847949],
            [-5802685.122256523, 3792783.349030945],
            [-5802513.66891922, 3792566.80013062],
            [-5802266.339038111, 3792679.3944635065],
            [-5801491.665384733, 3791694.294867204],
            [-5801579.379150526, 3791538.340999472],
            [-5802096.5155752655, 3791404.7955903877],
            [-5802743.161808213, 3790858.7027815147],
            [-5802686.591167171, 3790221.1461908366],
            [-5803180.717767615, 3789958.8171120286],
            [-5802899.954082703, 3789785.4558316544],
            [-5802699.4325969275, 3789974.4652798753],
            [-5802289.858091918, 3789757.439662505],
            [-5802052.468810317, 3790280.570088157],
            [-5801831.253448803, 3790001.346100265],
            [-5801762.255372864, 3790326.6730357897],
            [-5801315.598642596, 3790130.86358481],
            [-5800220.9212206835, 3790329.5927786464],
            [-5799922.299641264, 3791026.392192449],
            [-5799398.748650206, 3790868.606214371],
            [-5798732.781598234, 3790974.4723572857],
            [-5797891.999835776, 3791439.7812318746],
            [-5797421.823695565, 3791459.4604700827],
            [-5796759.5259092925, 3791914.4761914117],
            [-5796122.122439295, 3791929.685999321],
            [-5795987.072836092, 3791791.5045609055],
            [-5795780.675068359, 3791082.359102618],
            [-5796285.913751727, 3790753.6367051513],
            [-5796568.261293462, 3790846.283867814],
            [-5796711.390875431, 3790456.0410423437],
            [-5796966.522540948, 3790280.3027251083],
            [-5796742.71710041, 3790117.212020539],
            [-5797225.129742778, 3789793.599717307],
            [-5797312.956481556, 3789407.494697065],
            [-5797102.951005743, 3789031.604384406],
            [-5797590.462027373, 3789113.037083456],
            [-5797596.588658197, 3788978.0631505107],
            [-5797388.246024358, 3788922.4089233694],
            [-5797461.261573191, 3788602.4675126863],
            [-5797626.2757212445, 3788842.075253946],
            [-5797843.042420853, 3788714.7148735565],
            [-5797425.893127559, 3788350.784277409],
            [-5796817.036185588, 3788376.9536130414],
            [-5796744.564846675, 3788237.1805540198],
            [-5796559.051161956, 3788265.7704491266],
            [-5796499.941746863, 3787924.568405537],
            [-5796853.725256562, 3787693.2780401693],
            [-5796984.971668556, 3787222.9271545946],
            [-5797180.799044997, 3787044.1028920617],
            [-5797860.799814274, 3786776.1364307576],
            [-5797978.868509774, 3786132.9820025763],
            [-5797236.687258562, 3782580.8889661953],
            [-5797529.82501287, 3782114.6301412196],
            [-5797539.51401106, 3781814.101101287],
            [-5797104.462029899, 3780568.450003724],
            [-5797282.611154694, 3780457.558486181],
            [-5797495.270831199, 3779983.5130326496],
            [-5797340.449935992, 3779472.1185900792],
            [-5796975.199960117, 3779196.996923217],
            [-5796870.756801521, 3778230.1190137747],
            [-5797028.225681654, 3777794.887750588],
            [-5796664.288611007, 3777160.6204304732],
            [-5795532.422905091, 3776137.0244308966],
            [-5795220.080314294, 3775330.2677554153],
            [-5795261.865159333, 3774743.1701471494],
            [-5795478.2893980825, 3774387.7257538494],
            [-5795281.996835498, 3774026.173921818],
            [-5795646.211068037, 3772672.047360303],
            [-5795316.677725292, 3771560.047163879],
            [-5794861.059567206, 3770937.7509337356],
            [-5793999.558872238, 3770625.949353882],
            [-5792593.20934056, 3770898.688159463],
            [-5791110.160919564, 3770874.406517718],
            [-5790412.601833676, 3770410.623208644],
            [-5789282.0847812565, 3769944.8657092727],
            [-5788649.460749136, 3769232.837364173],
            [-5788788.186791398, 3768629.454147059],
            [-5788735.949947197, 3767600.402895866],
            [-5788381.31863295, 3766897.617330034],
            [-5788532.085515948, 3765765.6605784185],
            [-5789288.110285352, 3765453.510994554],
            [-5790120.50329032, 3765813.2404876826],
            [-5790947.063877125, 3765714.060191259],
            [-5791003.546708287, 3765573.1464534514],
            [-5791353.644201855, 3765482.1234950963],
            [-5791908.9112172555, 3765477.1167673175],
            [-5792832.893572665, 3766004.3028761437],
            [-5793007.098944082, 3765949.240982512],
            [-5793121.31083975, 3765295.158892286],
            [-5792490.4641155, 3764308.7617661553],
            [-5792453.5430296, 3762937.5388963],
            [-5792726.729127819, 3762491.144404142],
            [-5792451.727809982, 3761770.992391558],
            [-5790952.685832981, 3759760.9058471695],
            [-5789831.731856, 3759151.600528892],
            [-5789139.087486646, 3758951.2618341707],
            [-5789004.932864702, 3758186.7157861204],
            [-5788778.255220689, 3757737.7741388786],
            [-5789610.930123295, 3757164.293764919],
            [-5789815.422852072, 3757158.4216581415],
            [-5791073.436059633, 3756437.485442986],
            [-5791318.964667973, 3755651.910658409],
            [-5791284.764333472, 3753969.4819479785],
            [-5791111.147202999, 3753176.4647804056],
            [-5790768.572929448, 3752515.445856705],
            [-5790804.769501771, 3751919.8476563636],
            [-5790688.855711658, 3751662.2189776786],
            [-5790265.888846197, 3751321.996913454],
            [-5790164.36583813, 3751034.0033313585],
            [-5790240.5254512355, 3750854.2054923614],
            [-5789725.509305225, 3749836.0294810263],
            [-5789495.184591124, 3748915.897152081],
            [-5789720.705162053, 3747871.555443653],
            [-5789609.069343471, 3747338.224751096],
            [-5789678.072830156, 3746880.054264546],
            [-5790268.939659927, 3746156.651949441],
            [-5790504.394623268, 3745556.166225888],
            [-5790158.486965258, 3744701.930013418],
            [-5790775.422282925, 3743815.933705832],
            [-5790811.213302217, 3743467.97415178],
            [-5790759.121713318, 3743205.7387420526],
            [-5789959.995809305, 3742519.496893327],
            [-5789936.48236358, 3742331.215216387],
            [-5790023.6828532135, 3741836.2198628252],
            [-5790572.266315783, 3741704.50520276],
            [-5790770.196873511, 3741489.979291877],
            [-5790097.1085555935, 3740606.4501159536],
            [-5790180.845725676, 3737930.1737541608],
            [-5790367.059787403, 3737373.5436857077],
            [-5790040.369684236, 3737074.878621245],
            [-5789765.677745229, 3737025.2063447908],
            [-5788463.014171293, 3737289.9566390775],
            [-5787828.428291696, 3737009.5268377173],
            [-5787588.126800116, 3736730.37963598],
            [-5787062.001789723, 3735447.20473309],
            [-5786712.226992541, 3735030.272973744],
            [-5786354.565098312, 3733273.570914082],
            [-5786875.760522407, 3731450.663910507],
            [-5788332.766316105, 3730517.8080956135],
            [-5788827.813594679, 3730501.019869101],
            [-5789744.379353009, 3730905.584030236],
            [-5790277.111651109, 3731699.0139358905],
            [-5791515.231550362, 3732538.35980116],
            [-5791998.804191011, 3732766.9827187764],
            [-5793013.000738799, 3732765.6174971005],
            [-5793901.210746356, 3730390.399745003],
            [-5793793.441525398, 3729807.1555531835],
            [-5792138.941128842, 3727757.8610271993],
            [-5791753.58560312, 3726788.6078088405],
            [-5791283.272374621, 3726287.5863491134],
            [-5790641.064011439, 3725906.87241869],
            [-5790014.263349899, 3725127.6520754048],
            [-5789558.83078659, 3724947.2563689374],
            [-5788915.988123778, 3725174.324095068],
            [-5787991.605918041, 3726159.199050518],
            [-5786791.982905611, 3726958.52972728],
            [-5785682.030266857, 3728291.922003993],
            [-5785126.0772734, 3728783.4590638024],
            [-5784788.637558113, 3728906.6280399323],
            [-5783318.785355444, 3728642.3608560394],
            [-5782849.961516521, 3727618.230423444],
            [-5781608.376948429, 3726466.68899033],
            [-5781820.225545376, 3725814.657084341],
            [-5782370.329967892, 3725091.7298339587],
            [-5782868.696490093, 3724676.7178594917],
            [-5784079.005951625, 3724011.1241332763],
            [-5784549.574928055, 3723928.019644796],
            [-5785233.68693978, 3724276.97291467],
            [-5785750.825179464, 3724240.450467764],
            [-5786559.5762827145, 3724005.2132810275],
            [-5787092.277630021, 3723615.7236273494],
            [-5787990.132661626, 3723574.018722228],
            [-5788915.426989981, 3723118.053159556],
            [-5789722.848643086, 3723099.2470338554],
            [-5790971.909604064, 3722283.8464721846],
            [-5791256.651837169, 3721821.549343095],
            [-5791517.540931508, 3721700.977125934],
            [-5791911.912521487, 3721723.233349987],
            [-5792912.098739229, 3722113.608764386],
            [-5793740.746066419, 3722046.370490655],
            [-5794096.99998779, 3721851.4426929285],
            [-5794139.266190419, 3721552.5978789185],
            [-5793869.8285652585, 3720727.678295211],
            [-5793936.368932772, 3719374.4959258423],
            [-5793444.591920235, 3718157.5066445065],
            [-5792721.392178045, 3717399.738341809],
            [-5792281.206226119, 3717234.927887203],
            [-5791507.7169890115, 3717203.957528326],
            [-5790232.668635425, 3717707.6483559865],
            [-5789421.898201497, 3718317.3767262353],
            [-5787865.194069804, 3718411.3506216514],
            [-5786564.450757621, 3717757.328529882],
            [-5786249.361708694, 3717253.962299801],
            [-5786258.829388264, 3716849.754363078],
            [-5787232.706758996, 3715988.4769830415],
            [-5788008.349350167, 3714941.1858589337],
            [-5789073.067889241, 3714736.2981213746],
            [-5789211.009821713, 3713948.7078616186],
            [-5789358.659130769, 3713854.002017211],
            [-5790697.708506766, 3713426.976020187],
            [-5792425.427813423, 3713790.800813764],
            [-5793153.604966866, 3713612.582201056],
            [-5793166.733056285, 3712887.020277388],
            [-5792698.144188079, 3711705.843215689],
            [-5790513.841364338, 3710100.0728533366],
            [-5790498.225485359, 3709680.98864022],
            [-5789881.954688569, 3709567.3328714003],
            [-5789801.30897167, 3709671.593723378],
            [-5789504.387912554, 3709520.731427296],
            [-5789318.418637907, 3709615.4382495303],
            [-5789191.527271762, 3709486.1660090657],
            [-5789302.228518252, 3709300.0927955224],
            [-5789054.917873773, 3709139.249434213],
            [-5788276.041530076, 3709613.797727572],
            [-5788333.658950495, 3709287.867255286],
            [-5788050.869106053, 3709449.2385568665],
            [-5787894.71508436, 3709280.107390865],
            [-5787693.115262534, 3709345.7750976323],
            [-5787654.7536595715, 3709648.2369486936],
            [-5787525.317111193, 3709553.0993492794],
            [-5786894.663630096, 3709772.771891116],
            [-5786842.558173352, 3710038.368578896],
            [-5786675.057037878, 3709900.2468544827],
            [-5786638.968555181, 3710261.02194229],
            [-5786546.933516185, 3710172.3986491268],
            [-5786391.529727458, 3710251.8907114314],
            [-5786452.414925075, 3710373.9103962895],
            [-5785909.28268473, 3710693.877468549],
            [-5785750.095209709, 3710625.3234161707],
            [-5785709.422476205, 3710919.3398555075],
            [-5785343.377441872, 3710984.2336983946],
            [-5785436.592578969, 3711237.5500778817],
            [-5785145.026260756, 3711404.6540467604],
            [-5785179.63393259, 3711562.9829480406],
            [-5784851.723816094, 3711665.5926757404],
            [-5784814.674776491, 3711838.6768113235],
            [-5784122.159745748, 3712000.580851064],
            [-5784030.5461165905, 3712302.5014813663],
            [-5783763.031448477, 3712172.1931789],
            [-5783539.231755732, 3712220.613437227],
            [-5783348.160942288, 3712522.1617933526],
            [-5783141.133280873, 3712433.521862207],
            [-5783074.147932555, 3712874.7780973664],
            [-5782910.641313713, 3712775.7052631523],
            [-5782695.173259918, 3712875.7287093657],
            [-5782729.167249601, 3713260.582613974],
            [-5782600.976371935, 3713260.872747486],
            [-5782493.3277457515, 3713510.9273341266],
            [-5782586.355025883, 3713731.422178309],
            [-5782469.374667723, 3713949.9561596694],
            [-5782564.31169796, 3714197.5612547803],
            [-5782441.088531114, 3714301.7802054146],
            [-5782492.315060569, 3714900.547620551],
            [-5782401.002000294, 3714980.8258273555],
            [-5782212.752691258, 3714817.324663237],
            [-5782134.515448542, 3714974.769350792],
            [-5782242.645899507, 3715084.2809455604],
            [-5782080.684257691, 3715130.1265378967],
            [-5782050.249071263, 3715280.397268689],
            [-5782279.448123139, 3715327.3376458697],
            [-5782436.592350136, 3715820.1557395943],
            [-5782737.626024429, 3715945.2380768787],
            [-5782954.647717387, 3716301.098732041],
            [-5782401.472042111, 3716601.013981859],
            [-5782462.122488561, 3716889.916746926],
            [-5782041.135134976, 3717068.9542664243],
            [-5782037.994577212, 3717232.2714366885],
            [-5781791.994769125, 3717390.7570814975],
            [-5781772.005729114, 3717628.164509423],
            [-5780818.044469737, 3717548.163062258],
            [-5780780.846272886, 3717814.2346288413],
            [-5780379.003647508, 3717729.087951459],
            [-5780498.470495002, 3717607.869128808],
            [-5780142.921293293, 3717442.7654317566],
            [-5779771.804777331, 3717559.107999567],
            [-5779537.071987674, 3717456.1887121033],
            [-5779630.278344529, 3717684.2298610737],
            [-5779371.026216889, 3717614.615721471],
            [-5779314.918702476, 3717730.33874983],
            [-5778957.613712203, 3717577.896893499],
            [-5778429.633614384, 3717765.948796146],
            [-5778353.374594779, 3717932.2278383733],
            [-5778201.061610632, 3717863.0946589103],
            [-5778142.649375724, 3718069.8839140884],
            [-5778139.51461192, 3717959.8127959906],
            [-5777999.605457498, 3717974.8570340206],
            [-5777932.264772504, 3718196.0113649084],
            [-5777355.647324452, 3718197.2552829273],
            [-5777357.857107309, 3718513.743014173],
            [-5777067.941473417, 3718547.4198912797],
            [-5777083.290318943, 3718691.153163366],
            [-5776989.974202912, 3718557.023799398],
            [-5776740.171997437, 3718575.2812519358],
            [-5776935.566428758, 3718782.2869678168],
            [-5776867.678674021, 3718954.1578685967],
            [-5776624.808173483, 3718833.880294879],
            [-5776477.51172736, 3719040.68806781],
            [-5775573.399765729, 3719164.924677325],
            [-5775502.501733057, 3719031.4922512393],
            [-5775145.779911513, 3719161.065274882],
            [-5774940.628700498, 3718993.5480790357],
            [-5774557.300156384, 3718977.4657666595],
            [-5774424.185138983, 3719180.930273653],
            [-5774115.879535871, 3719195.910072929],
            [-5773887.341276724, 3719362.9515580665],
            [-5773791.2343918355, 3719583.9663036806],
            [-5773605.213233887, 3719577.2822018545],
            [-5773562.081792588, 3719437.7241727784],
            [-5773494.152131879, 3719576.018842466],
            [-5773008.233060064, 3719620.1474304036],
            [-5772833.497200962, 3719525.8783373768],
            [-5772756.879659153, 3719272.189950283],
            [-5772527.738460426, 3719416.6867988394],
            [-5772278.6861314755, 3719056.364994756],
            [-5772126.11278408, 3719229.3453069767],
            [-5771845.4617043715, 3719083.8715748047],
            [-5771321.208892008, 3719341.454999251],
            [-5771255.221963188, 3719181.038756456],
            [-5771115.817977384, 3719260.921496817],
            [-5770784.04177027, 3719030.1173282666],
            [-5770688.669209438, 3719162.4610859244],
            [-5770442.860441675, 3719015.830457142],
            [-5770341.465925591, 3719167.0782133914],
            [-5770183.797076866, 3719072.5299366266],
            [-5769935.614282772, 3719316.8899262473],
            [-5769539.894210773, 3718971.2732175346],
            [-5769334.865625689, 3718992.3067277623],
            [-5769370.289741395, 3718891.542438486],
            [-5768942.723706423, 3718808.10687142],
            [-5768952.122069653, 3718687.4279241343],
            [-5768407.061861184, 3718542.4645592114],
            [-5768556.474237925, 3718261.283338128],
            [-5768250.871231953, 3718036.6171549982],
            [-5768303.830017313, 3717943.8091156604],
            [-5768142.826814274, 3718046.9583557444],
            [-5768003.255150952, 3717945.4875391037],
            [-5768058.153686247, 3717293.2877484625],
            [-5767963.198849628, 3717076.3413212444],
            [-5768057.488087436, 3716893.1536943507],
            [-5768439.077041024, 3716769.0665136822],
            [-5768390.926611184, 3716508.172368536],
            [-5768640.337388732, 3716320.194159891],
            [-5768601.820115026, 3716163.547047889],
            [-5768383.616741292, 3716077.1276064743],
            [-5768457.613401914, 3715774.6257239836],
            [-5767976.774043222, 3715675.107769276],
            [-5768080.013245864, 3715446.840606616],
            [-5767865.20464285, 3715150.6434143186],
            [-5767638.633918982, 3715159.4119067593],
            [-5767609.977614567, 3715452.065666348],
            [-5767381.1692429045, 3715281.6778360154],
            [-5767208.128070097, 3715367.5627968493],
            [-5767089.915571903, 3715230.5307405475],
            [-5766941.531753182, 3715277.9341634023],
            [-5766928.387273579, 3715426.7816249426],
            [-5766604.078845884, 3715457.5299360845],
            [-5766187.841210983, 3715783.3828115994],
            [-5765769.200948531, 3715596.3115098653],
            [-5765747.966671267, 3715297.475223494],
            [-5765528.125103734, 3715117.6115286034],
            [-5765295.896187789, 3715076.3986909837],
            [-5764904.394710851, 3715290.179625598],
            [-5764785.545841101, 3715168.1054126113],
            [-5764883.308257321, 3715084.923465064],
            [-5764724.712379866, 3715011.2822664776],
            [-5764464.052220536, 3715196.680618657],
            [-5764139.518867943, 3714992.9509780095],
            [-5764187.209190825, 3714890.645999069],
            [-5763815.971992243, 3714866.6742114215],
            [-5763784.918376234, 3714971.615749272],
            [-5763623.538549178, 3714831.848327852],
            [-5763261.226578228, 3714905.133600048],
            [-5763155.005737035, 3714796.125212016],
            [-5762910.551814657, 3715065.000409199],
            [-5762620.664364743, 3715011.1209941045],
            [-5762179.401106288, 3713977.421260565],
            [-5761678.27127986, 3713977.7769675725],
            [-5761173.814397075, 3713721.9483772186],
            [-5761297.571880735, 3708579.778153107],
            [-5761706.912127196, 3707392.609308136],
            [-5761478.604740143, 3706926.81105608],
            [-5761038.885291955, 3706582.9390194523],
            [-5760866.99169924, 3705996.8935636855],
            [-5760356.296101905, 3705616.6563502667],
            [-5760104.964836963, 3704954.0698269135],
            [-5760228.824383305, 3704230.0770205683],
            [-5760981.993825214, 3704004.299152659],
            [-5761542.879013205, 3704093.043152861],
            [-5761708.130185243, 3702918.9206751515],
            [-5761989.626018428, 3702052.3070076043],
            [-5762679.559878618, 3701082.190199439],
            [-5763333.777756256, 3699384.436596],
            [-5763371.701467035, 3698936.282738603],
            [-5761375.61268286, 3696729.0419665277],
            [-5759859.024526493, 3695311.540836122],
            [-5760350.809518469, 3693800.283572741],
            [-5760551.525079563, 3693646.397060868],
            [-5760437.677787485, 3692988.6292963424],
            [-5760795.434695128, 3691942.6374020325],
            [-5760696.121430007, 3691221.15094229],
            [-5760825.122272442, 3690714.152964177],
            [-5761021.822796141, 3690670.750438233],
            [-5761055.089497514, 3690446.696590574],
            [-5761356.278190614, 3690278.939177845],
            [-5761373.750573476, 3689670.8889996666],
            [-5761588.830293178, 3689566.8395156744],
            [-5762099.485967628, 3689670.4239778123],
            [-5762594.692454924, 3689065.840306537],
            [-5762681.0186468065, 3689122.9665096276],
            [-5762668.837838151, 3688987.9698658837],
            [-5762941.602019167, 3688958.711950271],
            [-5763218.926045085, 3688619.122101215],
            [-5763154.069106734, 3688454.254196039],
            [-5763365.510965139, 3688461.7896213843],
            [-5763527.841519211, 3688273.438625208],
            [-5763185.016548475, 3688107.2535516946],
            [-5763035.309789256, 3687871.170288209],
            [-5763068.305819157, 3687667.3626597123],
            [-5762884.243368799, 3687553.420720392],
            [-5762834.321415774, 3687205.5571429343],
            [-5762315.946673849, 3686471.631813353],
            [-5762361.657295893, 3685858.811337722],
            [-5762139.207428004, 3685804.705341114],
            [-5761885.821615804, 3685524.064154156],
            [-5761841.624199061, 3685222.548258928],
            [-5761972.254128297, 3685030.729230499],
            [-5761835.001141464, 3684605.477056238],
            [-5761984.926642477, 3684307.418748553],
            [-5762588.090252071, 3684105.380331843],
            [-5762789.363833294, 3683814.2124726884],
            [-5763293.07340452, 3681766.8219337407],
            [-5763358.804769697, 3681338.700473853],
            [-5763076.47714478, 3681198.0802288083],
            [-5762809.402062288, 3679797.3486235463],
            [-5763279.630412664, 3679778.1534947027],
            [-5763141.110182714, 3678725.2300128234],
            [-5762890.046082115, 3677973.7187385126],
            [-5762302.5335645275, 3678021.648337204],
            [-5762227.239163629, 3677560.290405727],
            [-5761858.017435687, 3677033.3197413315],
            [-5761309.142229194, 3676839.2689171415],
            [-5761093.104797618, 3675776.985174352],
            [-5761197.060143768, 3675466.89052647],
            [-5757767.152631932, 3671474.693784147],
            [-5757293.205491618, 3671585.319127831],
            [-5756862.956425468, 3671515.998302952],
            [-5756399.452184795, 3671240.218713153],
            [-5756101.0610437915, 3670644.525364995],
            [-5755668.405489847, 3670491.9407228953],
            [-5755428.631300959, 3670585.057966032],
            [-5755597.665021425, 3669997.0078812987],
            [-5755409.945639589, 3669164.74105094],
            [-5755671.310654577, 3668797.8151727547],
            [-5755555.138775604, 3668690.2540766764],
            [-5755635.551536856, 3668529.1303147217],
            [-5755242.212472565, 3668293.538734301],
            [-5754981.1139749605, 3667158.3582929755],
            [-5754742.9757921, 3667219.9468291765],
            [-5754700.4271599315, 3666934.1554768127],
            [-5754317.142898538, 3666742.391099959],
            [-5754089.184555773, 3666326.6897611567],
            [-5753862.016485453, 3666315.1464171153],
            [-5753727.115241302, 3665762.2041669115],
            [-5753404.294051305, 3665732.5898983404],
            [-5753305.419716656, 3665469.32400675],
            [-5753178.367947991, 3665493.6588115315],
            [-5753100.446444577, 3665353.9591909335],
            [-5753209.203906173, 3665041.2319695926],
            [-5753336.492303118, 3665129.433274417],
            [-5753636.6343055535, 3664711.8260091986],
            [-5753595.837496116, 3664290.1336590936],
            [-5753749.164925844, 3663874.3393602893],
            [-5753219.138433737, 3663482.727283614],
            [-5753271.423867863, 3662943.6829415187],
            [-5754287.818391823, 3662908.59492832],
            [-5754350.907557286, 3662640.420800502],
            [-5754225.393547584, 3662202.902622386],
            [-5754627.549552379, 3662005.879152884],
            [-5755083.615680155, 3661235.018630846],
            [-5754764.886495803, 3660637.758084789],
            [-5754360.943967304, 3660376.8914867477],
            [-5754732.183956196, 3660121.9160964563],
            [-5754715.469681048, 3659488.285682808],
            [-5754132.813360238, 3659061.6009149402],
            [-5754571.516292484, 3658103.9108395358],
            [-5754631.9964779485, 3657591.1708815927],
            [-5755760.1761715785, 3657080.544842694],
            [-5756338.270758953, 3657086.2904066714],
            [-5756444.732446167, 3656962.547937923],
            [-5756324.3084378345, 3656645.30787443],
            [-5756434.3486628495, 3656329.7522281753],
            [-5756635.531636563, 3656404.8251316953],
            [-5757101.504519722, 3657001.1309574554],
            [-5757559.963402146, 3657044.1473808447],
            [-5757670.519175538, 3657737.705535338],
            [-5758731.176957434, 3657631.9642847674],
            [-5758888.823893039, 3657393.680590987],
            [-5758879.582087307, 3656907.6058996837],
            [-5759021.835769799, 3656632.17836163],
            [-5760025.857876775, 3655998.368665783],
            [-5760059.036355722, 3655645.0979276258],
            [-5759848.252552266, 3655391.7778790193],
            [-5759714.02346685, 3655387.2958464464],
            [-5759708.044013181, 3655628.091770512],
            [-5759315.291888718, 3655868.0249144426],
            [-5759121.484007443, 3655791.7751691216],
            [-5758849.456098309, 3655376.2196334293],
            [-5758997.701518139, 3654966.621024785],
            [-5759418.569307929, 3654940.950890764],
            [-5759847.843685747, 3654284.225512908],
            [-5760268.346754596, 3654366.152382465],
            [-5760415.756032897, 3655141.969131317],
            [-5761015.667071669, 3655256.609986713],
            [-5761856.970575432, 3655176.94761529],
            [-5762052.103255447, 3655004.483720411],
            [-5762680.484960792, 3655002.3711402803],
            [-5762744.87304826, 3654566.294911567],
            [-5763394.884775198, 3655080.6468688413],
            [-5763562.799234083, 3654780.348909755],
            [-5763461.570366076, 3654478.9396857526],
            [-5764418.950295568, 3654463.255494127],
            [-5764187.280137095, 3653438.1376408557],
            [-5763908.323332061, 3653145.873444895],
            [-5764128.829447385, 3652549.523980335],
            [-5762909.165950359, 3651866.078234066],
            [-5761963.904629863, 3652039.6357513885],
            [-5761757.877389692, 3651690.1986964205],
            [-5762146.907135966, 3651307.4158624792],
            [-5764122.346253937, 3650861.6128785373],
            [-5763304.62470454, 3650371.4097065255],
            [-5762901.930278363, 3650289.1143803434],
            [-5763007.720662498, 3649729.139407024],
            [-5751956.215054328, 3639095.6908776723],
            [-5752041.925798028, 3638706.835859685],
            [-5751799.734089253, 3638621.799823481],
            [-5751510.700055696, 3638884.254258563],
            [-5751060.046768818, 3638769.1922744424],
            [-5750976.237982017, 3638918.6546478886],
            [-5751158.143622004, 3639141.9892630912],
            [-5750919.057466476, 3639039.123588083],
            [-5750828.361026196, 3639299.7711649532],
            [-5750632.864206825, 3639160.8653166285],
            [-5750517.410115587, 3639347.039733807],
            [-5750059.220691983, 3639335.041786158],
            [-5749626.931057854, 3638997.2759614456],
            [-5749790.947344279, 3638911.6320847147],
            [-5749625.407237755, 3638801.008805123],
            [-5749601.88240482, 3638347.5405886946],
            [-5749478.842413197, 3638405.037919945],
            [-5749282.8307109, 3638045.613168737],
            [-5749073.369086574, 3638133.6330553475],
            [-5748812.711225761, 3637917.0368475826],
            [-5748906.500731175, 3637848.741957203],
            [-5748849.662764919, 3637378.536230573],
            [-5748279.138538684, 3637163.3375736848],
            [-5748215.848362174, 3637427.882100976],
            [-5747900.207545762, 3637463.786294754],
            [-5747548.952658144, 3636757.7443873743],
            [-5747005.448659, 3636796.059419703],
            [-5746954.401089045, 3637014.8459894657],
            [-5746784.636455681, 3636901.027160082],
            [-5746682.215041773, 3637094.758171278],
            [-5746485.678760426, 3637058.412572231],
            [-5746210.9175747335, 3637403.7569228048],
            [-5746231.474003197, 3637646.8719219854],
            [-5745890.075329258, 3637736.510554736],
            [-5745709.888154623, 3637582.811405208],
            [-5745669.856595707, 3637163.700729498],
            [-5745497.471790537, 3637280.3079860155],
            [-5745471.984733987, 3636907.2121700183],
            [-5745272.207878778, 3636766.562481503],
            [-5745054.864329203, 3636914.0639754734],
            [-5744778.563305258, 3636688.753299951],
            [-5744307.472571758, 3636712.105719882],
            [-5743994.781472256, 3636573.3439056184],
            [-5743578.479774992, 3636766.7520741685],
            [-5743561.083920897, 3636582.188915443],
            [-5743817.577359105, 3636483.529254785],
            [-5743680.536980044, 3636322.0915637016],
            [-5742955.366960967, 3636425.1157832644],
            [-5742514.377882505, 3636294.4075218393],
            [-5742262.891762966, 3635692.941509289],
            [-5741568.2299518045, 3635356.8137074034],
            [-5741696.663999571, 3635143.1144722784],
            [-5741360.286898932, 3634534.0159989917],
            [-5741205.744004029, 3634919.3005021103],
            [-5740537.505103814, 3634696.0544897313],
            [-5740383.513736232, 3634717.2297395165],
            [-5740342.944769718, 3635009.733532813],
            [-5739830.496480035, 3634773.6668914584],
            [-5739462.341049261, 3634258.2280472624],
            [-5738499.404597958, 3634686.117205564],
            [-5738086.553198131, 3634489.306726013],
            [-5737536.773638211, 3634436.4383757417],
            [-5737164.915303404, 3634460.539014411],
            [-5736943.133858162, 3634626.540680046],
            [-5736287.455653627, 3634560.490539973],
            [-5735723.462105322, 3634376.6233681063],
            [-5735972.524176228, 3633851.120186335],
            [-5735553.15397879, 3633322.633108184],
            [-5735223.264176459, 3633366.306932623],
            [-5734648.861363941, 3633691.9061776046],
            [-5734016.611355706, 3633431.748822057],
            [-5733781.898491828, 3633121.915025772],
            [-5733863.6899773, 3632897.784750006],
            [-5733705.835949835, 3631816.2171683935],
            [-5733257.607957999, 3631622.276403337],
            [-5733170.482090159, 3631221.0554297464],
            [-5732846.674709294, 3630945.0907345805],
            [-5732846.616107285, 3630640.533483717],
            [-5732254.111536152, 3630264.5123809134],
            [-5732219.434555074, 3629957.404832495],
            [-5732514.164750828, 3629862.321722801],
            [-5732482.814724429, 3629515.500623594],
            [-5732211.4648916, 3629294.307657423],
            [-5732198.250108366, 3628625.834838143],
            [-5732006.043955927, 3628437.988436057],
            [-5732195.161322054, 3628318.02511681],
            [-5732128.990912584, 3628106.2174377497],
            [-5732009.908145249, 3627862.0947503173],
            [-5731810.897228403, 3627809.2687763018],
            [-5732014.817923378, 3627659.1275755707],
            [-5731818.514868507, 3627593.9091235385],
            [-5731903.373639074, 3627182.5817556563],
            [-5731644.555978727, 3627023.877650631],
            [-5731132.809143902, 3627211.4297429854],
            [-5730251.597585635, 3627107.2288775677],
            [-5730011.75802445, 3627210.846597907],
            [-5729597.53129392, 3626810.4595017023],
            [-5729277.213486707, 3626804.0182345174],
            [-5729171.1078890925, 3626679.4534964217],
            [-5728583.985521332, 3626972.68388897],
            [-5728206.535098061, 3626502.7109732376],
            [-5727800.730658732, 3626426.3632248007],
            [-5727501.960627816, 3626589.7219247026],
            [-5727665.10212424, 3626067.0482116034],
            [-5727436.475459407, 3626004.980223063],
            [-5727560.8823505305, 3625673.8202917133],
            [-5726471.288806419, 3625899.685810398],
            [-5726365.947311658, 3625745.0493295183],
            [-5726913.647716138, 3625205.8244356867],
            [-5726466.0020136675, 3625258.842379166],
            [-5726310.521310962, 3625046.4597645956],
            [-5725879.681085325, 3625120.8457729854],
            [-5726037.0908595845, 3624987.371749716],
            [-5725582.4842590075, 3624640.0917712054],
            [-5725841.988172651, 3624392.2284295983],
            [-5725443.723612726, 3624440.4312721887],
            [-5725681.601533258, 3624196.4203687063],
            [-5725746.49594677, 3623879.492902242],
            [-5725543.761607779, 3623924.9799664714],
            [-5725561.71345615, 3623500.257785585],
            [-5725285.296909426, 3623503.586505552],
            [-5725403.56947785, 3623124.022396961],
            [-5725209.074452083, 3622989.498382556],
            [-5725293.307573523, 3622743.877807288],
            [-5725198.455249471, 3622590.369661736],
            [-5724989.64953249, 3622596.609060176],
            [-5725116.04336012, 3622433.8617936103],
            [-5725064.75387212, 3622131.7459165473],
            [-5724724.990226169, 3622036.541683263],
            [-5724681.939324571, 3622220.369572078],
            [-5724118.082741242, 3622159.524063743],
            [-5724328.5217741225, 3621738.720055204],
            [-5724214.562124851, 3621551.969842171],
            [-5723549.795823924, 3621794.6574487505],
            [-5723215.880763984, 3621771.2933832076],
            [-5723079.095877591, 3621606.0576781854],
            [-5723254.327215644, 3621254.7089972165],
            [-5723180.742315436, 3621017.908373491],
            [-5722911.72685402, 3620924.8597854683],
            [-5722878.563631448, 3620419.5372892437],
            [-5722657.522569067, 3620130.9722711584],
            [-5722848.109349567, 3619884.385206315],
            [-5722613.763544163, 3619732.1318145576],
            [-5722648.424034486, 3619370.054489104],
            [-5722437.97780449, 3619399.434725464],
            [-5722363.960682487, 3619281.741503775],
            [-5722439.717124343, 3618834.067316775],
            [-5722191.417388581, 3618431.3272241633],
            [-5722256.442391994, 3618231.921832691],
            [-5721922.53823563, 3617396.009520622],
            [-5722045.872641418, 3617103.1800129022],
            [-5721769.402842012, 3616766.170770625],
            [-5722576.247441269, 3616499.8391905357],
            [-5723643.91066468, 3616528.450840775],
            [-5725489.022360932, 3615277.168301935],
            [-5725789.218501411, 3614834.2272214913],
            [-5725630.088156134, 3614023.5258540837],
            [-5725695.919968053, 3613756.1117537054],
            [-5726234.819609318, 3613062.1571130864],
            [-5727238.4190839315, 3612928.056262276],
            [-5728614.470231895, 3612440.7433379726],
            [-5729177.923101794, 3612472.1975071365],
            [-5729463.818144426, 3612336.678702086],
            [-5729490.5589155825, 3611881.8482552134],
            [-5729221.261021441, 3611465.188166114],
            [-5729156.891955978, 3611035.7460311353],
            [-5729492.116202237, 3610830.710757165],
            [-5729895.139840611, 3610165.7242958643],
            [-5730191.470456146, 3609966.4675204344],
            [-5730178.213370496, 3609644.1585509996],
            [-5729804.508598262, 3609497.458824563],
            [-5729968.263926918, 3609343.463020302],
            [-5729762.244826022, 3608883.0856926525],
            [-5730245.945750566, 3608291.032143565],
            [-5730179.5079191765, 3607916.6869566427],
            [-5730753.774108201, 3607685.5931352903],
            [-5730946.705767305, 3607833.4456706573],
            [-5731062.143783098, 3607524.5662910314],
            [-5731719.324414202, 3607366.7815437475],
            [-5732396.66457047, 3606650.1660677847],
            [-5732623.670070604, 3606035.789772375],
            [-5732585.943103435, 3605818.392886108],
            [-5732387.307493449, 3605737.639536722],
            [-5732521.039484329, 3605580.035154875],
            [-5732325.584505766, 3605378.4592936193],
            [-5731873.949382016, 3605109.177266871],
            [-5731534.3797546225, 3605075.3499023984],
            [-5731281.186639352, 3604813.7553241723],
            [-5730972.310505507, 3604766.273609193],
            [-5729969.026942365, 3605036.426966902],
            [-5729906.487265995, 3604125.355002802],
            [-5730251.520611645, 3603946.805473533],
            [-5730307.656897166, 3603769.958483148],
            [-5729816.604769451, 3603041.120067656],
            [-5729717.02289784, 3601920.9739640052],
            [-5729605.323109268, 3601491.4830775387],
            [-5729443.834228387, 3601363.7718808274],
            [-5729636.187182054, 3600754.4699865673],
            [-5730382.98557631, 3600653.804354449],
            [-5730883.136035088, 3600440.8023631983],
            [-5730915.554730471, 3600322.2952632736],
            [-5730352.90217072, 3597861.6619299077],
            [-5730051.084466987, 3597227.041002178],
            [-5730623.019070008, 3597084.7445329763],
            [-5730535.89656959, 3596164.807486978],
            [-5729716.943732722, 3594957.3792937035],
            [-5729098.149519148, 3593461.392132009],
            [-5728675.710091807, 3593564.7810075623],
            [-5728445.127171082, 3593182.4221481974],
            [-5728295.305681849, 3592709.769547396],
            [-5728497.571473417, 3592402.2585152327],
            [-5728287.511709709, 3592039.3681033608],
            [-5728514.399161863, 3591611.6464775335],
            [-5727956.495026585, 3590962.352685544],
            [-5727892.162211671, 3590603.9640515395],
            [-5727658.82556211, 3590441.5259967768],
            [-5727620.663173346, 3590247.151613323],
            [-5727339.672854417, 3590152.4401469557],
            [-5727382.232383642, 3589679.9359431183],
            [-5727616.146224268, 3589342.6149974484],
            [-5727385.745038726, 3588845.468110303],
            [-5726275.529624991, 3588009.006268766],
            [-5726155.110547845, 3587530.375458565],
            [-5726733.311419691, 3587129.36081886],
            [-5727070.462856603, 3587162.837297677],
            [-5727072.074076959, 3586881.2581410646],
            [-5726813.366506206, 3586626.264534665],
            [-5726752.358861797, 3586292.12710889],
            [-5725930.590767835, 3584834.5524818217],
            [-5725786.94862961, 3584697.7446326734],
            [-5725592.045121249, 3584760.7732594614],
            [-5725601.317367256, 3584366.013686194],
            [-5724854.885775908, 3583894.198115745],
            [-5724870.869023173, 3583463.4383093463],
            [-5724569.914373683, 3583454.2466241526],
            [-5724737.419489172, 3583075.060543746],
            [-5724085.799765108, 3581905.848960524],
            [-5723821.748724663, 3581900.57878674],
            [-5722328.74890735, 3578317.2532451423],
            [-5722525.716156096, 3578136.9187393347],
            [-5722295.979955257, 3577356.4661015454],
            [-5722165.61354885, 3577152.2409464633],
            [-5721796.300735057, 3577049.8828375232],
            [-5721621.221450531, 3576854.2454581126],
            [-5721492.59425306, 3576124.951026659],
            [-5721598.090730498, 3575799.9002891886],
            [-5721387.479012645, 3575412.144638757],
            [-5721369.152980413, 3574628.391962694],
            [-5721701.066150032, 3574356.8361321166],
            [-5721656.404659626, 3573983.3696378493],
            [-5721483.665727936, 3573881.4554657866],
            [-5721578.35306226, 3573303.578738876],
            [-5721335.729964805, 3572748.555494435],
            [-5721165.354219393, 3571086.317511424],
            [-5721059.573767428, 3570844.9474103427],
            [-5720571.039157329, 3570618.58727752],
            [-5720933.387485905, 3570248.5982615985],
            [-5719750.348621359, 3570240.073749333],
            [-5719900.566461588, 3569772.1324385176],
            [-5719511.415590481, 3569464.43845812],
            [-5719046.166465677, 3567997.6354323924],
            [-5719421.713377397, 3567610.047854297],
            [-5720040.962120545, 3567422.534062645],
            [-5719877.771362747, 3566751.249559336],
            [-5720016.887391142, 3566812.277087352],
            [-5720420.016497034, 3566651.594519635],
            [-5720491.396504957, 3566307.492943178],
            [-5720182.656332005, 3565851.108702801],
            [-5719803.33637688, 3565676.376567472],
            [-5719715.54879537, 3565052.052265276],
            [-5718881.3367367415, 3563783.6933227563],
            [-5718499.510392927, 3562946.997665782],
            [-5718172.460252498, 3562711.6776887923],
            [-5718189.235384067, 3562419.875349142],
            [-5717964.523495832, 3562217.3666388635],
            [-5718643.310814248, 3561951.2871851986],
            [-5719718.735138168, 3562404.6441238127],
            [-5720701.80629453, 3561916.272284805],
            [-5721224.66076788, 3561282.6059523653],
            [-5721122.137616444, 3558211.0406858884],
            [-5720811.928450721, 3557344.3994411454],
            [-5720870.485968292, 3556975.587243279],
            [-5720597.183362212, 3556096.3880607523],
            [-5720127.2536432, 3554730.2631056607],
            [-5719857.101094252, 3554502.927499155],
            [-5719775.42776921, 3553921.1252288506],
            [-5721840.186270696, 3552590.479818249],
            [-5722377.038518795, 3551796.1434861715],
            [-5723234.701246025, 3551743.9441192844],
            [-5723722.676404704, 3551261.4553937246],
            [-5723815.885979831, 3550855.529598509],
            [-5724300.158425333, 3550338.3608692465],
            [-5725184.476285183, 3549738.4759756536],
            [-5725005.11109137, 3549574.723779119],
            [-5724513.889667411, 3549558.4733774094],
            [-5724294.328219162, 3548899.1752661197],
            [-5723868.531653428, 3545917.0877133817],
            [-5723213.697137176, 3543018.0021553827],
            [-5723366.73737144, 3542749.852344723],
            [-5723229.731048933, 3542698.801573372],
            [-5723279.492356134, 3542449.5726830848],
            [-5723040.989309242, 3542492.46787537],
            [-5723071.317146904, 3542232.327268678],
            [-5722882.227468592, 3542161.75925232],
            [-5722840.796615727, 3541872.4860906657],
            [-5722622.765921615, 3541833.8762483136],
            [-5722602.238419844, 3541514.786558572],
            [-5722449.05736043, 3541385.322914838],
            [-5722481.702097055, 3540986.0603275932],
            [-5722140.971474584, 3540910.456818945],
            [-5722029.016324911, 3540714.5439321958],
            [-5722142.562613037, 3540601.6944912565],
            [-5722016.443453279, 3540472.72527244],
            [-5721774.516765431, 3540490.861622824],
            [-5721966.125610403, 3540087.7300671902],
            [-5721812.207069526, 3539910.0025774753],
            [-5721678.891833798, 3540044.7588632377],
            [-5721575.649737706, 3539990.6134638586],
            [-5721902.073960361, 3539581.804301446],
            [-5721906.146076781, 3539334.7105039926],
            [-5722252.46743134, 3539060.2320042015],
            [-5722267.0669707125, 3538797.9612484025],
            [-5722086.571599495, 3538670.1989424923],
            [-5721883.994528724, 3538762.4310334898],
            [-5721980.54355271, 3538389.301844499],
            [-5721771.358566777, 3538310.998059519],
            [-5722082.493523623, 3538142.553973882],
            [-5722045.451047506, 3537892.239326905],
            [-5721757.457336504, 3537833.270535996],
            [-5721794.6903064335, 3537446.3705727113],
            [-5721431.300394715, 3537720.353713787],
            [-5721444.86831805, 3537877.0089100194],
            [-5720837.62691023, 3537916.1507979217],
            [-5720895.233954609, 3537693.255633065],
            [-5720649.074586677, 3537656.1283570803],
            [-5720747.260686356, 3537442.300625317],
            [-5720511.50818652, 3537349.013638107],
            [-5720787.950583796, 3537117.889069232],
            [-5720421.714778691, 3537075.1882264726],
            [-5720570.832606898, 3536708.2723783846],
            [-5720255.795011343, 3536593.43240438],
            [-5720249.314738313, 3536361.616794564],
            [-5719926.229213244, 3536173.842758729],
            [-5719722.569062029, 3535732.979606991],
            [-5719837.9315254055, 3535246.3974714144],
            [-5719602.16896668, 3535197.4185545715],
            [-5719476.507314181, 3534926.898952844],
            [-5719192.819860632, 3534938.5680527324],
            [-5719160.622955809, 3535087.3728207164],
            [-5719020.320851246, 3535009.290208323],
            [-5719005.205192754, 3534817.074961867],
            [-5718763.67452325, 3534673.411119087],
            [-5718704.987220786, 3534470.897051895],
            [-5718207.327111631, 3534331.167503247],
            [-5718182.817869036, 3534138.38825279],
            [-5717789.351353565, 3533752.879950739],
            [-5717461.682452074, 3533679.889662236],
            [-5716993.738311027, 3533281.673771688],
            [-5716510.467419275, 3533224.793078585],
            [-5716103.492591009, 3532926.3590295212],
            [-5713588.526640579, 3534337.425898774],
            [-5713404.042851902, 3534830.024404126],
            [-5713000.343848719, 3534942.285189207],
            [-5712728.858378238, 3535468.231597498],
            [-5712115.179564593, 3535905.950355343],
            [-5711619.108213401, 3535689.4993163142],
            [-5711452.567347982, 3535838.360906119],
            [-5710868.889786194, 3534974.0931353522],
            [-5710552.639314696, 3535438.24776964],
            [-5709561.002906692, 3535443.7186714374],
            [-5709418.178683583, 3535115.304427373],
            [-5709516.980508423, 3534787.7996031013],
            [-5709425.066552217, 3534601.5831422145],
            [-5708918.1391716385, 3533798.8110318915],
            [-5708609.8110895865, 3533584.80411694],
            [-5709075.888102909, 3533242.8879521107],
            [-5709151.997029074, 3532707.344538963],
            [-5708146.052999427, 3531588.7006072104],
            [-5707773.393033019, 3530535.965118124],
            [-5707284.544154625, 3529977.1374792233],
            [-5707281.438779624, 3529679.7509735445],
            [-5706384.964429964, 3528256.5889052628],
            [-5706409.286109343, 3527659.380433127],
            [-5706842.095118474, 3526962.2425109316],
            [-5706378.913409023, 3525889.2807343444],
            [-5706551.618289345, 3525724.523149546],
            [-5706806.489778514, 3525936.5663788687],
            [-5706965.768719713, 3525436.027769784],
            [-5706290.7220516605, 3522203.704614967],
            [-5706203.043299293, 3521164.554855514],
            [-5706311.644818397, 3520717.6923592193],
            [-5706138.512546748, 3520505.0589039945],
            [-5706277.518351055, 3520307.542474711],
            [-5706082.832256868, 3519716.9343263055],
            [-5706167.279749305, 3518543.765592002],
            [-5706053.320554071, 3517808.9350172007],
            [-5706347.917921746, 3515451.1212186427],
            [-5706603.891091521, 3515505.2188313617],
            [-5706812.456635092, 3515226.9158039843],
            [-5707012.983828159, 3515187.403202054],
            [-5707054.767622314, 3514419.7562247217],
            [-5706588.63574187, 3514210.3033546363],
            [-5706516.952087882, 3512995.694401453],
            [-5706977.188186497, 3512462.7943724995],
            [-5707429.289140711, 3512406.238594094],
            [-5707171.395183714, 3512043.403563628],
            [-5707100.5697193025, 3511348.0887588607],
            [-5707164.473346074, 3510744.5095519763],
            [-5707681.180622767, 3510383.86602118],
            [-5707522.979403298, 3509153.938234498],
            [-5707670.994301429, 3508945.8731959956],
            [-5707709.40700053, 3508511.706374133],
            [-5707681.69315004, 3508297.6610726807],
            [-5707254.409348428, 3508667.4498084793],
            [-5706913.960002631, 3508600.894123556],
            [-5706567.1339516165, 3508167.2775357217],
            [-5705721.090633784, 3508230.644398382],
            [-5705344.303495151, 3507732.9192751427],
            [-5705582.223670277, 3507479.7914616163],
            [-5705245.25234587, 3507367.2769516367],
            [-5705132.211840349, 3506898.6673410614],
            [-5705334.291877136, 3506820.7807603795],
            [-5705262.201928135, 3506342.8230647035],
            [-5705554.184821848, 3505251.6107414057],
            [-5705701.483977059, 3505133.553784797],
            [-5705825.886807576, 3504281.450443663],
            [-5705983.865886682, 3504067.0596549218],
            [-5704743.125345245, 3501840.2823325116],
            [-5704992.4511248125, 3501584.508454843],
            [-5704916.3992771385, 3501289.758787875],
            [-5704520.750728765, 3500889.7926807078],
            [-5704526.439588379, 3500594.2157696295],
            [-5704893.711676137, 3499679.366200501],
            [-5705225.262591151, 3499242.8454383556],
            [-5704752.084864559, 3499012.0913878987],
            [-5704860.59834566, 3498654.8169640605],
            [-5705221.283654107, 3498216.327468191],
            [-5706153.615788075, 3497416.0792863416],
            [-5706886.593755732, 3497492.4078074708],
            [-5708259.067366431, 3496686.9174278397],
            [-5708648.307320257, 3496612.7207676717],
            [-5709234.9228214305, 3496060.5434432887],
            [-5709703.829540992, 3494920.5898001892],
            [-5710306.997042707, 3494376.2114240834],
            [-5710629.842123985, 3494342.8924619895],
            [-5710712.156456759, 3494119.2356080553],
            [-5710666.123978814, 3493891.19789985],
            [-5710179.194844311, 3493559.481951143],
            [-5710389.033294229, 3493211.841029154],
            [-5709917.909084501, 3492798.018375348],
            [-5710127.783070808, 3492050.154479261],
            [-5709906.760152812, 3491830.119568923],
            [-5709929.493502496, 3491661.642799898],
            [-5707945.739066301, 3491510.7125759553],
            [-5707666.829097292, 3491321.15573383],
            [-5707475.21776127, 3491618.4132998395],
            [-5707106.93743052, 3490927.3300299156],
            [-5706823.541045147, 3491158.6586531145],
            [-5706314.704223307, 3491244.072411308],
            [-5705557.314400289, 3490669.850440307],
            [-5705477.461700878, 3490402.569805613],
            [-5705683.665428165, 3490130.3741651503],
            [-5705439.75512175, 3488913.004843173],
            [-5705648.4120475575, 3488072.5305691194],
            [-5705461.890413931, 3487501.5296117286],
            [-5705974.355714501, 3486733.270842422],
            [-5706917.102299038, 3486069.885417958],
            [-5707280.705638849, 3485974.924929172],
            [-5707149.208606189, 3485737.0214493824],
            [-5706273.774268432, 3485079.025832998],
            [-5706254.211948916, 3484768.7220636904],
            [-5707184.917521969, 3484125.110769232],
            [-5706623.345405733, 3482008.3035108484],
            [-5706362.344193835, 3482179.1615856085],
            [-5706443.953433255, 3481605.7895608153],
            [-5705730.808905465, 3481470.8357571424],
            [-5705176.634990447, 3481873.065715819],
            [-5705401.605479683, 3482104.7035076376],
            [-5705348.626672907, 3482325.3601873755],
            [-5705129.0957873585, 3482436.0043391692],
            [-5704047.195709091, 3482094.559497964],
            [-5703769.41438583, 3481877.1274442584],
            [-5703419.416041788, 3482058.131523287],
            [-5703300.957561766, 3481825.249996056],
            [-5703051.17871108, 3481749.116617976],
            [-5703175.656312205, 3481483.6224723053],
            [-5703129.941683086, 3481202.1340303966],
            [-5702976.884609392, 3481062.34471658],
            [-5702697.554622173, 3481109.597438452],
            [-5702782.318713146, 3480902.142640681],
            [-5702668.254534828, 3480760.8056871644],
            [-5702421.189146118, 3480893.6558410884],
            [-5702164.75517135, 3480777.6544237565],
            [-5701699.463462528, 3480806.138541999],
            [-5701956.612502935, 3480397.854572012],
            [-5701752.55872504, 3480245.6547434344],
            [-5701847.73892815, 3479933.977315304],
            [-5702439.799496848, 3480025.6841701814],
            [-5702296.430983333, 3479672.9858536604],
            [-5702443.027423312, 3479585.1938259057],
            [-5702259.971341913, 3479278.0360190743],
            [-5702489.835053571, 3478825.6885167193],
            [-5702349.397282788, 3478608.41865498],
            [-5702076.008084853, 3478587.381320321],
            [-5702305.47415514, 3478267.1107110833],
            [-5702007.705072072, 3478288.057077351],
            [-5701975.7131979065, 3478174.3416733504],
            [-5701147.750010806, 3477813.5393582997],
            [-5701325.399531655, 3477646.8130053575],
            [-5701570.396021955, 3477763.0428130743],
            [-5701589.839532093, 3477616.1199752553],
            [-5700499.756030853, 3476745.531641328],
            [-5699540.455222989, 3476885.188350377],
            [-5698987.662962222, 3476643.7394328075],
            [-5698680.905224509, 3476766.882237162],
            [-5697725.620557078, 3476076.115806026],
            [-5697753.261825342, 3476352.8462875867],
            [-5697444.562575222, 3476491.2941224063],
            [-5697381.648956025, 3476729.082909589],
            [-5697162.5893122, 3476637.9188685925],
            [-5697006.236985086, 3477008.873577519],
            [-5696233.483772274, 3476474.5243313764],
            [-5695768.177558127, 3476815.6905299113],
            [-5695376.766321547, 3476569.264144953],
            [-5694689.229517114, 3476593.6387470574],
            [-5694024.580850134, 3476378.2088008365],
            [-5693821.122901709, 3476190.438327233],
            [-5694061.550632015, 3475581.813963228],
            [-5694065.352113567, 3475163.3616002603],
            [-5694204.42292682, 3475023.837441764],
            [-5694035.666951182, 3474728.6550687286],
            [-5694238.53222147, 3474632.6562800603],
            [-5694034.838950427, 3474358.805997282],
            [-5693813.824866763, 3474334.3314823336],
            [-5693591.924868107, 3474106.6955372356],
            [-5693572.193538429, 3473919.9428852424],
            [-5693415.617298966, 3473934.829349406],
            [-5693450.58181738, 3473201.226860894],
            [-5693237.107368004, 3472967.8991803536],
            [-5693454.253922261, 3472434.1016474674],
            [-5693313.707411617, 3472244.226797607],
            [-5693334.3096819, 3471612.481545578],
            [-5692966.070564175, 3471492.350606663],
            [-5692771.7558580795, 3470908.6374950907],
            [-5692385.9766282765, 3470523.3665785547],
            [-5692778.057429866, 3469491.8734890088],
            [-5692690.62381025, 3468808.6725254715],
            [-5692907.005372744, 3468503.958325616],
            [-5692788.106476192, 3468077.786894496],
            [-5692901.529452448, 3467259.997855237],
            [-5692425.566677646, 3467123.5574620683],
            [-5692655.711534048, 3466963.7212080676],
            [-5692629.466684021, 3466608.333342441],
            [-5691964.389785682, 3466595.66576234],
            [-5691401.340780715, 3466118.409481168],
            [-5691242.615536682, 3465827.0125020607],
            [-5690978.0857300805, 3465748.578468268],
            [-5690854.849706385, 3465357.7489327495],
            [-5690168.872532409, 3464730.572047075],
            [-5689292.450497126, 3464652.1102302843],
            [-5689499.641028449, 3465003.7928966433],
            [-5689039.826612548, 3465082.920072471],
            [-5689083.4357524775, 3465408.183147387],
            [-5688872.956103859, 3465669.1318269954],
            [-5687419.08012834, 3464860.593748586],
            [-5686906.125085207, 3464721.5478495094],
            [-5686985.6398383, 3464508.262637831],
            [-5687527.07533534, 3464464.8859004034],
            [-5687363.491084739, 3464198.0179282203],
            [-5686722.502860325, 3464016.622663318],
            [-5685470.49921325, 3464051.6186187062],
            [-5683499.918451976, 3465161.23385054],
            [-5682103.655323006, 3464585.453290813],
            [-5681056.363073314, 3462835.0892114365],
            [-5682404.41400863, 3461221.762104034],
            [-5682374.297892684, 3460934.019050753],
            [-5683159.4106134605, 3459881.6430428037],
            [-5683413.583736538, 3459002.6608016393],
            [-5683170.728565353, 3458806.832764473],
            [-5682629.647291473, 3457887.0551701644],
            [-5682211.602716822, 3456773.5105799385],
            [-5681311.037588617, 3455922.5072158603],
            [-5679520.929932206, 3455628.943813271],
            [-5678117.982945739, 3452266.578050906],
            [-5674915.636398552, 3452048.0763331633],
            [-5673764.214137281, 3450025.5682382314],
            [-5669329.503915412, 3450054.968754906],
            [-5666608.032645825, 3449194.524722464],
            [-5666166.951533346, 3448780.583286134],
            [-5665313.030407207, 3448378.609354278],
            [-5664809.862427312, 3447810.79181727],
            [-5663861.7217389755, 3447227.5473409924],
            [-5663366.123101856, 3446398.0382596073],
            [-5662723.068718148, 3445715.127262608],
            [-5652923.40608828, 3448477.314725987],
            [-5652524.293289631, 3448089.3741041627],
            [-5652164.090131062, 3447303.149571506],
            [-5652189.430685898, 3446336.686130238],
            [-5651716.707973047, 3445147.2526241373],
            [-5651377.999621468, 3444769.5188847124],
            [-5650670.243144465, 3444427.1230334323],
            [-5650243.468485887, 3443336.857417303],
            [-5649271.39594839, 3442214.384713132],
            [-5649225.04610869, 3441886.003492057],
            [-5648557.077915636, 3441489.861492089],
            [-5648066.234912822, 3440881.593310032],
            [-5647810.341952825, 3440822.2704866943],
            [-5647554.436435678, 3440561.520676864],
            [-5647038.373816219, 3440579.4508491694],
            [-5646548.3219149, 3440419.6339913514],
            [-5646076.24710593, 3440657.2071196893],
            [-5644977.634298195, 3439880.8148557786],
            [-5644688.902166387, 3439597.409082815],
            [-5644250.151579775, 3438720.895439718],
            [-5643353.632978351, 3438092.5269710384],
            [-5642382.160669764, 3437121.1854378413],
            [-5641971.009861734, 3435548.845068231],
            [-5631570.1695556585, 3438227.7606132645],
            [-5630228.564592888, 3433184.8137249853],
            [-5627753.864371049, 3434904.5481925355],
            [-5625816.780534277, 3436007.6756301513],
            [-5625136.028488965, 3436573.885499674],
            [-5623139.049219861, 3437215.660566564],
            [-5623719.835600931, 3437578.0641752495],
            [-5623424.3390367, 3437527.4006663742],
            [-5623650.047840186, 3437708.8814553292],
            [-5623465.874888718, 3437815.0866918173],
            [-5623261.398852263, 3437722.815870824],
            [-5623213.346492202, 3437831.4654324837],
            [-5623387.729229073, 3437936.985616287],
            [-5623118.828087379, 3438185.2110758564],
            [-5622904.375958749, 3438193.196467867],
            [-5622584.652443331, 3438679.8855411313],
            [-5614818.532088143, 3443635.724132704],
            [-5606855.2401879225, 3448080.279693378],
            [-5603665.947275324, 3449424.5377794704],
            [-5601119.887714154, 3450952.3944874546],
            [-5597823.6197787635, 3452416.1867848984],
            [-5596744.674347563, 3453040.16017758],
            [-5596708.66419574, 3453262.5869276263],
            [-5594762.436201087, 3454141.461217963],
            [-5594868.949146789, 3454253.979324197],
            [-5594026.58272522, 3454765.184093624],
            [-5592766.583518433, 3456098.134077426],
            [-5591764.931404552, 3456202.7993429243],
            [-5591365.916785957, 3456492.18023447],
            [-5590966.482648737, 3457282.592105611],
            [-5590505.208373221, 3457535.5089506228],
            [-5589594.67568787, 3457484.4221512694],
            [-5588890.204981024, 3458117.624328698],
            [-5588382.471193972, 3458092.67565915],
            [-5587827.7398561975, 3458290.9641194246],
            [-5587272.652511727, 3458990.3508071755],
            [-5586742.662605774, 3459182.1307843975],
            [-5585741.440931735, 3459286.838124601],
            [-5585192.889367635, 3460010.7255709097],
            [-5583608.416991168, 3460505.665742674],
            [-5582605.393754306, 3461506.915845625],
            [-5580952.5072083045, 3461940.7606642228],
            [-5580516.1458785515, 3462187.0697992845],
            [-5580945.63082707, 3462416.9015800813],
            [-5581828.862275445, 3463370.9716065135],
            [-5581921.804432038, 3464269.544347919],
            [-5582436.350637247, 3464375.8219445716],
            [-5582409.859850391, 3464548.4133691425],
            [-5582065.907136963, 3464653.3081524144],
            [-5581855.487601747, 3464945.4116807873],
            [-5582024.508218641, 3465899.9054185166],
            [-5582622.850758531, 3466183.1148844236],
            [-5582667.956422761, 3466741.544247168],
            [-5582815.769675858, 3466826.234278886],
            [-5583108.705496045, 3466495.836386335],
            [-5583335.368225164, 3466479.351901222],
            [-5583437.660541591, 3466734.319822935],
            [-5583279.257879665, 3467257.2095834785],
            [-5584030.005795673, 3467416.010896888],
            [-5583555.17308907, 3468181.155572693],
            [-5584448.5112946695, 3469941.2343258136],
            [-5584453.570211444, 3470921.006304979],
            [-5585506.463074819, 3470960.05694899],
            [-5585797.216740618, 3471686.7982472535],
            [-5586310.761038614, 3471749.8597315047],
            [-5586208.965080029, 3472240.201613987],
            [-5585830.701049013, 3472652.617712686],
            [-5585826.590277698, 3472888.7440138184],
            [-5586703.591273965, 3472562.9216499194],
            [-5587029.275560495, 3473076.6197429197],
            [-5586640.025398094, 3473591.706682965],
            [-5586640.646469168, 3474362.1688509868],
            [-5586443.1356511945, 3474433.1562003857],
            [-5586217.348445319, 3474243.232909931],
            [-5586062.9428760465, 3474289.0002251803],
            [-5586019.340302498, 3474667.4516236326],
            [-5586375.5670838235, 3474686.944058525],
            [-5586691.94886089, 3474945.474946776],
            [-5587189.464752541, 3474852.318465125],
            [-5587588.182607872, 3475505.5785408993],
            [-5588262.861953041, 3475572.8304807176],
            [-5588602.468736681, 3475817.777962944],
            [-5588934.9776723245, 3476562.581963347],
            [-5588620.334935784, 3477142.8113015657],
            [-5589749.55860006, 3477154.926893007],
            [-5589618.8643968385, 3477729.4626233256],
            [-5589312.000068615, 3477873.2252226607],
            [-5589477.15791573, 3478322.7540802057],
            [-5589635.033207156, 3478318.579049799],
            [-5589883.190968017, 3478031.233913554],
            [-5590124.325440577, 3478021.1957647786],
            [-5590918.394885692, 3478322.3281138013],
            [-5590921.498641489, 3477908.266169699],
            [-5591046.583669595, 3477859.6900524045],
            [-5591360.897650199, 3477947.110055836],
            [-5591456.076399407, 3478128.8696178044],
            [-5590933.197120171, 3478784.691589011],
            [-5591085.784477348, 3479105.0951158484],
            [-5591780.5193012105, 3478835.5794182383],
            [-5592203.301686523, 3478940.3563952255],
            [-5592389.9457527865, 3479188.318926503],
            [-5592899.86602642, 3479071.040047511],
            [-5593066.640967331, 3479202.3353953124],
            [-5593223.790202947, 3479722.941326122],
            [-5593741.561024283, 3480001.043078575],
            [-5594018.323621084, 3479417.909263446],
            [-5594227.682354271, 3479257.4706625943],
            [-5594505.472792107, 3479409.7075758227],
            [-5594653.031073979, 3479873.6099382187],
            [-5595074.473753654, 3479512.3639023053],
            [-5595379.165296024, 3479565.047956964],
            [-5595363.081625804, 3480111.3609837284],
            [-5595736.165055071, 3480476.757248077],
            [-5595885.841757224, 3480847.582612379],
            [-5595725.434134726, 3480942.3337001675],
            [-5595439.048904477, 3480858.406900231],
            [-5594870.029928542, 3480451.603694858],
            [-5594903.432476805, 3480680.882867003],
            [-5595337.892559127, 3481585.5686379382],
            [-5595223.255199522, 3482210.4568640864],
            [-5595587.670530121, 3482340.146528759],
            [-5595445.691268024, 3482720.947191799],
            [-5596394.553685463, 3483307.084735205],
            [-5596219.379795118, 3484167.01104303],
            [-5596624.488411325, 3484026.381336191],
            [-5597059.040424901, 3483548.8347044312],
            [-5597247.318437074, 3483686.090682431],
            [-5597595.164312549, 3484467.852673133],
            [-5597975.528731365, 3484529.630442194],
            [-5598332.595961202, 3483657.2251616707],
            [-5598592.300125233, 3483581.0354050756],
            [-5598872.653236718, 3483779.018548817],
            [-5599110.154950143, 3484462.5740754106],
            [-5599827.502625047, 3484517.0255062478],
            [-5600114.05290325, 3484738.840030173],
            [-5600207.898957141, 3485003.1472938214],
            [-5600055.686007377, 3485067.5025340533],
            [-5599559.0935503645, 3484917.371168857],
            [-5599445.1584334625, 3485037.9262295556],
            [-5599492.695996317, 3485637.788605056],
            [-5599992.404861478, 3485702.4113501874],
            [-5600501.668222509, 3484925.859299839],
            [-5600664.471538604, 3484900.37588988],
            [-5600806.109078665, 3485346.367763882],
            [-5600970.244894892, 3485456.087806187],
            [-5601398.657001786, 3485344.463616748],
            [-5601473.068852346, 3485630.069086695],
            [-5602214.181818708, 3485970.7534498274],
            [-5602458.548350511, 3486453.564918867],
            [-5602831.953209836, 3486813.8272770676],
            [-5603502.814560978, 3486884.8280783063],
            [-5603810.279613985, 3486601.4135942375],
            [-5604440.66873591, 3487004.9643999217],
            [-5605342.595501284, 3487312.4443819853],
            [-5605311.6266368115, 3487811.9548432534],
            [-5605519.582539236, 3488545.855350867],
            [-5606039.304265455, 3488198.766050652],
            [-5606168.9051381815, 3488249.942162862],
            [-5606282.684600029, 3488482.8406362357],
            [-5606070.265992082, 3488936.373058648],
            [-5606547.901063889, 3489176.461103127],
            [-5606760.07192597, 3489943.201000117],
            [-5605864.796435603, 3490116.7876559533],
            [-5605693.449388426, 3490500.28353042],
            [-5605731.888159231, 3490778.367260419],
            [-5605920.1377371745, 3490915.812607078],
            [-5606487.029508742, 3490717.519964353],
            [-5606889.6550529245, 3491121.54521998],
            [-5606646.605794656, 3491396.2599715367],
            [-5606750.109793306, 3491826.896552994],
            [-5607687.810240658, 3492142.3437237055],
            [-5608021.7523655305, 3492547.0072948337],
            [-5608276.9728510445, 3492616.241665399],
            [-5608482.841687463, 3492300.0431298004],
            [-5608696.8056386, 3492210.5302418745],
            [-5608805.999575187, 3492402.4746116693],
            [-5608695.198477413, 3492888.863318013],
            [-5609205.726735806, 3493341.2859882824],
            [-5609419.507359833, 3493224.711531895],
            [-5609395.521048384, 3492956.3043260123],
            [-5609577.56636629, 3492893.737175083],
            [-5610199.704476446, 3493174.5480918316],
            [-5610230.584731583, 3493433.8355325186],
            [-5609668.9677595, 3493480.294194779],
            [-5609280.482679173, 3494450.8834217726],
            [-5608900.648634733, 3494808.931422168],
            [-5608899.754359624, 3495099.0340375705],
            [-5609368.118078971, 3495382.5322525776],
            [-5609587.887107298, 3495721.07346062],
            [-5609412.402957564, 3496162.266101418],
            [-5609708.889619514, 3497040.051299177],
            [-5609432.201087885, 3497325.4724444174],
            [-5609188.181281318, 3497266.7767657796],
            [-5609061.638933328, 3497131.8228549603],
            [-5609132.33580053, 3496640.526879017],
            [-5609031.01706119, 3496419.4775741897],
            [-5608753.974571912, 3496769.29173194],
            [-5608871.796079934, 3497516.7399975685],
            [-5608588.265544254, 3497834.4372243746],
            [-5607180.951919299, 3498302.8013679422],
            [-5607043.880709818, 3498636.888887498],
            [-5607428.873692182, 3499372.7502651704],
            [-5607598.815838322, 3499533.780303726],
            [-5608015.589839723, 3499563.751264933],
            [-5608113.576656848, 3499941.30279325],
            [-5607923.649446564, 3500244.3280663146],
            [-5607545.129408731, 3500444.2682973123],
            [-5607410.203009578, 3500795.467235252],
            [-5607520.540194658, 3500990.708581677],
            [-5607894.661538057, 3500775.4056359045],
            [-5608574.169961806, 3500911.3534300704],
            [-5609166.6258403845, 3501354.682496767],
            [-5609271.8257311545, 3501760.2408108125],
            [-5609003.805548668, 3502740.2184703094],
            [-5609076.866269185, 3503079.47274306],
            [-5609370.481798178, 3503406.3258184027],
            [-5609825.3376288675, 3503544.363418933],
            [-5610778.346709879, 3503369.6848883484],
            [-5611049.1703801295, 3503493.5211010845],
            [-5611175.555476512, 3504380.989706063],
            [-5610754.618754221, 3505465.500604961],
            [-5610078.9324605735, 3505909.249967858],
            [-5610018.350763829, 3506193.6023678863],
            [-5610076.331750031, 3506417.3791647325],
            [-5610332.096125794, 3506425.7425157893],
            [-5610987.598728987, 3506076.802663363],
            [-5611480.509010738, 3506367.032231042],
            [-5611297.164841852, 3507041.411861811],
            [-5611821.44600452, 3508547.480370039],
            [-5612379.855418286, 3509694.696193334],
            [-5612285.196589448, 3510109.863923483],
            [-5611823.828911919, 3510458.0642573186],
            [-5611750.141875471, 3510930.03591077],
            [-5612078.114312631, 3511531.502946754],
            [-5612402.12133708, 3511760.4946892248],
            [-5612334.197326441, 3512442.6025990224],
            [-5612463.869839749, 3513149.8402080345],
            [-5612940.173230719, 3512998.637295498],
            [-5614547.832470909, 3513088.559430894],
            [-5614815.123926314, 3513522.269984451],
            [-5615262.862896309, 3513804.2503450434],
            [-5615446.138060482, 3514201.6911781137],
            [-5615382.375444126, 3514634.2901333226],
            [-5615528.6277278345, 3515647.1408339087],
            [-5615691.743698362, 3515822.654253754],
            [-5615988.598038012, 3515815.005454098],
            [-5617168.311100279, 3517375.6420930657],
            [-5617939.600208267, 3518066.5056724204],
            [-5618282.574866571, 3518776.72002218],
            [-5618724.860323461, 3520277.6218326385],
            [-5611278.754218181, 3522045.701610932],
            [-5618752.6134390915, 3552228.049843936],
            [-5620984.075269438, 3560327.8049834734],
            [-5621339.563709548, 3561923.650783925],
            [-5621580.840995208, 3565235.2816995853],
            [-5622412.4455983145, 3568079.902483644],
            [-5622361.782182224, 3570148.383824954],
            [-5623403.050100948, 3571859.1732744034],
            [-5623820.51046577, 3573702.8739105454],
            [-5624554.56079681, 3575861.1577402987],
            [-5625533.795021561, 3577640.9077424305],
            [-5626004.314143574, 3579075.948024046],
            [-5628951.602299241, 3589842.7086890154],
            [-5629021.232487027, 3590220.2458915757],
            [-5628773.779866492, 3591626.9961644285],
            [-5629825.399257416, 3594943.9481207225],
            [-5631053.447669158, 3597715.724423398],
            [-5634486.280159166, 3611287.2810361255],
            [-5642841.4188396465, 3643253.639918505],
            [-5643619.82144122, 3643532.8970981743],
            [-5644614.123530684, 3643626.380128766],
            [-5645021.825334792, 3643787.7899838747],
            [-5645145.983900641, 3644283.6290701055],
            [-5644808.18585545, 3645659.2653733175],
            [-5644753.974290479, 3646700.459993758],
            [-5645287.697583873, 3649043.565129079],
            [-5645165.914955874, 3650549.39036417],
            [-5645265.72971984, 3651578.275096427],
            [-5644550.178408919, 3652178.7334149373],
            [-5644371.646332318, 3652618.563894288],
            [-5643534.544636017, 3655251.3026831066],
            [-5643628.064273846, 3656255.25282431],
            [-5647976.357590231, 3660017.2292761095],
            [-5655098.558086914, 3689834.4438210335],
            [-5655813.168583774, 3690921.986553258],
            [-5656496.64215489, 3692307.1471662],
            [-5656963.440958781, 3694088.4539579116],
            [-5657214.282417855, 3695844.1962759816],
            [-5657774.690406931, 3696627.6840160405],
            [-5658180.463312191, 3697633.896838113],
            [-5658240.655165352, 3698725.515668868],
            [-5658462.044840665, 3699197.656148123],
            [-5658558.31012114, 3700859.915130656],
            [-5659152.851004128, 3703268.441594989],
            [-5659711.788708501, 3704684.820458371],
            [-5660856.424525437, 3706246.673613159],
            [-5661358.988369244, 3707966.8687400576],
            [-5661825.964652551, 3708905.5751942093],
            [-5663094.006025341, 3710226.6127989134],
            [-5664215.194178698, 3710951.7478877986],
            [-5665212.499357772, 3711918.2678367565],
            [-5665679.241629187, 3712857.33008831],
            [-5666854.092469472, 3714333.690849808],
            [-5668505.566016742, 3715087.012334282],
            [-5671113.069903859, 3716000.996283746],
            [-5673159.077231278, 3716974.3637517504],
            [-5674680.5596646415, 3717944.961566426],
            [-5677321.2296005795, 3720275.650323987],
            [-5678343.443260022, 3721026.747540225],
            [-5681793.020776076, 3723134.064845065],
            [-5683559.733416695, 3724573.403000548],
            [-5684942.157900893, 3726476.303356394],
            [-5686277.511528067, 3729366.6857805955],
            [-5687606.008879366, 3733946.737968283],
            [-5689119.733269859, 3738218.2877869974],
            [-5689524.215288344, 3738910.6922449255],
            [-5689800.406554674, 3739291.607990008],
            [-5690170.176635471, 3739412.3897915324],
            [-5690574.679628044, 3738601.7556792893],
            [-5691200.710274825, 3737948.1161160595],
            [-5691701.066896079, 3737852.405629102],
            [-5692101.260000722, 3738097.7617460764],
            [-5693025.471579217, 3739955.9485250954],
            [-5693583.788056638, 3740742.9802579377],
            [-5694579.450468263, 3741713.7119280514],
            [-5695137.682850592, 3742500.893873017],
            [-5695445.491801933, 3742689.731347169],
            [-5693883.782538965, 3748212.680731095],
            [-5694775.650799701, 3751450.570238216],
            [-5694601.132232644, 3751809.4085395946],
            [-5694479.054187591, 3752814.827273808],
            [-5694661.600640883, 3753350.6302528484],
            [-5695406.33208772, 3753723.502431494],
            [-5695558.604889132, 3754134.8211783627],
            [-5698053.079265326, 3763340.140418554],
            [-5697921.233134414, 3766035.5251559904],
            [-5698105.887478189, 3767230.2814100166],
            [-5698625.452097254, 3768080.2611253415],
            [-5699313.160464927, 3768652.1649679984],
            [-5703725.186796789, 3783673.603528535],
            [-5724431.737255656, 3790619.8008175613],
            [-5726301.748416963, 3790986.084089599],
            [-5729916.147892809, 3792065.871985767],
            [-5733230.5661746105, 3793606.324086188],
            [-5734979.915014582, 3794138.200978629],
            [-5763447.838892061, 3805633.8031266374],
            [-5765840.115296077, 3819132.632207244],
            [-5765651.375905952, 3820102.8236601334],
            [-5765046.884351917, 3821858.744510077],
            [-5765087.710111887, 3824572.188017618],
            [-5765624.566706342, 3827062.487208644],
            [-5767842.546479775, 3833570.832310625],
            [-5768255.216702668, 3835429.894519994],
            [-5768347.808986702, 3836597.7613888825],
            [-5767993.382427328, 3837976.802578207],
            [-5763307.587098618, 3845927.6045651506],
            [-5763787.940436823, 3851628.652619865],
            [-5762718.925074399, 3853412.9344983096],
            [-5763177.317848146, 3854362.211703706],
            [-5764680.720835, 3856202.0498521538],
            [-5765042.390735854, 3856962.7294596215],
            [-5764204.791641325, 3862735.374598153],
            [-5764552.765670751, 3864324.1213915357],
            [-5765604.928663971, 3864121.8995440425],
            [-5765862.87346781, 3864191.7137389826],
            [-5766531.584329351, 3863876.897877688],
            [-5769655.074356428, 3863013.865230763],
            [-5770279.925646369, 3863060.4893890223],
            [-5773134.507522928, 3862262.69150724],
            [-5773153.964820485, 3862345.6869707904],
            [-5778297.214205019, 3861214.522022439],
            [-5779908.992366458, 3860715.058957725],
            [-5782088.676985674, 3860386.3618784156],
            [-5787390.532173483, 3859085.0545813967],
            [-5791569.5762523785, 3855946.6054184707],
            [-5792268.081646091, 3855295.3549412168],
            [-5792812.925206827, 3855185.9292339985],
            [-5795788.908372619, 3853062.143437023],
            [-5797419.2008658, 3851723.859491943],
            [-5800413.7560532335, 3849714.480818979],
            [-5800263.199887638, 3851381.407479855],
            [-5800264.903048535, 3853772.254228152],
            [-5800455.338806427, 3854385.333920869],
            [-5800651.045112905, 3854557.82954441],
            [-5801584.653906804, 3854333.858103657],
            [-5802001.682222171, 3854607.1416999972],
            [-5801362.243147135, 3856428.313483651],
            [-5801334.186606986, 3856940.949702551],
            [-5819942.964060822, 3856461.378496064],
            [-5821812.499665695, 3856278.7460471108],
            [-5823890.378618491, 3856326.3544849013],
            [-5839245.75927674, 3855868.6346627926],
            [-5839807.361852156, 3855732.492079589],
            [-5842930.188230988, 3855813.5176608963],
            [-5844686.930774006, 3855608.1033559297],
            [-5845573.7970278505, 3856132.8448360325],
            [-5846329.256579589, 3856261.303464351],
            [-5846567.78417136, 3856171.0425870335],
            [-5846849.656846657, 3856310.0557051287],
            [-5847092.520210734, 3856179.67799327],
            [-5847560.813761319, 3856254.507632985],
            [-5847877.447529998, 3855891.456089214],
            [-5848730.541143322, 3855670.1460715104],
            [-5860062.579297314, 3855493.98727383]
          ]
        ]
      }
    }
  ]
}
